Street address,Trading name,Number of seats,Longitude,Latitude,Type
117 Grattan Street,Roy's Cafe,21,144.9656241,-37.80080042,Cafe
550 Lonsdale Street,Donoghue's ,50,144.9560169,-37.8134766,Cafe
97-103 Elizabeth Street,Subway,16,144.9634979,-37.81592157,Cafe
188-202 King Street,La Di Da,80,144.9556244,-37.81551353,Cafe
4 Riverside Quay,Hopscotch,200,144.9633758,-37.82092509,Cafe
194-196 Faraday Street,Yo-Chi,24,144.9680207,-37.79844782,Cafe
744-770 Bourke Street,Origami Sushi & Noodles ,12,144.947217,-37.81817241,Cafe
 Wellington Parade,The Pavilion,86,144.9804557,-37.81296163,Cafe
472-482 Flinders Street,Riverside Deli & Coffee House,12,144.9582721,-37.81974184,Cafe
19-21 Leveson Street,Di Bella Coffee,60,144.9505945,-37.80447359,Cafe
1-3 Cobden Street,Yeonga,96,144.956923,-37.80560474,Cafe
75-77 Hardware Lane,Amigos Hardware Lane,44,144.9608667,-37.8131434,Cafe
32-54 Lonsdale Street,Degani At Urban Workshop,36,144.9707325,-37.8091842,Cafe
77 Story Street,University High School Canteen,100,144.9560633,-37.79746671,Cafe
228-236 Flinders Street,Alice Nevins,10,144.9665517,-37.81724878,Cafe
336 Russell Street,Blu Point Caffe,26,144.9664575,-37.80822377,Cafe
610 Queensberry Street,Elceed Cafe,24,144.9471385,-37.80252643,Cafe
256-268 Flinders Street,Sea Salt,26,144.9656264,-37.81760781,Cafe
578-606 Bourke Street,"The Attic, Artisan Bread And Cafe",6,144.9561073,-37.81571393,Cafe
457-469 Macaulay Road,Taco Bill,12,144.9315233,-37.79484451,Cafe
303-317 Collins Street,Cafe On Collins,17,144.9638231,-37.81662708,Cafe
705-715 Collins Street,Chiara,20,144.9511863,-37.82096812,Cafe
535 Little Lonsdale Street,Jung Gun Restaurant,42,144.9560169,-37.8134766,Cafe
199-207 Spring Street,Father John Cafe,18,144.9720594,-37.81012699,Cafe
22-40 Lincoln Square North,Bouverie Deli,36,144.9627288,-37.8013409,Cafe
357 Victoria Street,Smile Thai Restaurant,4,144.949623,-37.80538734,Cafe
482 Macaulay Road,Jerry's Burgers 'n' Fries,24,144.9299704,-37.79424521,Cafe
100 St Kilda Road,Fatto Bar & Cantina,80,144.9682264,-37.82094188,Cafe
19-21 Lincoln Square South,Kaprica,15,144.9627813,-37.80336259,Cafe
220-226 Collins Street,1932 Cafe & Restaurant,32,144.9661258,-37.81528474,Cafe
367-377 Royal Parade,Oshin Sushi Bar,20,144.9585626,-37.7849288,Cafe
84-86 Elizabeth Street,Hudsons Elizabeth Street,8,144.9641934,-37.81591326,Cafe
516-520 Collins Street,Feast @ 520,20,144.9572629,-37.81780327,Cafe
34 Errol Street,KL Bunga Raya,40,144.9497225,-37.80435713,Cafe
57-67 Little Collins Street,Sakura Kaiten Sushi,34,144.9716953,-37.81309819,Cafe
52-54 Collins Street,Koko Black Chocolate,65,144.9718392,-37.81355886,Cafe
90-98 Collins Street,Entrecote City,65,144.9702813,-37.8139675,Cafe
121-127 Little Collins Street,Harry's At Stamford ,8,144.9697676,-37.8136886,Cafe
502 Queensberry Street,Mr Price's Food Store,30,144.9506624,-37.8028658,Cafe
53-57 Lonsdale Street,Healthy Nibbles Cafe,16,144.9707149,-37.81005686,Cafe
559-587 Collins Street,Earl Canteen,10,144.9557275,-37.81902044,Cafe
435-443 Little Collins Street,Little Colin,10,144.9600859,-37.81638558,Cafe
594 Queensberry Street,Twenty & Six Espresso,26,144.9475392,-37.80257072,Cafe
192-194 Bellair Street,Spinifex Cafe,10,144.9300585,-37.79405204,Cafe
118 Lygon Street,Grilled 118,30,144.9666993,-37.80443778,Cafe
273 Swanston Street,Taiwan Cafe,56,144.9645317,-37.81185964,Cafe
131-137 Lonsdale Street,Footlights Restaurant,80,144.96853,-37.81098009,Cafe
190 Bellair Street,Karelay Patisserie,22,144.9300805,-37.79395787,Cafe
12-18 Meyers Place,Lily Blacks,100,144.972451,-37.81221617,Cafe
76-84 Collins Street,Mediterranean Deli,4,144.9707087,-37.81358646,Cafe
33-35 Guildford Lane,Rustica Canteen,4,144.9598612,-37.81146107,Cafe
199-207 Spring Street,Hudson's Coffee,25,144.9720594,-37.81012699,Cafe
194-200 Bourke Street,Red Silks Restaurant & Bar,80,144.9672768,-37.8124312,Cafe
494-512 Bourke Street,Movida Aqui,50,144.9587607,-37.81494883,Cafe
228-236 Flinders Street,Ratee Thai,36,144.9665517,-37.81724878,Cafe
221-231 Collins Street,Om Vegetarian,48,144.9663304,-37.81584476,Cafe
65W Toorak Road,Fawkner Park Tennis Centre,15,144.9800012,-37.83804253,Cafe
535 Little Lonsdale Street,Seven Star Korea,68,144.9560169,-37.8134766,Cafe
18-38 Siddeley Street,Man Mo @ Wtc,60,144.9536422,-37.82253633,Cafe
1-9 Southbank Boulevard,Left Bank Melbourne,75,144.9628914,-37.8210403,Cafe
361-363 Little Bourke Street,Tipo 00,44,144.9619926,-37.81358648,Cafe
507-523 Elizabeth Street,Coffea Coffee,27,144.9572395,-37.80745984,Cafe
397-407 Docklands Drive,Replay cafe,6,144.9401994,-37.81427742,Cafe
34 Errol Street,KL Bunga Raya,14,144.9497225,-37.80435713,Cafe
114 Lygon Street,Killiney Kopitiam ,27,144.9666993,-37.80443778,Cafe
601-611 Little Collins Street,Spicy Korea,38,144.9549054,-37.81802782,Cafe
45 Collins Street,Tazio Birraria & Pizzeria,60,144.9726281,-37.81430616,Cafe
790-814 Collins Street,Panda Loves Fish,18,144.9458305,-37.821044,Cafe
487-503 Collins Street,Merchant Osteria Veneta,140,144.9581185,-37.81853877,Cafe
2 Swanston Street,Cafe Chinotto,180,144.9699175,-37.81784465,Cafe
41-43 Exhibition Street,Blue Bag,14,144.9715746,-37.81501535,Cafe
246-260 Bourke Street,Melbourne Dae Jang Geum Korean BBQ,120,144.9658365,-37.81296443,Cafe
30 Royal Parade,Dr Dax Kitchen,50,144.9612468,-37.79739836,Cafe
209-213 Elizabeth Street,Tropicana Juice Bar,30,144.962548,-37.81354034,Cafe
23 Lansdowne Street,Cafe Lansdowne,30,144.9781229,-37.80904405,Cafe
77-87 Southbank Boulevard,Alliance Catering,82,144.9670117,-37.8229657,Cafe
221-231 Queen Street,French Fix,12,144.9597543,-37.81355361,Cafe
276-284 Russell Street,Fukutontei,48,144.9670695,-37.80992238,Cafe
16-30 Russell Place,Neapoli Wine Bar,35,144.9674275,-37.81355434,Cafe
555 Bourke Street,Famish'd,36,144.9578132,-37.81636534,Cafe
23-29 Bourke Street,Society Cafe,20,144.9723947,-37.81181007,Cafe
410-420 La Trobe Street,Cafenatics,8,144.957114,-37.81123723,Cafe
2 Convention Centre Place,Caffe Cino,9,144.9523782,-37.82539976,Cafe
378-392 La Trobe Street,Charles LaTrobe Coffee Co,80,144.9580529,-37.81075363,Cafe
121 Exhibition Street,In a Rush,12,144.9701092,-37.81281453,Cafe
242 Swanston Street,Ghin Khao,95,144.9653591,-37.81218452,Cafe
553 St Kilda Road,Cafe Ella,40,144.9803782,-37.84685298,Cafe
20-26 Queen Street,Maha Bar & Grill,20,144.9625299,-37.81819275,Cafe
399-413 Lonsdale Street,Hawker Boys,14,144.9606809,-37.81303978,Cafe
199-209 Collins Street,Caboose Canteen,60,144.9674304,-37.81584777,Cafe
166-168 Lygon Street,Il Gambero On The Park ,221,144.9668138,-37.803305,Cafe
377-381 Lonsdale Street,Sun Moth Canteen & Bar,62,144.9614648,-37.81291055,Cafe
302-308 Flinders Lane,Robot Sushi & Bar,12,144.9638971,-37.81719967,Cafe
744-770 Bourke Street,Black Cod,20,144.947217,-37.81817241,Cafe
91-93 Flinders Lane,Papa Goose / Mary Fortune Cocktail Bar,80,144.9712228,-37.81543506,Cafe
279 Victoria Street,In Season Thai Cuisine,54,144.9519704,-37.80566937,Cafe
187 King Street,Hanabishi Japanese Restaurant,70,144.9551249,-37.81579101,Cafe
97-103 Flemington Road,Avist Cafe ,34,144.9527053,-37.79844295,Cafe
816-828 Bourke Street,Squires Loft Dockland,34,144.943969,-37.81927362,Cafe
19 Somerset Place,The Little Mule Cafe,45,144.9623885,-37.81379815,Cafe
45 Collins Street,Asian Pavillion ,13,144.9726281,-37.81430616,Cafe
8 Whiteman Street,Gochi,40,144.9586604,-37.82312164,Cafe
210-222 Russell Street,Ants Bistro,70,144.9679947,-37.81132789,Cafe
380-384 Little Bourke Street,French Saloon,50,144.9613283,-37.81354346,Cafe
338-352 Bourke Street,Gekkazan,10,144.9632879,-37.81360425,Cafe
3 Southgate Avenue,Pure South Dining,250,144.9662623,-37.82066923,Cafe
180-182 Bourke Street,Hungry Jack's,130,144.9677867,-37.81264684,Cafe
335-339 Flinders Lane,Pronto On Flinders,60,144.9632258,-37.81784765,Cafe
528-538 Lonsdale Street,Lua Bakery,9,144.9564217,-37.81365662,Cafe
555 La Trobe Street,Cafe 555,15,144.9528962,-37.81327283,Cafe
280-292 Collins Street,Caffe Duomo,29,144.9645574,-37.81567229,Cafe
2-8 Queen Street,Anchor Espresso,30,144.9627098,-37.81858716,Cafe
1-19 Princes Walk,Riverland Bar,220,144.9689349,-37.81865919,Cafe
151-165 Franklin Street,Andrews Hamburger,60,144.9595755,-37.80904835,Cafe
2-16 Newquay Promenade,Docklands Lotus Restaurant,125,144.9436836,-37.81389091,Cafe
183-265 La Trobe Street,Ajisen Ramen,96,144.9630189,-37.81073331,Cafe
103-105 Flinders Lane,Cafe Kinetic,100,144.9709643,-37.81556733,Cafe
457-469 Little Collins Street,Two Fish Seafood Cafe,14,144.95955,-37.81660734,Cafe
253-265 Flinders Lane,The Journal Canteen/Oskars Kitchen,35,144.9659028,-37.81706291,Cafe
439-441 Docklands Drive,James Squire,138,144.9390269,-37.81517782,Cafe
2 Convention Centre Place,Melbourne Public,350,144.9523782,-37.82539976,Cafe
399-413 Lonsdale Street,A25,50,144.9606809,-37.81303978,Cafe
744-770 Bourke Street,Halyard Coffee,14,144.947217,-37.81817241,Cafe
268-276 Victoria Street,Woo-Ga,45,144.9573902,-37.80580455,Cafe
214-222 Clarendon Street,Square & Compass,12,144.9841154,-37.80970632,Cafe
29-65 South Wharf Promenade,Meat Market South Wharf,72,144.9503336,-37.82409303,Cafe
240-254 Victoria Parade,Solah,44,144.9799791,-37.80919457,Cafe
549-551 St Kilda Road,Epicure Kitchen Cafe,50,144.9802844,-37.84659007,Cafe
56-62 Leveson Street,Cafe Trutrack,35,144.9514854,-37.80284239,Cafe
333-335 La Trobe Street,Kanda Sushi Noodle Bar,10,144.9596443,-37.81107017,Cafe
392-406 Bourke Street,Le Petite Creperie,18,144.9617562,-37.81416355,Cafe
43 Little Bourke Street,Punch Lane Wine Bar/Restaurant,14,144.971363,-37.81092017,Cafe
308-336 Collins Street,Cafenatics Equitable Place,11,144.9633433,-37.81611256,Cafe
8 Errol Street,Cafe Sabor,12,144.949581,-37.80489366,Cafe
425-427 Little Collins Street,Thailander,50,144.9605354,-37.8162542,Cafe
19-21 Lonsdale Street,Lonsdale Coffee Delight,6,144.9715313,-37.80981882,Cafe
194-206 Harbour Esplanade,Cafe 198,12,144.9449612,-37.81396231,Cafe
990 La Trobe Street,O-Bento,16,144.9467679,-37.81384049,Cafe
546-566 Collins Street,Don Don Japanese Restaurant,30,144.9558446,-37.81824465,Cafe
222-244 Bourke Street,Spicy Fish Restaurant,80,144.9662952,-37.81272047,Cafe
613-639 Little Collins Street,In Zone Cafe,4,144.9543659,-37.81818484,Cafe
333-335 La Trobe Street,Kanda Sushi Noodle Bar,20,144.9596443,-37.81107017,Cafe
519-539 St Kilda Road,Beluga At Chevron ,48,144.9798191,-37.8455379,Cafe
369-371 Little Bourke Street,Grill'd Healthy Burgers,90,144.9617817,-37.81367176,Cafe
409-413 St Kilda Road,Cafe 409,32,144.9767624,-37.8373358,Cafe
11 Nicholson Street,The Museum Cafe,200,144.9716355,-37.80401886,Cafe
25-77 Stubbs Street,Cheeky Brothers,21,144.9358418,-37.7914562,Cafe
499-511 Swanston Street,Podium,57,144.9618657,-37.80689662,Cafe
106-120 Collins Street,Elements Catering (Kiosk),82,144.9693797,-37.81398457,Cafe
23-37 Star Crescent,Gold Leaf Harbour View Restaurant Pty Ltd,260,144.9378299,-37.81315031,Cafe
816-828 Bourke Street,Southern China Style Cuisine,44,144.943969,-37.81927362,Cafe
348-358 La Trobe Street,The Basement Cafe,6,144.9592776,-37.81067976,Cafe
432-446 Docklands Drive,Sakura Sushi Bar,8,144.9378299,-37.81315031,Cafe
170 Bellair Street,Pimm Thai Cafe,14,144.9299154,-37.79353782,Cafe
535 Little Lonsdale Street,City Grill Room,102,144.9560169,-37.8134766,Cafe
494-512 Bourke Street,Paco's Tacos,80,144.9587607,-37.81494883,Cafe
106 Lygon Street,Saigon Pho Carlton,35,144.9666993,-37.80443778,Cafe
85-161 Spencer Street,In A Rush Espresso,40,144.9523393,-37.81815358,Cafe
661-667 Spencer Street,Tong Fu Garden Melbourne,60,144.9444471,-37.80624547,Cafe
123 Swanston Street,Crossways Food For Life,100,144.9658852,-37.81482941,Cafe
63-65 City Road,The Beggar's Bowl,25,144.9658443,-37.82222503,Cafe
7-9 Waratah Place,Manchuria,45,144.9669911,-37.81162502,Cafe
410-420 La Trobe Street,Cafenatics,38,144.957114,-37.81123723,Cafe
747-757 Bourke Street,Dome Bakery Cafe,43,144.9479753,-37.81925128,Cafe
22-40 Lincoln Square North,Bouverie Deli,8,144.9627288,-37.8013409,Cafe
318 William Street,The Mint Bar & Restaurant,100,144.9573609,-37.81209045,Cafe
497-513 Rathdowne Street,Providence Cafe & Eatery,48,144.9706731,-37.79365073,Cafe
235-251 Bourke Street,Salero Kito Padang Melbourne,25,144.9665978,-37.81376503,Cafe
121 Exhibition Street,Mad Mex,40,144.9701092,-37.81281453,Cafe
430-442 Collins Street,The Mug House,20,144.9597623,-37.81703239,Cafe
280-292 Collins Street,Hopetoun Tea Rooms,52,144.9645574,-37.81567229,Cafe
116-118 Errol Street,5 Lire,4,144.9500956,-37.802235,Cafe
181-183 Russell Street,Wonton House,80,144.967512,-37.81222178,Cafe
11-25 Crossley Street,Becco,100,144.9710142,-37.81143018,Cafe
555 Bourke Street,Pok Pok Junior,40,144.9578132,-37.81636534,Cafe
131-141 Harbour Esplanade,Hortus x Seven Seeds,10,144.9452948,-37.81711584,Cafe
251-257 Cardigan Street,Rakuzen Simple Japanese ,12,144.9651037,-37.80077102,Cafe
2 Swanston Street,Time Out Cafe,140,144.9699175,-37.81784465,Cafe
246-252 Lygon Street,Villa Romana,60,144.9673242,-37.80137656,Cafe
256-268 Flinders Street,Grill'd ,10,144.9656264,-37.81760781,Cafe
183-265 La Trobe Street,Spiga,48,144.9630189,-37.81073331,Cafe
731-735 Bourke Street,Platform 28,370,144.9498213,-37.81921015,Cafe
318-322 Little Collins Street,Gourmet Curry Hut,22,144.9640121,-37.81488174,Cafe
515 Little Bourke Street,Bourke and Willis,40,144.9573923,-37.81531863,Cafe
314-336 Bourke Street,The Salon By Louis Roderer,54,144.9638295,-37.81344503,Cafe
162 Albert Street,Grocery Bar East Melbourne,46,144.9856254,-37.81004657,Cafe
1 Phillip Court,Degani Bakery Cafe,40,144.920988,-37.82600955,Cafe
324-326 King Street,Cafe Sonex ,42,144.9542745,-37.81261513,Cafe
55 Flinders Lane,Tom Thumb Espresso,20,144.9728353,-37.8148555,Cafe
181 William Street,Rock the Wok,18,144.9573923,-37.81531863,Cafe
23-99 Commercial Road,My Serendipity Cafe,12,144.982664,-37.84633593,Cafe
335-349 Little Collins Street,Twee's Hut Vietnamese Favourites,22,144.9632938,-37.81554941,Cafe
45 Newquay Promenade,Berth Restaurant,190,144.9418421,-37.81515588,Cafe
169-173 Rankins Road,Crumbs Organic Bakehouse,12,144.9311131,-37.79436218,Cafe
135-137 Lygon Street,Universal Pizza,60,144.966075,-37.80391066,Cafe
358-360 Little Collins Street,Emilia Trattoria,70,144.9626388,-37.81528248,Cafe
392-406 Bourke Street,Le Petite Creperie,16,144.9617562,-37.81416355,Cafe
579-581 Elizabeth Street,Melbourne City Cafe,42,144.9582918,-37.80471151,Cafe
163-261 Spencer Street,Starbucks ,16,144.951187,-37.81501701,Cafe
1-4 Nicholson Street,Aromatic Cafe,140,144.9735223,-37.80899046,Cafe
18-22 Collins Street,Paris End Cafe,40,144.9728919,-37.81330535,Cafe
538-542 Little Collins Street,Five Points,12,144.956774,-37.81695942,Cafe
238 Little Bourke Street,Rice Workshop,60,144.9657813,-37.81224859,Cafe
1 MacArthur Street,Treasury Eats Cafe ,80,144.9755868,-37.81264492,Cafe
1-13 William Street,Williams Bar Cafe,16,144.9595106,-37.81943285,Cafe
63-75 Coventry Street,Manchipster Fish And Burger Bar,14,144.9679591,-37.82998246,Cafe
740-750 Swanston Street,Nori Sushi,20,144.9647653,-37.79899938,Cafe
365-371 Queen Street,Queens Kitchen & Cafe,50,144.9579933,-37.80988001,Cafe
990 La Trobe Street,Cafenatics,100,144.9467679,-37.81384049,Cafe
130-132 Bourke Street,Ajisen Ramen,76,144.9691823,-37.81223835,Cafe
99-109 Lygon Street,Toto's Pizza,28,144.9659744,-37.80449163,Cafe
607-619 Bourke Street,In A Rush ,36,144.9555529,-37.81677365,Cafe
255-259 Queensberry Street,Red Capsicum,40,144.9600381,-37.8044181,Cafe
341 King Street,Impresso Cafe,8,144.9535989,-37.81229604,Cafe
2 St Andrews Place,Macchiato,20,144.9773405,-37.81154319,Cafe
338-352 Bourke Street,Mama's Buoi,12,144.9632879,-37.81360425,Cafe
489-499 Elizabeth Street,Jasper Kitchen ,8,144.9596331,-37.80750344,Cafe
39-47 Peel Street,Chimac,25,144.9554234,-37.80718433,Cafe
335-349 Little Collins Street,Blahnik,24,144.9632938,-37.81554941,Cafe
790-814 Collins Street,Panda Loves Fish,72,144.9458305,-37.821044,Cafe
189-203 William Street,Ba Noi,20,144.9570408,-37.8146364,Cafe
96-100 Victoria Street,Draculas,320,144.964176,-37.80649729,Cafe
267-275 Flinders Lane,Xpressomondo,22,144.9654844,-37.81710105,Cafe
3 Southgate Avenue,Miyako Japanese Cuisine & Teppanyaki,40,144.9662623,-37.82066923,Cafe
228-236 Flinders Street,Kim Sing Chinese Restaurant,74,144.9665517,-37.81724878,Cafe
89-105 Collins Street,Laissez-Faire,28,144.9707498,-37.81492031,Cafe
201-203 Faraday Street,Shakahari Vegetarian Restaurant,76,144.967803,-37.79900338,Cafe
21-27 McKillop Street,Red Spice Road,12,144.9614687,-37.8152325,Cafe
360 La Trobe Street,Little Ipoh,50,144.9591368,-37.8107204,Cafe
519-539 St Kilda Road,Nando's Chevron,18,144.9798191,-37.8455379,Cafe
83-129 Victoria Street,Market Espresso & Trolley Hire,12,144.9572395,-37.80745984,Cafe
 Evan Walker Bridge,Ponyfish Island,120,144.9650858,-37.81968992,Cafe
46 Little La Trobe Street,Spice Up Hot Pot Dips ,26,144.9622513,-37.80929555,Cafe
18-38 Siddeley Street,Degani Bakery Cafe,72,144.9536422,-37.82253633,Cafe
269-321 Lonsdale Street,Pho Nom,38,144.9638386,-37.81245199,Cafe
336 Russell Street,Blu Point Caffe,45,144.9664575,-37.80822377,Cafe
159 Spring Street,City Wine Shop ,45,144.9724651,-37.81099169,Cafe
115-123 Hardware Street,White Mojo,14,144.9603936,-37.81210735,Cafe
93-101 Spring Street,Mamma's Boy,12,144.9731836,-37.81260039,Cafe
301-303 Swanston Street,Sahara Restaurant,168,144.9641938,-37.81107765,Cafe
612-624 Collins Street,Chick-In,4,144.9543505,-37.81867544,Cafe
284-294 La Trobe Street,Ba'get,33,144.9608495,-37.8100143,Cafe
 Peel Street,Merlo Coffee,36,144.9572395,-37.80745984,Cafe
234-236 Lygon Street,Carmine's Bistro,50,144.9672291,-37.80169334,Cafe
788-812 Bourke Street,In A Rush 800,30,144.9451224,-37.81888389,Cafe
608-610 Collins Street,Dumpling World ,80,144.9545688,-37.81861166,Cafe
141-143 Flinders Lane,Coda Bar & Restaurant,80,144.9698799,-37.81579783,Cafe
199-209 Collins Street,Brunetti City Square ,123,144.9674304,-37.81584777,Cafe
209 Lygon Street,Il Cantuccio Restaurant,100,144.9666464,-37.80043187,Cafe
612-624 Collins Street,Gloria Jean's Coffees,28,144.9543505,-37.81867544,Cafe
381-387 Flinders Lane,Threefold,30,144.961389,-37.81825094,Cafe
29-65 South Wharf Promenade,Charlie Lovett,76,144.9503336,-37.82409303,Cafe
381-387 Flinders Lane,Travistock House Cafe,39,144.961389,-37.81825094,Cafe
35-47 William Street,In a Rush,54,144.9591221,-37.81858017,Cafe
124 Lygon Street,Thai City Restaurant,55,144.9666993,-37.80443778,Cafe
840-850 Collins Street,Sushi Land,26,144.9445328,-37.82092961,Cafe
20-30 Convention Centre Place,West Village NYC,44,144.9523782,-37.82539976,Cafe
204-234 St Kilda Road,The Queens Of Heart Cafe,110,144.9694673,-37.82446912,Cafe
67-73 Hardware Lane,The Mill,44,144.960908,-37.81323451,Cafe
10 Gatehouse Drive,Al Capone's Pizzeria,30,144.9194456,-37.79170781,Cafe
136-154 Victoria Street,T-Square Club Cafe,98,144.9625116,-37.80619487,Cafe
159 Spring Street,City Wine Shop ,60,144.9724651,-37.81099169,Cafe
791-847 Collins Street,Koji Sushi,20,144.9457644,-37.82205739,Cafe
162-198 Clarendon Street,Freeo's,58,144.9840787,-37.81106468,Cafe
714-736 Swanston Street,Toothpicks Cafe,60,144.9648536,-37.79944075,Cafe
258-260 Flinders Lane,Eliana Lulu,18,144.9654744,-37.81664468,Cafe
435-437 St Kilda Road,Cafe Promenade,62,144.9775355,-37.83909862,Cafe
494-512 Bourke Street,Prime House,30,144.9587607,-37.81494883,Cafe
269-321 Lonsdale Street,Nabe One,10,144.9638386,-37.81245199,Cafe
8 Raffa Place,The Vertue of the Coffee Drink,80,144.9683873,-37.79769784,Cafe
31-39 Elizabeth Street,Mad Mex Flinders Lane,45,144.9643316,-37.81741878,Cafe
136-140 Elizabeth Street,Pho Flinders,30,144.963743,-37.81484304,Cafe
123-129 Lonsdale Street,Cafe Caledonia,6,144.9686769,-37.81072687,Cafe
232 Lygon Street,Ghans House,32,144.9672175,-37.80175883,Cafe
235-251 Bourke Street,Salero Kito Padang Melbourne,30,144.9665978,-37.81376503,Cafe
230 Grattan Street,Oriental House,30,144.9612468,-37.79739836,Cafe
327-343 Collins Street,Strozzi Restaurant,22,144.9632538,-37.81706705,Cafe
439-445 St Kilda Road,Commodity Cafe ,40,144.977677,-37.83949217,Cafe
3 Southgate Avenue,ENA Greek Street Food,80,144.9662623,-37.82066923,Cafe
1 Phillip Court,Felicci's,44,144.920988,-37.82600955,Cafe
16-32 Rakaia Way,Oscar's Table,40,144.9412614,-37.81460533,Cafe
320-386 Epsom Road,Pacinos Italian Restaurant,34,144.9155212,-37.78257294,Cafe
299-307 Bourke Street,Sensory Lab,29,144.9648958,-37.81436987,Cafe
8 Whiteman Street,Conservatory,200,144.9586604,-37.82312164,Cafe
1-9 Freshwater Place,TGI Fridays Restaurant & Bar,150,144.962154,-37.82167834,Cafe
389-395 Lonsdale Street,Tsuta sushi,12,144.9610121,-37.81288006,Cafe
100 St Kilda Road,Sake Restaurant & Bar,130,144.9682264,-37.82094188,Cafe
29-65 South Wharf Promenade,Meat Market South Wharf,110,144.9503336,-37.82409303,Cafe
130-148 William Street,Cocoa Bean Cafe,18,144.9589392,-37.81595642,Cafe
306-308 Lygon Street,Dimattina's Restaurant Bar,110,144.9674164,-37.79978612,Cafe
555 Bourke Street,Spin Coffee,70,144.9578132,-37.81636534,Cafe
51 Bourke Street,The Mess Hall,54,144.9717967,-37.81200666,Cafe
23-99 Commercial Road,My Serendipity Cafe,24,144.982664,-37.84633593,Cafe
318-322 Little Collins Street,Gourmet Curry Hut,28,144.9640121,-37.81488174,Cafe
2-14 Exploration Lane,The League Of Honest Coffee,60,144.9684463,-37.80913993,Cafe
262-274 King Street,Gangnam Pocha,45,144.9549294,-37.81372352,Cafe
247-257 William Street,William St Deli,80,144.9566979,-37.81317907,Cafe
482-484 Bourke Street,Original Sushi,10,144.9593794,-37.8150902,Cafe
11-15 Elizabeth Street,McDonalds,16,144.9644996,-37.81782922,Cafe
269-321 Lonsdale Street,New Shanghai,140,144.9638386,-37.81245199,Cafe
34-36 Block Place,Cafe Segovia,8,144.9643901,-37.81526825,Cafe
46-62 Cook Street,Hungry Jacks,70,144.9171939,-37.82984854,Cafe
125-127 Flinders Lane,Chin Chin Restaurant,100,144.9703998,-37.81568875,Cafe
23-37 Star Crescent,Subway,40,144.9378299,-37.81315031,Cafe
206-218 Bourke Street,China Red,120,144.9668768,-37.81259409,Cafe
132-136 Lygon Street,La Spaghetteria Ristorante,42,144.966693,-37.80395783,Cafe
374-380 Lonsdale Street,Degani Bakery Cafe,30,144.9611344,-37.81200936,Cafe
499 Macaulay Road,Grounded House A Coffee Place,4,144.9294451,-37.79458129,Cafe
430-436 Little Collins Street,Cafe Vue,20,144.9601101,-37.81596878,Cafe
25-35 Little Collins Street,East Bar & Restaurant,53,144.9727065,-37.81290511,Cafe
8 Whiteman Street,Degani @ Crown ,56,144.9586604,-37.82312164,Cafe
24-42 Newquay Promenade,Achelya Cafe,18,144.942139,-37.81434525,Cafe
551-555 Little Lonsdale Street,Delicious Asian Cuisines & Pho,24,144.9555653,-37.81329521,Cafe
158-164 Queen Street,NY Deli,70,144.9610146,-37.81453148,Cafe
260-262 Russell Street,Xian Famous Foods / Little Lamb Hot Pot,62,144.9672247,-37.8102551,Cafe
143-175 Harbour Esplanade,Mill & Bakery at Central Pier,15,144.9435654,-37.8165193,Cafe
186 King Street,Kedai Satay,10,144.9556966,-37.8156735,Cafe
31 Errol Street,S & J Sushi Noodle Town,20,144.9488818,-37.80430161,Cafe
196-208 Russell Street,Shou Sumiyaki,90,144.9678632,-37.81158809,Cafe
181 William Street,Mamma Mia,18,144.9573923,-37.81531863,Cafe
15-33 William Street,Hudson's Coffee,10,144.9591876,-37.8192157,Cafe
733-747 Collins Street,Mr Collins,24,144.9494345,-37.82089145,Cafe
242-284 Exhibition Street,Bros Sushi,50,144.9699756,-37.80941489,Cafe
234-236 Lygon Street,Carmine's Bistro,100,144.9672291,-37.80169334,Cafe
194-200 Bourke Street,Wagaya Japanese Restaurant,300,144.9672768,-37.8124312,Cafe
50-52 Little Bourke Street,Sharkfin Inn City,230,144.9709749,-37.81068514,Cafe
200-222 Queen Street,Goodovening,32,144.9604697,-37.81352285,Cafe
114-120 Russell Street,Postal Hall,35,144.9689753,-37.81350285,Cafe
11-15 Duckboard Place,Lee Ho Fook,70,144.9713154,-37.81559018,Cafe
550 Bourke Street,Chilangos,26,144.9573923,-37.81531863,Cafe
219-233 Elizabeth Street,Shanghai Street,24,144.9622831,-37.81321386,Cafe
23-29 Bourke Street,Society Cafe,90,144.9723947,-37.81181007,Cafe
520-536 Little Collins Street,Chestnut Exchange Cafe,16,144.957088,-37.81686865,Cafe
194-200 Bourke Street,Mr Ramen San,22,144.9672768,-37.8124312,Cafe
32-54 Lonsdale Street,Bluebag,13,144.9707325,-37.8091842,Cafe
578-606 Bourke Street,Sixpence Cafe,7,144.9561073,-37.81571393,Cafe
189-203 William Street,Tahini Lebanese Diner,24,144.9570408,-37.8146364,Cafe
189-195 Exhibition Street,Dosanko Larmen,34,144.9699123,-37.81128986,Cafe
310-312 Drummond Street,The Town Mouse,40,144.9691211,-37.79853797,Cafe
24-26 Southgate Avenue,Jarrah Restaurant & Bar,60,144.9671147,-37.82038777,Cafe
210-222 Russell Street,Ishiya Stonegrill,40,144.9679947,-37.81132789,Cafe
18-38 Siddeley Street,Byblos Bar & Restaurant,53,144.9536422,-37.82253633,Cafe
275-279 Swanston Street,McDonalds,94,144.9645071,-37.81180752,Cafe
7-19 Alfred Place,The Cut Steakhouse,85,144.9699104,-37.81401267,Cafe
350 Lygon Street,Grill'd Healthy Burgers,32,144.9675264,-37.79887015,Cafe
27-37 Russell Street,Ikkoryu Fukuoka Ramen,68,144.9692478,-37.81598754,Cafe
8 Whiteman Street,Dinner by Heston,40,144.9586604,-37.82312164,Cafe
185-187 Lygon Street,Cafe Cavallino,54,144.9664496,-37.80128848,Cafe
457-469 Little Collins Street,Two Fish Seafood Cafe,20,144.95955,-37.81660734,Cafe
114-116 Rathdowne Street,Paris Go Bistro,50,144.9708841,-37.79695652,Cafe
68 Victoria Street,Carlton Megabytes,6,144.9655262,-37.80671734,Cafe
327-343 Collins Street,Strozzi Restaurant,82,144.9632538,-37.81706705,Cafe
32-54 Lonsdale Street,Madame's Kitchen,21,144.9707325,-37.8091842,Cafe
541-547 Spencer Street,Embassy Cafe,24,144.9477871,-37.80811106,Cafe
11-19 Liverpool Street,Shimbashi Japanese Soba & Sake Bar,24,144.9713242,-37.81131159,Cafe
582-606 Collins Street,Cafe Eurasia ,40,144.954944,-37.81850425,Cafe
1 Southgate Avenue,Melba Restaurant,220,144.9662623,-37.82066923,Cafe
559-587 Collins Street,Sushia,17,144.9557275,-37.81902044,Cafe
30 Royal Parade,Dr Dax Kitchen,100,144.9612468,-37.79739836,Cafe
791-847 Collins Street,In A Rush Docklands ,48,144.9457644,-37.82205739,Cafe
791-847 Collins Street,Elements Cafe ,134,144.9457644,-37.82205739,Cafe
289-299 Swanston Street,Starbucks ,20,144.9642637,-37.8112271,Cafe
179-181 Domain Road,Domain Brasserie,45,144.9820364,-37.83431435,Cafe
185 King Street,King Jons,6,144.9551492,-37.81584127,Cafe
235-237 Faraday Street,New York Minute,33,144.9662956,-37.7988135,Cafe
220-228 Lygon Street,Little Lygon Restaurant,50,144.9671892,-37.80191702,Cafe
247-257 William Street,William St Deli,12,144.9566979,-37.81317907,Cafe
478-484 Albert Street,Albert St Deli,26,144.9746801,-37.80907045,Cafe
13-15 Errol Street,Toast Kitchen Cafe,34,144.9490423,-37.80463699,Cafe
27-31 Hardware Lane,Affogato,20,144.9612664,-37.81398752,Cafe
351-357 Collins Street,O-Bento,60,144.9627888,-37.81722704,Cafe
76 Bourke Street,Ombra,11,144.9709443,-37.81170263,Cafe
10-20 Oliver Lane,Bowery to Williamsburg,20,144.9702912,-37.8161284,Cafe
16-32 Rakaia Way,Rejuice Bar & Cafe,15,144.9412614,-37.81460533,Cafe
535 Bourke Street,Etto St James,58,144.9578132,-37.81636534,Cafe
210-222 Russell Street,Shanghai Street Xiaolongboa & Dumpling,100,144.9679947,-37.81132789,Cafe
86-88 Collins Street,Doc Martins,16,144.9705847,-37.81393777,Cafe
535 Little Lonsdale Street,Guk Bab,55,144.9560169,-37.8134766,Cafe
816-828 Bourke Street,Southern China Style Cuisine,31,144.943969,-37.81927362,Cafe
221 Little Lonsdale Street,Schnitz QV,46,144.9657034,-37.810658,Cafe
30-44 Manchester Lane,Kuaizi Bar,40,144.9662007,-37.81642646,Cafe
329 Lygon Street,Heartattack and Vine,16,144.9671482,-37.7976433,Cafe
335-339 Flinders Lane,Pronto On Flinders,3,144.9632258,-37.81784765,Cafe
11-41 Melrose Street,Pocket Cafe,5,144.9414027,-37.79501722,Cafe
335-349 Little Collins Street,Souperman,14,144.9632938,-37.81554941,Cafe
60 Hardware Lane,Il Nostro Posto,64,144.961215,-37.81328955,Cafe
397-407 Docklands Drive,Replay cafe,32,144.9401994,-37.81427742,Cafe
363-367 Little Collins Street,That's Amore Bistro,16,144.9628116,-37.81581721,Cafe
8 Whiteman Street,Cafe Baci's,120,144.9586604,-37.82312164,Cafe
130-200 St Kilda Road,The Tea Room,80,144.9686338,-37.82281707,Cafe
150-154 Collins Street,In A Rush 150 Collins,41,144.968181,-37.81419714,Cafe
377-381 Lonsdale Street,Crust Gourmet Pizza Bar Melbourne,24,144.9614648,-37.81291055,Cafe
14 Bourke Street,Red Pepper Indian Restaurant,16,144.9724607,-37.81126209,Cafe
66-88 Lygon Street,Mellow's Restaurant and Bar,42,144.9665747,-37.80530329,Cafe
239-293 Wellington Parade South,Mugs Alley,42,144.9759275,-37.81642072,Cafe
222-244 Bourke Street,Gloria Jean's Coffees,22,144.9662952,-37.81272047,Cafe
2 Swanston Street,Il Pom Italian,110,144.9699175,-37.81784465,Cafe
230 Grattan Street,The Potter Espresso Bar,28,144.9612468,-37.79739836,Cafe
512 Macaulay Road,Bean Buzz Cafe,20,144.9291382,-37.79407422,Cafe
173-181 Victoria Street,Nando's,8,144.9556037,-37.80606639,Cafe
65-67 Flemington Road,New Lanna Thai ,50,144.9540004,-37.79936937,Cafe
302-308 Flinders Lane,Bistro Du Peuple,16,144.9638971,-37.81719967,Cafe
5-17 Flemington Road,Little Richard Pizza Bar,146,144.9558713,-37.80140031,Cafe
221 Little Lonsdale Street,Meat Fish Wine,100,144.9657034,-37.810658,Cafe
18-20 Bank Place,Curry Vault ,60,144.9605225,-37.81642893,Cafe
362-364 Little Bourke Street,+39 Pizzeria & Antipasteria,66,144.9617496,-37.81327298,Cafe
231-245 Harbour Esplanade,Capri At The Quays Cafe,70,144.9429896,-37.81354363,Cafe
275 Lygon Street,Salonica Gyros Bar,10,144.9669104,-37.79905377,Cafe
303-317 Collins Street,Cafe On Collins,34,144.9638231,-37.81662708,Cafe
47-59 Flemington Road,Flavour Cafe,72,144.954319,-37.7997297,Cafe
100-106 Leicester Street,Stovetop,50,144.9608587,-37.8037076,Cafe
348 Drummond Street,Vincent The Dog,21,144.9692679,-37.79777639,Cafe
319-325 Collins Street,The Deanery,130,144.9636498,-37.81686635,Cafe
559-587 Collins Street,Buddabah,72,144.9557275,-37.81902044,Cafe
337-343 Lygon Street,Intersection Cafe,39,144.9672287,-37.79734681,Cafe
65-71 Bourke Street,Hamodava Cafe,70,144.9714499,-37.81227429,Cafe
121 Exhibition Street,Axil Coffee Roasters,24,144.9701092,-37.81281453,Cafe
10 Brens Drive,State Netball & Hockey Centre Cafe,51,144.947632,-37.78541878,Cafe
1-9 Freshwater Place,Shuji Sushi,20,144.962154,-37.82167834,Cafe
550 Lonsdale Street,Shuji Sushi,28,144.9560169,-37.8134766,Cafe
115-117 Little Bourke Street,Gyoza Gyoza & Momo Shabu Shabu,3,144.9690101,-37.81158808,Cafe
63 Errol Street,Agraba,22,144.9492052,-37.803603,Cafe
791-803 Bourke Street,Pok Pok,26,144.9456209,-37.81974585,Cafe
269-321 Lonsdale Street,Dainty Sichuan Noodle Express,92,144.9638386,-37.81245199,Cafe
28-32 Elizabeth Street,Melbourne Halal Food Centre ,8,144.9648816,-37.81729894,Cafe
122-128 Berkeley Street,Middle Fish ,60,144.959001,-37.80257712,Cafe
106-114 Berkeley Street,Seven Seeds ,90,144.9591271,-37.8028778,Cafe
114 Lygon Street,Killiney Kopitiam ,18,144.9666993,-37.80443778,Cafe
80 Queensberry Street,Lambs Restaurant,85,144.9666993,-37.80443778,Cafe
224-236 Queen Street,Cafe Shots Espresso Bar,8,144.960162,-37.81320274,Cafe
715-727 Bourke Street,Coffee Rush,46,144.9502584,-37.81864992,Cafe
252-254 Flinders Lane,Aix Cafe Creperie Salon,8,144.9655966,-37.8166033,Cafe
813-817 Bourke Street,Go Green Raw Foods,21,144.9446836,-37.81993681,Cafe
561-571 Bourke Street,Romano's Coffee,25,144.957018,-37.81647428,Cafe
581-589 La Trobe Street,Il Sole,50,144.9518789,-37.81337023,Cafe
14-16 Market Lane,HuTong Dumpling Bar,110,144.9694578,-37.81187264,Cafe
578-606 Bourke Street,Nando's - Bourke Place,39,144.9561073,-37.81571393,Cafe
222-244 Bourke Street,Grand BBQ,30,144.9662952,-37.81272047,Cafe
22-26 Corrs Lane,Sichuan House,76,144.9683249,-37.8109979,Cafe
157 Pelham Street,Briscola,20,144.9613352,-37.80242146,Cafe
225-229 Victoria Street,Common Ground Coffee,52,144.9539596,-37.80587196,Cafe
257-259 Swanston Street,China Bar,120,144.9646488,-37.81211394,Cafe
747-757 Bourke Street,The Spice Den,70,144.9479753,-37.81925128,Cafe
257-259 Macaulay Road,North End Deli,9,144.938198,-37.79557663,Cafe
121 Exhibition Street,Tower Shushi,56,144.9701092,-37.81281453,Cafe
327-343 Collins Street,Blu Nite,140,144.9632538,-37.81706705,Cafe
714-736 Swanston Street,Toothpicks Cafe,36,144.9648536,-37.79944075,Cafe
384-390 Little Collins Street,STREAT,9,144.9617411,-37.81560573,Cafe
163-261 Spencer Street,The Coffee Club,70,144.951187,-37.81501701,Cafe
338-352 Bourke Street,Mama's Buoi,62,144.9632879,-37.81360425,Cafe
224-252 Queensberry Street,Refuel Catering,40,144.9610023,-37.80395655,Cafe
228-236 Flinders Street,Jolly J's,34,144.9665517,-37.81724878,Cafe
19-21 Leveson Street,Di Bella Coffee,16,144.9505945,-37.80447359,Cafe
183-265 La Trobe Street,Chilli India,150,144.9630189,-37.81073331,Cafe
40-66 Siddeley Street,Bababoi,28,144.9525486,-37.82290352,Cafe
156-164 Cardigan Street,Jokamz,45,144.9656265,-37.80132569,Cafe
363-397 Flinders Street,T-Roy Browns,20,144.9622868,-37.81953163,Cafe
15-33 William Street,Hudson's Coffee,26,144.9591876,-37.8192157,Cafe
76-86 Howard Street,Metro Cafe,70,144.9544971,-37.80304782,Cafe
316-360 Elizabeth Street,Fourteen On 10,50,144.9620613,-37.81084464,Cafe
1 MacArthur Street,Treasury Eats Cafe ,100,144.9755868,-37.81264492,Cafe
215 Queen Street,Michelangelo,60,144.9598741,-37.81379647,Cafe
40-52 Queen Street,Shuji Sushi,49,144.9621886,-37.81758572,Cafe
70 Bourke Street,Self Preservation,46,144.9710755,-37.81166963,Cafe
181 William Street,Brewer's Place,34,144.9573923,-37.81531863,Cafe
100 St Kilda Road,Fatto Bar & Cantina,80,144.9682264,-37.82094188,Cafe
813-817 Bourke Street,Caffe Bambino,16,144.9446836,-37.81993681,Cafe
437-439 Elizabeth Street,Menya Ramen,10,144.9602369,-37.80880991,Cafe
253-265 Flinders Lane,Cafe Andiamo,68,144.9659028,-37.81706291,Cafe
 Peel Street,Gozleme Cafe,10,144.9572395,-37.80745984,Cafe
64-66 Hardware Lane,Grill Steak Seafood,82,144.9611673,-37.81318202,Cafe
85-161 Spencer Street,Hunger Game,26,144.9523393,-37.81815358,Cafe
320-386 Epsom Road,Provata Urban Larder & Cafe,21,144.9155212,-37.78257294,Cafe
470-472 Little Lonsdale Street,The Brass Coq,101,144.9555039,-37.81299012,Cafe
331-339 Bourke Street,Caffe E Torta,28,144.964049,-37.81458812,Cafe
597 Elizabeth Street,Classic Curry Company,30,144.958143,-37.80439444,Cafe
16 Bourke Street,Red Pepper Indian Restaurant,8,144.972413,-37.81127672,Cafe
2 Swanston Street,ACMI Cafe & Bar,66,144.9699175,-37.81784465,Cafe
124-128 Bourke Street,Flower Drum,140,144.9692645,-37.81207094,Cafe
206-218 Bourke Street,Blackball at Chinatown,50,144.9668768,-37.81259409,Cafe
8 Whiteman Street,The Merrywell,80,144.9586604,-37.82312164,Cafe
123-129 Lonsdale Street,Cafe Caledonia,16,144.9686769,-37.81072687,Cafe
54-58 Hardware Lane,Max Bar & Restaurant,84,144.9612623,-37.81339488,Cafe
382-384 Elizabeth Street,Gloria Jeans,4,144.9614515,-37.80977165,Cafe
13-15 Hardware Lane,Roll'd,46,144.9614053,-37.8142907,Cafe
72-74 Bourke Street,Bottega Restaurant,22,144.9710074,-37.81168307,Cafe
221 Little Lonsdale Street,Schnitz QV,134,144.9657034,-37.810658,Cafe
516-526 Bourke Street,Bluestones 520 Cafe,16,144.9583865,-37.81527349,Cafe
181 William Street,Brewer's Place,42,144.9573923,-37.81531863,Cafe
511 Spencer Street,Junie Moon's,20,144.9485541,-37.80875296,Cafe
348 Drummond Street,Vincent The Dog,12,144.9692679,-37.79777639,Cafe
18-38 Siddeley Street,Riverside Teppanyaki,60,144.9536422,-37.82253633,Cafe
122-148 Harbour Esplanade,Arena View Restaurant And Cafe,16,144.9475776,-37.81656591,Cafe
285-313 Spencer Street,Code 3,66,144.9509981,-37.81379938,Cafe
164-170 Flinders Street,Movida Next Door,30,144.9690862,-37.81670922,Cafe
122-130 Wellington Parade,The Grey Smith,6,144.9859889,-37.81609349,Cafe
1-9 Powlett Street,Laurent - Boulangerie Patisserie,8,144.9848341,-37.81608793,Cafe
295-301 Exhibition Street,Sally's Kitchen,15,144.9688284,-37.80893166,Cafe
89-105 Collins Street,Barista 101,10,144.9707498,-37.81492031,Cafe
385 Bourke Street,Famish'd,65,144.9629442,-37.81491502,Cafe
28 Freshwater Place,Alliance Catering CPA Cafe,68,144.9622689,-37.82266873,Cafe
68-78 Hardware Lane,Vons Restaurant & Bar,54,144.9611061,-37.8130703,Cafe
243-263 Franklin Street,Francis Food & Coffee,12,144.9566627,-37.80967009,Cafe
520-522 Elizabeth Street,Lien Lien Cafe,36,144.9597587,-37.80579439,Cafe
201-203 Lygon Street,Borsari Ristorante,58,144.9666725,-37.80089707,Cafe
183-265 La Trobe Street,D Food Connection,70,144.9630189,-37.81073331,Cafe
262 Lygon Street,Alpino Restaurant,46,144.9671843,-37.80103476,Cafe
694-704 Collins Street,St. Brew,90,144.9508705,-37.81949297,Cafe
494-512 Bourke Street,Movida Aqui,150,144.9587607,-37.81494883,Cafe
400 Epsom Road,Home Turf Cafe,25,144.9168903,-37.78417751,Cafe
1-9 Collins Street,Signature Coffee,30,144.9737201,-37.81372701,Cafe
45 Collins Street,Kenzan Japanese Restaurant,100,144.9726281,-37.81430616,Cafe
183-265 La Trobe Street,Frozen by a Thousand Blessings,8,144.9630189,-37.81073331,Cafe
2 Swanston Street,Bokchoy Tang,150,144.9699175,-37.81784465,Cafe
140-146 Lygon Street,La Notte Restaurant,64,144.9667231,-37.803783,Cafe
289-299 Swanston Street,Guzman Y Gomez Swanston Street,32,144.9642637,-37.8112271,Cafe
183-265 La Trobe Street,Equinox Bar Restaurant,65,144.9630189,-37.81073331,Cafe
2 Swanston Street,Time Out Cafe,60,144.9699175,-37.81784465,Cafe
269-321 Lonsdale Street,Becasse Bakery,66,144.9638386,-37.81245199,Cafe
20 Meyers Place,Waiters Restaurant,55,144.9723505,-37.81207814,Cafe
92-106 Victoria Parade,East Side Story Bar + Cafe,36,144.9748871,-37.80862592,Cafe
562-566 Little Bourke Street,Melbourne Hwaro Korean BBQ Restaurant,12,144.9556694,-37.81501703,Cafe
715-727 Bourke Street,Cafe Saporo,26,144.9502584,-37.81864992,Cafe
20-30 Convention Centre Place,Gasolina,170,144.9523782,-37.82539976,Cafe
32-54 Lonsdale Street,Madame's Kitchen,36,144.9707325,-37.8091842,Cafe
183-265 La Trobe Street,Asian Beer Cafe,687,144.9630189,-37.81073331,Cafe
269-321 Lonsdale Street,Dumplings Plus,60,144.9638386,-37.81245199,Cafe
120 Brunton Avenue,Spotless Services,175,144.9832828,-37.81992883,Cafe
2-24 Waterview Walk,Pizza Hut,43,144.9479753,-37.81925128,Cafe
156-164 Cardigan Street,Jokamz,4,144.9656265,-37.80132569,Cafe
23-37 Cardigan Street,Coffee On Cardigan,20,144.9639545,-37.80592639,Cafe
43-51 Queen Street,Queen St Espresso ,25,144.9616143,-37.81773812,Cafe
195-199 Faraday Street,Cafe Italia,240,144.9678678,-37.79918207,Cafe
309-325 Bourke Street,Sushi Monger ,12,144.9645323,-37.81445406,Cafe
14-40 Market Street,KCL (Koury's Coffee Lounge) ,20,144.9611339,-37.81848796,Cafe
168-170 Rathdowne Street,The Olive Jar,75,144.9711498,-37.7953809,Cafe
1-9 Freshwater Place,Suni Sushi Bar,40,144.962154,-37.82167834,Cafe
311 Exhibition Street,Food Stories Chinese Canteen,44,144.9687046,-37.80869914,Cafe
256-268 Flinders Street,Grill'd ,84,144.9656264,-37.81760781,Cafe
8 Whiteman Street,Rock Pool Bar & Grill,200,144.9586604,-37.82312164,Cafe
 Elliott Avenue,Lakeside Bistro And Function Centre,118,144.9514349,-37.78428452,Cafe
525-539 Lonsdale Street,Cafe Dominoes,98,144.9566434,-37.81427826,Cafe
344-350 Collins Street,Sambal Kampung,69,144.962689,-37.81601764,Cafe
1 Phillip Court,Subway,16,144.920988,-37.82600955,Cafe
818-838 Collins Street,Le-Nguyen Pho & Bakery Cafe,80,144.9450469,-37.82100111,Cafe
108 Lygon Street,Carlton Curry House,28,144.9666993,-37.80443778,Cafe
1-19 Princes Walk,Pilgrim,130,144.9689349,-37.81865919,Cafe
673-683 La Trobe Street,Spicy House,50,144.9475368,-37.81486994,Cafe
40-46 Little Bourke Street,Longrain Melbourne,150,144.971183,-37.81058999,Cafe
494-512 Bourke Street,Earl Canteen,28,144.9587607,-37.81494883,Cafe
477-479 St Kilda Road,The Deck Cafe On St Kilda Road,60,144.978556,-37.8418809,Cafe
110 Lygon Street,Ying Thai 2,20,144.9666993,-37.80443778,Cafe
408-416 Queen Street,Phancy Cafe & Catering ,40,144.9585116,-37.80897917,Cafe
24-42 Newquay Promenade,Medici Cafe Bar Restaurant,136,144.942139,-37.81434525,Cafe
50-56 Lorimer Street,Hooks @ The Yarra,60,144.9476471,-37.82461477,Cafe
111-113 Grattan Street,Tigerlily Cafe,18,144.9657698,-37.80081687,Cafe
397-407 Docklands Drive,Aree Thai,4,144.9401994,-37.81427742,Cafe
566-580 Flinders Street,Five66,55,144.9553465,-37.82072034,Cafe
166-170 Lonsdale Street,Goody's Burger House,35,144.9673697,-37.8105674,Cafe
149 Elgin Street,Porcelain Tea Parlour,14,144.9697088,-37.79771402,Cafe
80 Dorcas Street,Cafe Clicquot,44,144.9662961,-37.83070462,Cafe
189 Elgin Street,Ultimate Coffee Bar,6,144.9682099,-37.79746832,Cafe
16-26 Orr Street,Orr Street Cafe,28,144.9654007,-37.8063402,Cafe
207-361 Flinders Street,Pho Flinders,8,144.9654659,-37.81866105,Cafe
26-30 Flinders Street,Felt Restaurant,40,144.9735899,-37.81528647,Cafe
267-275 Flinders Lane,The Quarter,28,144.9654844,-37.81710105,Cafe
271-285 Collins Street,Lindt Chocolat Cafe,16,144.9649331,-37.81662781,Cafe
807-811 Bourke Street,Banoi,24,144.9450661,-37.81970478,Cafe
27-31 Hardware Lane,Affogato,18,144.9612664,-37.81398752,Cafe
6-8 Dorcas Street,Nashi ,12,144.9702153,-37.82981139,Cafe
654-670 Bourke Street,Dotspot,60,144.9540371,-37.81626998,Cafe
162-168 Wellington Parade,Two Fat Indians,60,144.9845144,-37.81593696,Cafe
150-170 Harbour Esplanade,Broadcast Cafe,80,144.9458827,-37.81566514,Cafe
364 Lygon Street,Seasalt Fish & Sushi Bar,43,144.9676437,-37.79828024,Cafe
161-173 Domain Road,Gilson,42,144.9816996,-37.83431735,Cafe
212 Little Bourke Street,The Crane,80,144.9662792,-37.81203484,Cafe
790-814 Collins Street,Street Kitchen Co,52,144.9458305,-37.821044,Cafe
380-394 Docklands Drive,Cafe Bourgeois,16,144.9411967,-37.81308483,Cafe
791-847 Collins Street,In A Rush Docklands ,32,144.9457644,-37.82205739,Cafe
149-155 Lonsdale Street,Dainty Sichuan Food,250,144.9680174,-37.81090617,Cafe
53-57 Lonsdale Street,Bad Boys,12,144.9707149,-37.81005686,Cafe
74 Wellington Parade,Memoria Cafe,4,144.98763,-37.81638646,Cafe
32-54 Lonsdale Street,Shuji Sushi,40,144.9707325,-37.8091842,Cafe
21-31 Market Street,The Trust,450,144.9604206,-37.81864585,Cafe
199-209 Collins Street,Three Below,40,144.9674304,-37.81584777,Cafe
790-814 Collins Street,Heavy D's Cafe & Sanwich Bar,15,144.9458305,-37.821044,Cafe
545-557 Flinders Street,Nandos Northbank,60,144.9565185,-37.82099397,Cafe
304-306 Little Collins Street,Gordons Cafe & Bar,38,144.9643486,-37.81473293,Cafe
613-639 Little Collins Street,Apna Desi Indian Restaurant & Grocery,20,144.9543659,-37.81818484,Cafe
53 Royal Parade,Cafe Royale,15,144.9575513,-37.79539648,Cafe
230 Grattan Street,Lot#6 Cafe,40,144.9612468,-37.79739836,Cafe
1-9 Collins Street,Signature Coffee,12,144.9737201,-37.81372701,Cafe
1010 La Trobe Street,Coffee n' all Customs House,80,144.9453402,-37.81453858,Cafe
680-682 Swanston Street,Colourful Yunnan Restaurant,150,144.9642366,-37.80062759,Cafe
 Alexandra Avenue,The Terrace,75,144.9803723,-37.83016988,Cafe
2 Swanston Street,Arintji,75,144.9699175,-37.81784465,Cafe
18-38 Siddeley Street,Jamps Cafe,11,144.9536422,-37.82253633,Cafe
360-374 Collins Street,360 Brew Bar,24,144.9621844,-37.81615528,Cafe
5-17 Flemington Road,Little Richard Pizza Bar,18,144.9558713,-37.80140031,Cafe
8 Whiteman Street,Sho Noodles,200,144.9586604,-37.82312164,Cafe
4-12 Tattersalls Lane,Gaylord Indian Restaurant,100,144.9657704,-37.81206133,Cafe
255-257 Lygon Street,University Cafe,56,144.9668382,-37.79947744,Cafe
162 Albert Street,Gourmet Pizza Bar,40,144.9856254,-37.81004657,Cafe
226-236 Russell Street,Seoul House Korean Restaurant,150,144.9676444,-37.81098272,Cafe
100 St Kilda Road,Bombini Buzz,30,144.9682264,-37.82094188,Cafe
269 Swanston Street,Dumplings Plus,115,144.9645747,-37.8119541,Cafe
415-421 St Kilda Road,Nutrition Bar,11,144.9770428,-37.83774553,Cafe
223 Victoria Street,Dolcetti,16,144.9540448,-37.80590009,Cafe
2 Swanston Street,Taxi Riverside,120,144.9699175,-37.81784465,Cafe
415-421 St Kilda Road,Tokyo Sushi Kitchen,28,144.9770428,-37.83774553,Cafe
335-347 Swanston Street,Nando's,32,144.9637506,-37.8103651,Cafe
269-321 Lonsdale Street,1000 Wat,59,144.9638386,-37.81245199,Cafe
1-9 Freshwater Place,Kenny's Bakery Cafe,34,144.962154,-37.82167834,Cafe
221 Little Lonsdale Street,Plantation Speciality Coffee Roasters,25,144.9657034,-37.810658,Cafe
260 Victoria Street,Melbourne Toodouri,60,144.9577237,-37.80583959,Cafe
206-218 Bourke Street,Dragon Boat,250,144.9668768,-37.81259409,Cafe
790-814 Collins Street,Code Black,8,144.9458305,-37.821044,Cafe
119-127 Little Bourke Street,City Orchids Garden,105,144.9688884,-37.81158263,Cafe
199-209 Collins Street,La Vita Buona 'The Good Life' Cellar Bar Deli,36,144.9674304,-37.81584777,Cafe
169-173 Rankins Road,Luncheonette Cafe ,12,144.9311131,-37.79436218,Cafe
47-59 Flemington Road,Flavour Cafe,60,144.954319,-37.7997297,Cafe
487-503 Collins Street,Eclipse Coffee,40,144.9581185,-37.81853877,Cafe
138-144 Elgin Street,Campos Coffee,36,144.96981,-37.79715068,Cafe
2-16 Newquay Promenade,Aussie Steak N Burger,120,144.9436836,-37.81389091,Cafe
550-554 Flinders Street,Cafe Keyif,50,144.9559791,-37.8203648,Cafe
97-103 Elizabeth Street,This Side of Paradise,48,144.9634979,-37.81592157,Cafe
209-221 Little Collins Street,Alice's Thai Restaurant,100,144.9670943,-37.81447237,Cafe
10-20 Olympic Boulevard,The Glasshouse Eatery,46,144.9823854,-37.82487806,Cafe
61-71 Agnes Street,Aggies Cafe Bar Restaurant,9,144.9799837,-37.81680765,Cafe
269-275 William Street,Kaefei,90,144.9564474,-37.81270785,Cafe
16-32 Rakaia Way,Bhoj On Docklands ,80,144.9412614,-37.81460533,Cafe
109-117 Swanston Street,Thai Viet,5,144.9657774,-37.81507697,Cafe
610 Queensberry Street,Elceed Cafe,18,144.9471385,-37.80252643,Cafe
148 Swanston Street,Sushi Sushi,28,144.9662156,-37.8141284,Cafe
368-386 Lygon Street,Brunetti Carlton,100,144.9681789,-37.79803089,Cafe
16-32 Rakaia Way,Oscar's Table,70,144.9412614,-37.81460533,Cafe
378-380 Little Collins Street,Oriental Tea House,12,144.9620207,-37.81551671,Cafe
224-236 Queen Street,Cafe Shots Espresso Bar,6,144.960162,-37.81320274,Cafe
156-164 Cardigan Street,Don Tojo,10,144.9656265,-37.80132569,Cafe
55 Newquay Promenade,Cargo Cafe & Bar,80,144.9414051,-37.8153411,Cafe
376-390 Collins Street,The Groove Train,10,144.9617186,-37.81629382,Cafe
269-321 Lonsdale Street,Spudbar,16,144.9638386,-37.81245199,Cafe
70 Speakmen Street,Don't Tell Charles Coffee & Desserts,12,144.9163635,-37.79387621,Cafe
198-204 Faraday Street,Crinitis Southern Italian Cuisine,86,144.9678378,-37.79850638,Cafe
256-268 Flinders Street,Sea Salt,14,144.9656264,-37.81760781,Cafe
97-103 Elizabeth Street,Subway,6,144.9634979,-37.81592157,Cafe
10 Gatehouse Drive,Al Capone's Pizzeria,10,144.9194456,-37.79170781,Cafe
106-116 A'Beckett Street,I Love Dumplings,6,144.9599969,-37.80914342,Cafe
359-373 Collins Street,Cafenatics 367,52,144.9624418,-37.81728432,Cafe
103-105 Flinders Lane,Cafe Kinetic,12,144.9709643,-37.81556733,Cafe
3 Southgate Avenue,Waterfront (Southgate),188,144.9662623,-37.82066923,Cafe
280-292 Collins Street,Caffe Duomo,29,144.9645574,-37.81567229,Cafe
29-55 College Crescent,Sage & Grace Cafe,24,144.9605953,-37.79301958,Cafe
319-325 Collins Street,Mensousai Mugen,40,144.9636498,-37.81686635,Cafe
2 Swanston Street,Chocolate Buddha,93,144.9699175,-37.81784465,Cafe
389-395 Lonsdale Street,Kalamaki Greek Street Food,35,144.9610121,-37.81288006,Cafe
8 Whiteman Street,Long Chim,90,144.9586604,-37.82312164,Cafe
522-534 Collins Street,Ootoro On Collins,88,144.9568348,-37.81767359,Cafe
16-32 Rakaia Way,Rejuice Bar & Cafe,4,144.9412614,-37.81460533,Cafe
221-229 Faraday Street,Thresherman's Bakehouse,50,144.9667269,-37.79886072,Cafe
151-165 Franklin Street,Andrews Hamburger,36,144.9595755,-37.80904835,Cafe
44-50 Errol Street,Reynoldo's,24,144.9500439,-37.80411038,Cafe
242-284 Exhibition Street,Barista Cafe,52,144.9699756,-37.80941489,Cafe
319-323 Rathdowne Street,East Imperial,100,144.969881,-37.79918387,Cafe
788-812 Bourke Street,Rhumba's At Nab,38,144.9451224,-37.81888389,Cafe
183-265 La Trobe Street,The Pancake Parlour,160,144.9630189,-37.81073331,Cafe
177-183 Lygon Street,Cafe Notturno,48,144.9664967,-37.80144374,Cafe
487-503 Collins Street,Eclipse Coffee,14,144.9581185,-37.81853877,Cafe
255-259 Queensberry Street,Red Capsicum,12,144.9600381,-37.8044181,Cafe
221 Little Lonsdale Street,Max Brenner Chocolates,36,144.9657034,-37.810658,Cafe
128-130 Lygon Street,Da Guido,14,144.9666832,-37.80403393,Cafe
191-205 Swanston Street,Soul Cafe,42,144.9649993,-37.81309229,Cafe
469-477 La Trobe Street,Frescatis Fine Foods,40,144.9552995,-37.81251859,Cafe
349-351 Victoria Street,Katmandu Cottage,60,144.9497885,-37.80539346,Cafe
550 Bourke Street,Tadka Boom,38,144.9573923,-37.81531863,Cafe
302-308 Flinders Lane,Yum Yum Dumplings,70,144.9638971,-37.81719967,Cafe
268-276 Victoria Street,Donwoori,36,144.9573902,-37.80580455,Cafe
228-236 Flinders Street,Jolly J's,6,144.9665517,-37.81724878,Cafe
314-336 Bourke Street,Brunetti Myer Melbourne,99,144.9638295,-37.81344503,Cafe
16-22 Liverpool Street,Ruyi,45,144.9715514,-37.81106615,Cafe
18-22 Flemington Road,Isabella ,80,144.9550404,-37.79885182,Cafe
172-174 Faraday Street,The Carlton Wine Room,20,144.9685856,-37.79858383,Cafe
329 Lygon Street,Heartattack and Vine,35,144.9671482,-37.7976433,Cafe
51-53 A'Beckett Street,Darac Grill & Bar,44,144.9620743,-37.8090975,Cafe
191 Lygon Street,Leyalina,16,144.9664967,-37.80114228,Cafe
130-134 Little Collins Street,Famish'd,40,144.9693812,-37.81330421,Cafe
512 Macaulay Road,Bean Buzz Cafe,6,144.9291382,-37.79407422,Cafe
459-475 Little Bourke Street,Alibi Kitchen & Bar,80,144.9590443,-37.81456798,Cafe
163-261 Spencer Street,Coffee Rush,16,144.951187,-37.81501701,Cafe
120-122 Little Bourke Street,Empress of China,100,144.9689085,-37.81131622,Cafe
23-37 Cardigan Street,Coffee On Cardigan,68,144.9639545,-37.80592639,Cafe
359-373 Collins Street,The Overdraft Cafe,38,144.9624418,-37.81728432,Cafe
337-343 Lygon Street,Intersection Cafe,6,144.9672287,-37.79734681,Cafe
318 William Street,The Mint Bar & Restaurant,48,144.9573609,-37.81209045,Cafe
212-224 King Street,Delhi Rocks,10,144.9553894,-37.81500707,Cafe
192-194 Bellair Street,Spinifex Cafe,32,144.9300585,-37.79405204,Cafe
254-258 Queen Street,Red Cliff Chinese Restaurant,2,144.9599448,-37.81247811,Cafe
176 Bellair Street,White Rabbit Record Bar,25,144.9299348,-37.7936563,Cafe
230 Grattan Street,Shanti Bhagwan Cafe,25,144.9612468,-37.79739836,Cafe
550 Lonsdale Street,Jang Gun Restuarant,48,144.9560169,-37.8134766,Cafe
48-50 Flemington Road,Subway,20,144.9501914,-37.79382016,Cafe
176-178 Faraday Street,Market Lane Coffee,2,144.9684894,-37.79857335,Cafe
517-537 Flinders Lane,Mr Huang Jin,31,144.9566017,-37.81988484,Cafe
235-251 Bourke Street,Momo Station,28,144.9665978,-37.81376503,Cafe
353-355 Flinders Lane,Cafe Del Corso,53,144.9627445,-37.81786011,Cafe
18-20 Bank Place,Curry Vault ,6,144.9605225,-37.81642893,Cafe
52 Morrah Street,Parkville Store,30,144.9556719,-37.79525038,Cafe
556-558 Lonsdale Street,Nick's Spaghetti Bar,100,144.9557716,-37.81386782,Cafe
706-738 Bourke Street,Salud Espresso Bar,35,144.9490176,-37.81792089,Cafe
545-557 Flinders Street,Tokyo Maki,44,144.9565185,-37.82099397,Cafe
380 Elizabeth Street,Nando's ,18,144.9614913,-37.80985709,Cafe
788-812 Bourke Street,Sushi Wang,45,144.9451224,-37.81888389,Cafe
535 Bourke Street,Sake Jr,120,144.9578132,-37.81636534,Cafe
331-335 Lygon Street,Jimmy Watsons ,120,144.9671779,-37.7975082,Cafe
330-332 Cardigan Street,Le Miel Et Le Lune,35,144.9663778,-37.79685803,Cafe
694-704 Collins Street,St. Brew,40,144.9508705,-37.81949297,Cafe
172-174 Faraday Street,The Carlton Wine Room,126,144.9685856,-37.79858383,Cafe
180 Rathdowne Street,Osc&r On Rathdowne ,30,144.9711917,-37.79514419,Cafe
43 Epsom Road,Local Folk Cafe,60,144.9256097,-37.79223674,Cafe
500-514 Collins Street,O-Bento,75,144.9574732,-37.81753383,Cafe
271-285 Collins Street,Lindt Chocolat Cafe,38,144.9649331,-37.81662781,Cafe
20-26 Coromandel Place,Oli Levi,20,144.9692543,-37.81302823,Cafe
178-188 William Street,Berto's Bar,50,144.9580871,-37.81476776,Cafe
535 Little Lonsdale Street,Mr Nice Guy,10,144.9560169,-37.8134766,Cafe
437-439 Elizabeth Street,Menya Ramen,94,144.9602369,-37.80880991,Cafe
52-62 Cade Way,Corner Cafe & Convenience Store,6,144.9391831,-37.77625457,Cafe
425-427 Docklands Drive,Aria Bar & Events,480,144.9390269,-37.81517782,Cafe
135-137 Lygon Street,Universal Pizza,30,144.966075,-37.80391066,Cafe
76 Wellington Parade,Hard Pressed,6,144.987555,-37.81637751,Cafe
269-321 Lonsdale Street,Toyko Pop,60,144.9638386,-37.81245199,Cafe
221 Little Lonsdale Street,Chocolateria San Churro QV,60,144.9657034,-37.810658,Cafe
415-421 St Kilda Road,Aromatic Espresso,24,144.9770428,-37.83774553,Cafe
304-306 Little Collins Street,Laurent Boulangerie Patisserie,80,144.9643486,-37.81473293,Cafe
408-412 Bourke Street,Corner & Bench,32,144.961492,-37.81443611,Cafe
163-261 Spencer Street,Hungry Jacks,52,144.951187,-37.81501701,Cafe
562-566 Little Bourke Street,Melbourne Hwaro Korean BBQ Restaurant,72,144.9556694,-37.81501703,Cafe
433-435 Elizabeth Street,Rose Garden Barbecue Shop,32,144.9603439,-37.80885861,Cafe
107-111 Lonsdale Street,Pomodoro Sardo,76,144.9691194,-37.81053336,Cafe
214-222 Clarendon Street,Square & Compass,64,144.9841154,-37.80970632,Cafe
27-31 Hardware Lane,Big Boy BBQ,40,144.9612664,-37.81398752,Cafe
486-492 Bourke Street,Cafe Euro Food & Wine Bar,30,144.9591969,-37.81499761,Cafe
189 Collins Street,Box On Collins Restaurant,80,144.9677066,-37.81546677,Cafe
330-352 William Street,Brother Thomas Coffee,45,144.9565783,-37.81124428,Cafe
323 Lygon Street,Milk The Cow,80,144.9671258,-37.79777439,Cafe
181 William Street,Roll'D Vietnamese Kitchen ,30,144.9573923,-37.81531863,Cafe
733-747 Collins Street,Mr Collins,35,144.9494345,-37.82089145,Cafe
181 William Street,Sakae,20,144.9573923,-37.81531863,Cafe
24-30 Russell Street,Lucy Liu's Kitchen & Bar,100,144.9698948,-37.81599798,Cafe
369-379 King Street,Ssarim's Cafe,18,144.9532514,-37.81166257,Cafe
220 Spencer Street,Pho 24,90,144.9535531,-37.8153588,Cafe
210 Queensberry Street,The Queensberry Pour House,2,144.9620274,-37.80421363,Cafe
258-260 Flinders Lane,Cafe Vicolino,16,144.9654744,-37.81664468,Cafe
550 Lonsdale Street,Suda,8,144.9560169,-37.8134766,Cafe
81 Errol Street,Snax Deli,36,144.9492871,-37.80323404,Cafe
183-265 La Trobe Street,Equinox Bar Restaurant,70,144.9630189,-37.81073331,Cafe
252-254 Flinders Lane,Cafe Issus,12,144.9655966,-37.8166033,Cafe
317-321 Little Collins Street,Caffe E Biscotti,60,144.9642254,-37.81528948,Cafe
525-539 Lonsdale Street,Cafe Dominoes,30,144.9566434,-37.81427826,Cafe
194-206 Harbour Esplanade,Cafe 198,8,144.9449612,-37.81396231,Cafe
147 Lygon Street,The Dessert Box,18,144.9661056,-37.80373308,Cafe
829-843 Bourke Street,Merchant Society,70,144.9434599,-37.82044558,Cafe
191-205 Swanston Street,Soul Cafe,30,144.9649993,-37.81309229,Cafe
1-9 Freshwater Place,Blossom Espresso ,28,144.962154,-37.82167834,Cafe
151 Lygon Street,Tank Fish And Chippery ,20,144.9661179,-37.80366248,Cafe
114-128 William Street,Tempo Bar & Cafe,20,144.9589224,-37.81630648,Cafe
170-176 Wellington Parade,Da Bruno Ristorante Pizza,72,144.9843025,-37.81583642,Cafe
494-512 Bourke Street,Earl Canteen,6,144.9587607,-37.81494883,Cafe
788-812 Bourke Street,Rhumba's At Nab,36,144.9451224,-37.81888389,Cafe
121 Exhibition Street,Dumpling King,32,144.9701092,-37.81281453,Cafe
189 Lygon Street,Buenos Aires Steakhouse,45,144.966488,-37.8011904,Cafe
86-88 Collins Street,Doc Martins,12,144.9705847,-37.81393777,Cafe
242 Swanston Street,Ghin Khao,12,144.9653591,-37.81218452,Cafe
1 Phillip Court,Black Jack Cafe,32,144.920988,-37.82600955,Cafe
2-20 Sutherland Street,CNK Korean Cuisine,80,144.9609484,-37.81131629,Cafe
818-838 Collins Street,Chia Chia,44,144.9450469,-37.82100111,Cafe
309 Exhibition Street,65 Degrees ,8,144.9687244,-37.80874125,Cafe
469-477 La Trobe Street,Frescatis Fine Foods,90,144.9552995,-37.81251859,Cafe
177-183 Lygon Street,Cafe Notturno,100,144.9664967,-37.80144374,Cafe
435-443 Little Collins Street,Syracuse Restaurant - Bar ,80,144.9600859,-37.81638558,Cafe
269-321 Lonsdale Street,Ramen Ya,59,144.9638386,-37.81245199,Cafe
8 Whiteman Street,The Atlantic/The Den /The Oyster Bar & Grill/ Fish & Chippery by The Atlantic,100,144.9586604,-37.82312164,Cafe
127-133 Leicester Street,Bar Scopa ,14,144.9602088,-37.80290295,Cafe
458-468 Lonsdale Street,The Firm Espresso Bar,32,144.9583529,-37.8130525,Cafe
243-263 Franklin Street,Francis Food & Coffee,28,144.9566627,-37.80967009,Cafe
200-222 Queen Street,Goodovening,30,144.9604697,-37.81352285,Cafe
612-624 Collins Street,Choix Creperie Cafe,16,144.9543505,-37.81867544,Cafe
2 Swanston Street,Chocolate Buddha,180,144.9699175,-37.81784465,Cafe
317-321 Little Collins Street,Dinkum Pies,24,144.9642254,-37.81528948,Cafe
731-735 Bourke Street,Platform 28,90,144.9498213,-37.81921015,Cafe
174-192 Exhibition Street,Locanda Italian Steakhouse,34,144.9706454,-37.81121462,Cafe
744-770 Bourke Street,De Gusto,34,144.947217,-37.81817241,Cafe
507-523 Elizabeth Street,Coffea Coffee,26,144.9572395,-37.80745984,Cafe
246-252 Lygon Street,Villa Romana,200,144.9673242,-37.80137656,Cafe
410-420 Elizabeth Street,Nene Chicken (Elizabeth St),30,144.9611573,-37.80894909,Cafe
139-141 Swanston Street,Gopal's Vegetarian Restaurant,80,144.9657351,-37.8144111,Cafe
52 Morrah Street,Parkville Store,8,144.9556719,-37.79525038,Cafe
263-329 Lorimer Street,Ocean View Cafe Port Melbourne,50,144.9052161,-37.82483593,Cafe
72-74 Bourke Street,Bottega Restaurant,130,144.9710074,-37.81168307,Cafe
8 Whiteman Street,Koko,64,144.9586604,-37.82312164,Cafe
380-384 Little Bourke Street,Kirk's Wine Bar,34,144.9613283,-37.81354346,Cafe
123-129 Howard Street,Ample Cafe Bar,55,144.9536961,-37.80409478,Cafe
239-241 Swanston Street,Mekong Vietnam,50,144.9647784,-37.81239263,Cafe
393-397 Little Bourke Street,Triim,50,144.9612043,-37.8138513,Cafe
303-305 Elizabeth Street,Old Town White Cafe,100,144.9615988,-37.81155119,Cafe
11-41 Melrose Street,Pocket Cafe,12,144.9414027,-37.79501722,Cafe
407B-407D St Kilda Road,Cafe Rosco,24,144.9762096,-37.836275,Cafe
517 St Kilda Road,Ai Sushi ,28,144.9793123,-37.84459479,Cafe
43 Little Bourke Street,SPQR Pizzeria,40,144.971363,-37.81092017,Cafe
235-251 Bourke Street,Warra Warra,20,144.9665978,-37.81376503,Cafe
351-357 Collins Street,Crema,42,144.9627888,-37.81722704,Cafe
28 Freshwater Place,Boccata,40,144.9622689,-37.82266873,Cafe
221 Little Lonsdale Street,Movenpick Icecream,50,144.9657034,-37.810658,Cafe
427-431 St Kilda Road,Japan Inn Gourmet Sushi,16,144.9771931,-37.83854242,Cafe
58-66 La Trobe Street,Shanghai Street / Momo Tea,40,144.9669433,-37.80829662,Cafe
297-307 Victoria Street,Warung Agus,60,144.9513664,-37.80562951,Cafe
212 Berkeley Street,Haymarket Place,47,144.9589985,-37.80052523,Cafe
1 Riverside Quay,The Bond Store Cafe,60,144.9638744,-37.82193589,Cafe
559-587 Collins Street,Black Rice,44,144.9557275,-37.81902044,Cafe
18-24 Dorcas Street,Humbaba,30,144.9695681,-37.83002436,Cafe
247-255 Lonsdale Street,Nine Taiwanese Dessert House,54,144.9651047,-37.81169356,Cafe
655-657 Spencer Street,Cafe 6six 5fifty 5five,27,144.9449051,-37.80643136,Cafe
184-192 Collins Street,Bistrot D'Orsay,12,144.9672778,-37.81485585,Cafe
160-162 Rathdowne Street,Calrton Pizzeria Bar and Restaurant,20,144.9711231,-37.79553609,Cafe
300-308 Victoria Street,La Porchetta,200,144.9563791,-37.80569684,Cafe
401-403 Collins Street,Morgans at 401,80,144.9612229,-37.81739636,Cafe
207-213 Queen Street,Sool Tong,6,144.9599073,-37.81386746,Cafe
225-229 Lygon Street,Cafe Corretto,60,144.966741,-37.80004558,Cafe
119-121 Howard Street,Code Black Howard Street,70,144.9536735,-37.80422555,Cafe
357 Victoria Street,Smile Thai Restaurant,30,144.949623,-37.80538734,Cafe
3 Southgate Avenue,Tutto Bene,100,144.9662623,-37.82066923,Cafe
790-814 Collins Street,Paper Chase,120,144.9458305,-37.821044,Cafe
28-38 Queen Street,Cafe 34,16,144.9624375,-37.81798973,Cafe
307-311 Elizabeth Street,Pepper Lunch,68,144.9615613,-37.81146864,Cafe
189-203 William Street,Ba Noi,78,144.9570408,-37.8146364,Cafe
115-123 Hardware Street,White Mojo,45,144.9603936,-37.81210735,Cafe
196-212 Little Collins Street,Hairy Canary,70,144.9671568,-37.81384227,Cafe
370-372 Victoria Street,Pho Victoria,28,144.9539606,-37.80542264,Cafe
744-770 Bourke Street,Nawabs Palace,16,144.947217,-37.81817241,Cafe
1 Phillip Court,Degani Bakery Cafe,34,144.920988,-37.82600955,Cafe
147 Lygon Street,The Dessert Box,18,144.9661056,-37.80373308,Cafe
541-543 St Kilda Road,J&K  Cafe,44,144.9800592,-37.84607473,Cafe
18-38 Siddeley Street,Riverside Teppanyaki,42,144.9536422,-37.82253633,Cafe
6-12 Miles Street,8 On Miles,22,144.9679695,-37.82843322,Cafe
305-307 Swanston Street,Ramen Bankara,60,144.9641668,-37.81101861,Cafe
121 Exhibition Street,Mabrown Curry House,40,144.9701092,-37.81281453,Cafe
535 Little Lonsdale Street,Mr Nice Guy,41,144.9560169,-37.8134766,Cafe
48-50 Grattan Street,Il Vicolo,180,144.96788,-37.80059699,Cafe
60 City Road,IBM Bistro,20,144.9662623,-37.82066923,Cafe
715-727 Bourke Street,Cafe Saporo,60,144.9502584,-37.81864992,Cafe
56-62 Lygon Street,Artee Cafe,7,144.9664413,-37.80566982,Cafe
408-412 Bourke Street,Corner & Bench,40,144.961492,-37.81443611,Cafe
1 Phillip Court,Black Jack Cafe,30,144.920988,-37.82600955,Cafe
33-71C Spencer Street,RAB Bar & Restaurant,30,144.9541587,-37.82020559,Cafe
267-275 Flinders Lane,RMB Cafe,24,144.9654844,-37.81710105,Cafe
205-207 Lygon Street,Ma's Dumpling Den,35,144.9665902,-37.80049164,Cafe
559-587 Collins Street,The Pressed Lab,24,144.9557275,-37.81902044,Cafe
32-54 Lonsdale Street,Degani At Urban Workshop,28,144.9707325,-37.8091842,Cafe
198-204 Bellair Street,The Premises Espresso,50,144.9301769,-37.79426147,Cafe
152-154 Lygon Street,Mawal,100,144.9667447,-37.80359309,Cafe
1-9 Powlett Street,My Sushi Japanese Cafe,22,144.9848341,-37.81608793,Cafe
173-175 Bourke Street,Edoya Japanese Restaurant,47,144.9684168,-37.81298798,Cafe
389-395 Lonsdale Street,Tsuta sushi,10,144.9610121,-37.81288006,Cafe
790-814 Collins Street,A25,72,144.9458305,-37.821044,Cafe
788-812 Bourke Street,Banc Cafe,80,144.9451224,-37.81888389,Cafe
199-209 Collins Street,Starbucks,56,144.9674304,-37.81584777,Cafe
3 Southgate Avenue,La Camera,220,144.9662623,-37.82066923,Cafe
308-336 Collins Street,Cafenatics Equitable Place,28,144.9633433,-37.81611256,Cafe
519-539 St Kilda Road,Cafe La Colline ,12,144.9798191,-37.8455379,Cafe
744-770 Bourke Street,Nando's,40,144.947217,-37.81817241,Cafe
324-328 William Street,La Stradda Cafe,100,144.9566886,-37.81146268,Cafe
111-129 Bourke Street,Kenny's Bakery Cafe,33,144.9701092,-37.81281453,Cafe
27-29 Elizabeth Street,Nando's,84,144.9643684,-37.81754524,Cafe
362-364 Spencer Street,Rej's Cafe & Kebabs,43,144.9511755,-37.81189101,Cafe
151-169 Kings Way,Hungry Jack's,30,144.9638608,-37.82864999,Cafe
399-413 Lonsdale Street,Hawker Boys,24,144.9606809,-37.81303978,Cafe
130-200 St Kilda Road,Gallery Kitchen,1000,144.9686338,-37.82281707,Cafe
427-431 St Kilda Road,Slater St Bench,32,144.9771931,-37.83854242,Cafe
 Alexandra Avenue,Jardin Tan,81,144.9803723,-37.83016988,Cafe
432-446 Docklands Drive,Degani Bakery Cafe,70,144.9378299,-37.81315031,Cafe
8 Collins Street,Market Lane Coffee,34,144.9732575,-37.81314231,Cafe
58-70 Lorimer Street,Loading Dock,65,144.946356,-37.82488026,Cafe
6 Riverside Quay,Ludlow Bar & Dining Room,100,144.9638287,-37.82082512,Cafe
45-49 Bourke Street,Sempre Pizza & Calzone,16,144.9719053,-37.8119837,Cafe
298-336 Victoria Parade,Hudsons Coffee Freemasons,48,144.9822638,-37.8094576,Cafe
37-43 Caravel Lane,B Club Cafe,20,144.9406594,-37.8149263,Cafe
138 Queensberry Street,Queens Cafe,16,144.9642948,-37.80444614,Cafe
163-173 Queen Street,Subway,34,144.9602243,-37.81467989,Cafe
320-386 Epsom Road,Saj Mediterranean Grill,8,144.9155212,-37.78257294,Cafe
196-198 Pelham Street,Keiser Cafe,8,144.9592355,-37.80185711,Cafe
109-117 Swanston Street,Thai Viet,38,144.9657774,-37.81507697,Cafe
112-114 Little Bourke Street,Shanghai Village,180,144.9690756,-37.81124441,Cafe
183 Elgin Street,Gemma Simple Italian,60,144.9683841,-37.79752965,Cafe
427-457 Swanston Street,The Vine Coffee Roasters,40,144.9626932,-37.80826292,Cafe
37-41 Little Bourke Street,Kri Kri Restaurant,80,144.9715059,-37.81083595,Cafe
241-245 Collins Street,Ganache Chocolate Lounge,28,144.9658313,-37.81606673,Cafe
32-54 Lonsdale Street,Roll'd Lonsdale Street,12,144.9707325,-37.8091842,Cafe
246-260 Bourke Street,Pad Thai,62,144.9658365,-37.81296443,Cafe
25 Wills Street,Operator 25,8,144.9571621,-37.81071591,Cafe
410-420 Elizabeth Street,Torasan Ramen,60,144.9611573,-37.80894909,Cafe
183-265 La Trobe Street,Grill'd Healthy Burgers,120,144.9630189,-37.81073331,Cafe
230 Grattan Street,HJC Bar,180,144.9612468,-37.79739836,Cafe
355-369 Spencer Street,Western Coffee Lounge,32,144.9503335,-37.81194572,Cafe
37-45 Flinders Lane,Cumulus Inc,141,144.9731346,-37.81494022,Cafe
109-117 Swanston Street,Om Vegetarian,34,144.9657774,-37.81507697,Cafe
9 Errol Street,The Hot Poppy,30,144.9489706,-37.80473152,Cafe
211-229 Sturt Street,Downstaris Bistro & Lounge ,80,144.9661569,-37.82967464,Cafe
75-77 Hardware Lane,Amigos Hardware Lane,100,144.9608667,-37.8131434,Cafe
167-173 Collins Street,Supernormal,160,144.9682892,-37.81563788,Cafe
275-285 Exhibition Street,Trunk,150,144.9689066,-37.80938323,Cafe
220 Spencer Street,Pretty Mama,40,144.9535531,-37.8153588,Cafe
359-373 Collins Street,Klatch,28,144.9624418,-37.81728432,Cafe
24-38 Little Bourke Street,Cafe Le Petite Bourke Patisserie ,27,144.9714138,-37.81033978,Cafe
3-5 Star Circus,Healthy Habits,36,144.9378299,-37.81315031,Cafe
555 Bourke Street,Simply Spanish,25,144.9578132,-37.81636534,Cafe
353-359 Little Bourke Street,Brother Baba Budan,16,144.9621697,-37.81353635,Cafe
582-606 Collins Street,Cafe Eurasia ,14,144.954944,-37.81850425,Cafe
654 Elizabeth Street,Old Hankau,30,144.9585194,-37.80307841,Cafe
56 Rosslyn Street,Rosslyn Pizzeria,18,144.9524041,-37.80751845,Cafe
230 Grattan Street,Egg Sake Bistro,52,144.9612468,-37.79739836,Cafe
122-148 Harbour Esplanade,Locker Room Cafe,20,144.9475776,-37.81656591,Cafe
188-194 Little Collins Street,Sarti Restaurant & Bar,40,144.9675807,-37.81390779,Cafe
230 Grattan Street,HJC Bar,100,144.9612468,-37.79739836,Cafe
210-222 Russell Street,Home Kitchen & Bar,80,144.9679947,-37.81132789,Cafe
70-74 Rosslyn Street,Le Taj Restaurant,50,144.9520393,-37.80775631,Cafe
143-175 Harbour Esplanade,Mill & Bakery at Central Pier,24,144.9435654,-37.8165193,Cafe
116 Lygon Street,Il Dolce Freddo,24,144.9666993,-37.80443778,Cafe
1 Star Circus,Chillipadi Mamak,20,144.9378299,-37.81315031,Cafe
840-850 Collins Street,Viet Rolls Plus,24,144.9445328,-37.82092961,Cafe
185-189 Domain Road,Ichi Ichi Ku Izakaya,22,144.9822675,-37.8343508,Cafe
821-827 Bourke Street,Coffee Gauge,68,144.9441447,-37.82029136,Cafe
391-393 Little Lonsdale Street,CJ Lunchbar ,10,144.9603411,-37.81187439,Cafe
435-443 Little Collins Street,Little Colin,20,144.9600859,-37.81638558,Cafe
140-164 Peel Street,Table By S,40,144.9566619,-37.80444772,Cafe
180 Rathdowne Street,Osc&r On Rathdowne ,6,144.9711917,-37.79514419,Cafe
255-257 Lygon Street,University Cafe,120,144.9668382,-37.79947744,Cafe
737-743 Bourke Street,The Hof Downtown,130,144.9489519,-37.81914692,Cafe
114-122 Franklin Street,Sung's Kitchen,78,144.9589367,-37.80819713,Cafe
990 La Trobe Street,Cafenatics,20,144.9467679,-37.81384049,Cafe
300-328 Grattan Street,Hudsons Coffee Melbourne Private,8,144.9559628,-37.79854141,Cafe
482-484 Bourke Street,Original Sushi,28,144.9593794,-37.8150902,Cafe
302-308 Flinders Lane,Cafe Bar Mile,18,144.9638971,-37.81719967,Cafe
242-284 Exhibition Street,Cafe Cavallino,159,144.9699756,-37.80941489,Cafe
31-35 Flinders Lane,Fonda Flinders Lane,130,144.9732924,-37.81489476,Cafe
53-57 Lonsdale Street,Bad Boys,40,144.9707149,-37.81005686,Cafe
172 Rathdowne Street,Fu Lu Chinese Cafe,20,144.9711594,-37.79532263,Cafe
11-19 Liverpool Street,Rice Paper Scissors Asian Kitchen,12,144.9713242,-37.81131159,Cafe
522-534 Collins Street,Mr Mason,75,144.9568348,-37.81767359,Cafe
10-20 Oliver Lane,Bowery to Williamsburg,29,144.9702912,-37.8161284,Cafe
163-261 Spencer Street,Le Cirque Fine Foods,98,144.951187,-37.81501701,Cafe
433 Little Collins Street,Dikstein's Corner Bar,66,144.9603413,-37.81631094,Cafe
79-85 Bourke Street,Fancy Hank's,50,144.9710404,-37.81217956,Cafe
377-391 Swanston Street,Hungry Jack's,154,144.9634198,-37.80945732,Cafe
238-244 Flinders Lane,Shuji Sushi,65,144.9659624,-37.81649503,Cafe
194-200 Bourke Street,Kaneda Japanese Restaurant,40,144.9672768,-37.8124312,Cafe
47 Errol Street,Wonky Trolley,18,144.9490476,-37.80390823,Cafe
139-141 Lygon Street,Universal Pizza,60,144.9660865,-37.80384773,Cafe
221 Little Lonsdale Street,Mad Mex,38,144.9657034,-37.810658,Cafe
221-231 Collins Street,Three Drops Espresso,6,144.9663304,-37.81584476,Cafe
161-163 Nicholson Street,Eden's Backyard,60,144.9748067,-37.79638849,Cafe
37-43 Caravel Lane,Steakhouse 66,100,144.9406594,-37.8149263,Cafe
464-468 Victoria Street,The Sensible Sandwich Cafe,45,144.9505407,-37.80500905,Cafe
181 William Street,Laurent Boulangerie Patisserie,16,144.9573923,-37.81531863,Cafe
435-443 Little Collins Street,Cafe Intimo,50,144.9600859,-37.81638558,Cafe
221 Little Lonsdale Street,Max Brenner Chocolates,56,144.9657034,-37.810658,Cafe
221 Little Lonsdale Street,Meat Fish Wine,4,144.9657034,-37.810658,Cafe
10-12 Goldie Place,Rare Steakhouse Midtown,90,144.9607769,-37.81338564,Cafe
40-66 Siddeley Street,Pud Thai Vs Pho,22,144.9525486,-37.82290352,Cafe
37-43 Caravel Lane,Bopha Devi Docklands,70,144.9406594,-37.8149263,Cafe
141-165 Collins Street,Yak Italian Kitchen & Bar,12,144.9687553,-37.81543178,Cafe
31-41 Swanston Street,Subway,33,144.9667041,-37.81674222,Cafe
176-178 Faraday Street,Market Lane Coffee,4,144.9684894,-37.79857335,Cafe
355-369 Spencer Street,Western Coffee Lounge,8,144.9503335,-37.81194572,Cafe
3-5 Star Circus,The Groove Train,120,144.9378299,-37.81315031,Cafe
95-97 Lygon Street,Black Cat on Lygon,50,144.9659498,-37.80467681,Cafe
32-54 Lonsdale Street,Roll'd Lonsdale Street,13,144.9707325,-37.8091842,Cafe
40-56 Queens Bridge Street,Mesh/Tonic Bar,16,144.9597768,-37.8238538,Cafe
2-50 Southbank Boulevard,Pellaroma Cafe Bar ,80,144.962643,-37.82221927,Cafe
158-164 Queen Street,NY Deli,65,144.9610146,-37.81453148,Cafe
559-587 Collins Street,The Pressed Lab,52,144.9557275,-37.81902044,Cafe
589-603 Bourke Street,Shuji Sushi,80,144.956182,-37.8165272,Cafe
275 King Street,Yabby House,35,144.9542621,-37.81381086,Cafe
1-5 Elizabeth Street,Pho Flinders Express,38,144.964608,-37.81805666,Cafe
106-120 Harbour Esplanade,Harbour Cafe,64,144.947217,-37.81817241,Cafe
183-265 La Trobe Street,Mad Mex,25,144.9630189,-37.81073331,Cafe
29-65 South Wharf Promenade,BangPop,36,144.9503336,-37.82409303,Cafe
171-173 Russell Street,Nam Loong Seafood Restaurant,64,144.9675898,-37.81238088,Cafe
41-55 Victoria Harbour Promenade,VinTam's Bakery,65,144.9429888,-37.81938143,Cafe
200 Batman Avenue,Delaware North Companies Australia Pty Ltd,4920,144.9803771,-37.82181585,Cafe
807-811 Bourke Street,Banoi,13,144.9450661,-37.81970478,Cafe
141-165 Collins Street,Yak Italian Kitchen & Bar,108,144.9687553,-37.81543178,Cafe
184-192 Queen Street,Kenny's Bakery Cafe,36,144.9606804,-37.81402844,Cafe
10-14 Errol Street,Sosta Cucina,60,144.9495689,-37.80483255,Cafe
161 Spring Street,The European,50,144.9724291,-37.8109513,Cafe
8 Whiteman Street,Bistro Guillaume,70,144.9586604,-37.82312164,Cafe
178-188 William Street,Berto's Bar,25,144.9580871,-37.81476776,Cafe
11-37 Exhibition Street,The French Brasserie,15,144.9717262,-37.81546152,Cafe
688 Queensberry Street,Beatrix Cafe,8,144.944463,-37.80227413,Cafe
11-37 Exhibition Street,The Lobby Cafe,33,144.9717262,-37.81546152,Cafe
219-221 Lygon Street,Papa Gino's Pizza Restaurant,40,144.9667173,-37.80018973,Cafe
156-180 Berkeley Street,Bar Commercio,115,144.9588203,-37.80155731,Cafe
221 Little Lonsdale Street,Hanaichi,54,144.9657034,-37.810658,Cafe
790-814 Collins Street,Code Black,4,144.9458305,-37.821044,Cafe
234 Little Bourke Street,Yang's Braised Chicken Rice,70,144.9658727,-37.81222127,Cafe
123-125 Lygon Street,Mercadante Pizza,30,144.9660342,-37.80408996,Cafe
1 Phillip Court,Subway,12,144.920988,-37.82600955,Cafe
218-224 Drummond Street,La Cacciatora Restaurant,80,144.9685975,-37.80116198,Cafe
430-436 Little Collins Street,Cafe Vue,42,144.9601101,-37.81596878,Cafe
320 Lygon Street,Donnini's ,70,144.9675104,-37.79953749,Cafe
2-24 Waterview Walk,Ginger Leaf Thai Restaurant ,70,144.9479753,-37.81925128,Cafe
309-325 Bourke Street,Cultured Salad,84,144.9645323,-37.81445406,Cafe
189-203 William Street,Mr Q Grab & Go,50,144.9570408,-37.8146364,Cafe
415-421 St Kilda Road,The Alley,35,144.9770428,-37.83774553,Cafe
23-99 Commercial Road,Alf's Cafe,130,144.982664,-37.84633593,Cafe
23-27 Market Lane,Shoya Melbourne,120,144.9691148,-37.81173945,Cafe
183-265 La Trobe Street,Max Brenner-Chocolate Bar,46,144.9630189,-37.81073331,Cafe
25-31 Spring Street,Kappo,30,144.9741019,-37.81454561,Cafe
807-811 Bourke Street,Cafernatics Forte,14,144.9450661,-37.81970478,Cafe
59-63 Bourke Street,Spaghetti Tree ,330,144.9715659,-37.81212537,Cafe
392-406 Bourke Street,Ohsso,15,144.9617562,-37.81416355,Cafe
422-428 Queen Street,Muleta's,50,144.9581156,-37.80861319,Cafe
199-209 Collins Street,La Vita Buona 'The Good Life' Cellar Bar Deli,34,144.9674304,-37.81584777,Cafe
20-30 Convention Centre Place,West Village NYC,40,144.9523782,-37.82539976,Cafe
267-275 Flinders Lane,Degraves Espresso,31,144.9654844,-37.81710105,Cafe
4-10 Bank Place,Treviso,16,144.9606423,-37.81669009,Cafe
68-78 Hardware Lane,Vons Restaurant & Bar,24,144.9611061,-37.8130703,Cafe
114-120 Russell Street,Sezar,100,144.9689753,-37.81350285,Cafe
111-129 Bourke Street,Burma Lane,85,144.9701092,-37.81281453,Cafe
422-428 Collins Street,Massi,50,144.9599965,-37.81679183,Cafe
83-129 Victoria Street,Market Espresso & Trolley Hire,28,144.9572395,-37.80745984,Cafe
604 Swanston Street,Norsiah's Kitchen,28,144.9643119,-37.80188571,Cafe
23-37 Star Crescent,LeCirque,40,144.9378299,-37.81315031,Cafe
364-372 Lonsdale Street,Mamak ,100,144.9614561,-37.81220274,Cafe
179-181 Domain Road,Domain Brasserie,20,144.9820364,-37.83431435,Cafe
8 Whiteman Street,Bistro Guillaume,35,144.9586604,-37.82312164,Cafe
221 Little Lonsdale Street,Red Spice QV,205,144.9657034,-37.810658,Cafe
3 Southgate Avenue,Red Emperor,100,144.9662623,-37.82066923,Cafe
700-704 Bourke Street,In a Rush,18,144.9493733,-37.81733574,Cafe
364 Lygon Street,Seasalt Fish & Sushi Bar,17,144.9676437,-37.79828024,Cafe
309-325 Bourke Street,Riva Cafe Bar,26,144.9645323,-37.81445406,Cafe
28-32 Elizabeth Street,KFC,48,144.9648816,-37.81729894,Cafe
840-850 Collins Street,Burger Edge,60,144.9445328,-37.82092961,Cafe
34-36 Block Place,Cafe Segovia,21,144.9643901,-37.81526825,Cafe
654-670 Bourke Street,Dotspot,6,144.9540371,-37.81626998,Cafe
2-24 Waterview Walk,Six Drops Coffee House,26,144.9479753,-37.81925128,Cafe
235-251 Bourke Street,Starbucks,70,144.9665978,-37.81376503,Cafe
551-555 Little Lonsdale Street,The Little Cafe,26,144.9555653,-37.81329521,Cafe
641-679 Collins Street,Espresso Hub,60,144.9530968,-37.81969578,Cafe
309-325 Bourke Street,Grasshoppers Feast,16,144.9645323,-37.81445406,Cafe
1-9 Spring Street,The Truffula Seed Cafe,36,144.9739716,-37.81505201,Cafe
3 Southgate Avenue,Damon Bradley Southgate,31,144.9662623,-37.82066923,Cafe
655-657 Spencer Street,Cafe 6six 5fifty 5five,13,144.9449051,-37.80643136,Cafe
262-276 Lorimer Street,Bonnie and Duke Cafe Port Melbourne,4,144.9050213,-37.82653298,Cafe
744-770 Bourke Street,Favoloso,31,144.947217,-37.81817241,Cafe
387 Little Bourke Street,Coffee 7,12,144.9613937,-37.81379622,Cafe
821-827 Bourke Street,Coffee Gauge,16,144.9441447,-37.82029136,Cafe
435-443 Little Collins Street,Marrakech Bar,50,144.9600859,-37.81638558,Cafe
25-45 Collins Street,No35,200,144.9726281,-37.81430616,Cafe
74 Victoria Street,J Hong Restaurant,20,144.9653525,-37.80670091,Cafe
28-32 Block Place,Olio Cucina,16,144.9644662,-37.81529155,Cafe
205-207 Russell Street,Aunty Frankles,60,144.9672984,-37.81169847,Cafe
107-127 Queens Bridge Street,Vegie Kitchen,80,144.9607407,-37.82491492,Cafe
31-41 Swanston Street,Tasty Indian Restaurant,35,144.9667041,-37.81674222,Cafe
68-70 Little Collins Street,Boney,60,144.9713311,-37.81284117,Cafe
242-244 Lygon Street,Front Cooking School,50,144.9672606,-37.80151178,Cafe
269-321 Lonsdale Street,Charlie & Co,52,144.9638386,-37.81245199,Cafe
553 St Kilda Road,Cafe Ella,70,144.9803782,-37.84685298,Cafe
131-135 Bourke Street,Heirloom ,30,144.9694638,-37.8130107,Cafe
207-361 Flinders Street,Pho Flinders,48,144.9654659,-37.81866105,Cafe
1-5 Errol Street,Oskar,20,144.9489789,-37.80488639,Cafe
733-747 Collins Street,Subway,24,144.9494345,-37.82089145,Cafe
31 Errol Street,S & J Sushi Noodle Town,24,144.9488818,-37.80430161,Cafe
27-35 Little Bourke Street,Mezzo ,90,144.97183,-37.8109435,Cafe
115-123 Hardware Street,Bowert to Williamsburg,12,144.9603936,-37.81210735,Cafe
22-26 Corrs Lane,Fukuryu Ramen,60,144.9683249,-37.8109979,Cafe
494-512 Bourke Street,Cafenatics ,80,144.9587607,-37.81494883,Cafe
747-757 Bourke Street,Dome Bakery Cafe,12,144.9479753,-37.81925128,Cafe
486-492 Bourke Street,Cafe Euro Food & Wine Bar,119,144.9591969,-37.81499761,Cafe
27-45 Whiteman Street,KFC,75,144.9583432,-37.82559096,Cafe
639 Lonsdale Street,Piccolo,3,144.9535531,-37.8153588,Cafe
522-536 Swanston Street,El Pronto,12,144.9636402,-37.80430744,Cafe
25-77 Stubbs Street,Cheeky Brothers,8,144.9358418,-37.7914562,Cafe
269-321 Lonsdale Street,Jones the Grocer,140,144.9638386,-37.81245199,Cafe
113-129 Sturt Street,Malthouse Kitchen,40,144.9669591,-37.8271278,Cafe
220 Spencer Street,Higher Ground,120,144.9535531,-37.8153588,Cafe
40-66 Siddeley Street,Bababoi,16,144.9525486,-37.82290352,Cafe
599 Elizabeth Street,Cafe Perri & Perri Cine Video and Photography,16,144.9581215,-37.80434979,Cafe
215 Victoria Street,Don Camillo Cafe Bar Restaurant,45,144.954241,-37.80592219,Cafe
89-91 City Road,Sopranos,50,144.9651132,-37.8225552,Cafe
85-87 Peel Street,Hello Jose,20,144.9555843,-37.80619737,Cafe
164-170 Flinders Street,Movida,70,144.9690862,-37.81670922,Cafe
2 Swanston Street,ACMI Cafe & Bar,120,144.9699175,-37.81784465,Cafe
124-126 Little Bourke Street,Golden Orchid Restaurant,4,144.9687601,-37.81131219,Cafe
111-129 Bourke Street,Crisp Creative Salad,12,144.9701092,-37.81281453,Cafe
23-25 Tattersalls Lane,Shanghai Dumpling Restaurant,195,144.9654386,-37.8118662,Cafe
269-321 Lonsdale Street,Din Tai Fung,200,144.9638386,-37.81245199,Cafe
228-236 Flinders Street,Ratee Thai,12,144.9665517,-37.81724878,Cafe
542-546 Little Bourke Street,SMXL,50,144.9563672,-37.81477885,Cafe
715-727 Bourke Street,Grain 717,44,144.9502584,-37.81864992,Cafe
359-373 Collins Street,Cafenatics 367,56,144.9624418,-37.81728432,Cafe
294-296 Lygon Street,Cafe Trevi,120,144.9673485,-37.80004498,Cafe
535 Little Lonsdale Street,Back Pocket Little Lonsdale,30,144.9560169,-37.8134766,Cafe
8 Whiteman Street,Lucky Chans,140,144.9586604,-37.82312164,Cafe
56-62 Leveson Street,Cafe Trutrack,20,144.9514854,-37.80284239,Cafe
474 Little Lonsdale Street,Zhan Beers,24,144.9554126,-37.81301654,Cafe
114-120 Russell Street,Postal Hall,15,144.9689753,-37.81350285,Cafe
183-265 La Trobe Street,Monkey King Bar,180,144.9630189,-37.81073331,Cafe
2-48 Harbour Esplanade,Cafe La Kiss,60,144.9484725,-37.82183078,Cafe
548-558 Little Bourke Street,Scugnizzo Ristorante ,80,144.9559421,-37.81491966,Cafe
1-9 Freshwater Place,Blossom Espresso ,8,144.962154,-37.82167834,Cafe
78-84 Bourke Street,Grossi Florentino,210,144.9708473,-37.81172969,Cafe
76 Bourke Street,Ombra,75,144.9709443,-37.81170263,Cafe
263-329 Lorimer Street,Pier 35 Bar & Grill,40,144.9052161,-37.82483593,Cafe
243-249 Swanston Street,The Lounge,64,144.9647365,-37.81230108,Cafe
221 Little Lonsdale Street,Hanaichi,24,144.9657034,-37.810658,Cafe
2-24 Waterview Walk,De Asian Flavours,24,144.9479753,-37.81925128,Cafe
163-261 Spencer Street,Degani @ Southern Cross Station,45,144.951187,-37.81501701,Cafe
207-227 City Road,Boyd Cafe,30,144.9612867,-37.82576299,Cafe
139-143 Bouverie Street,Cafe Tre Sette,24,144.9616994,-37.80322367,Cafe
76 Wellington Parade,Hard Pressed,46,144.987555,-37.81637751,Cafe
160 Spring Street,Strangers Corridor,60,144.974119,-37.81087579,Cafe
688 Queensberry Street,Beatrix Cafe,12,144.944463,-37.80227413,Cafe
494-512 Bourke Street,Prime House,30,144.9587607,-37.81494883,Cafe
93-101 Spring Street,Cafe Excello ,32,144.9731836,-37.81260039,Cafe
791-847 Collins Street,The Groove Train ,60,144.9457644,-37.82205739,Cafe
220-228 Lygon Street,Little Lygon Restaurant,26,144.9671892,-37.80191702,Cafe
706-738 Bourke Street,Hawkers Corner,28,144.9490176,-37.81792089,Cafe
407-409 Swanston Street,Joomak Korean Restaurant,60,144.9631797,-37.80895593,Cafe
226-236 Russell Street,Izakaya Chuji Japanese Restaurant,12,144.9676444,-37.81098272,Cafe
306-320 Little Lonsdale Street,Paperboy Kitchen,18,144.9602803,-37.81158232,Cafe
195-197 Russell Street,Da Hu Peking Duck Restaurant,120,144.9674041,-37.81199728,Cafe
8 Whiteman Street,Cervo ,80,144.9586604,-37.82312164,Cafe
301 Elizabeth Street,G2 Korean BBQ,74,144.9616267,-37.81161119,Cafe
310-312 Drummond Street,The Town Mouse,16,144.9691211,-37.79853797,Cafe
303 Exhibition Street,Decoy Art House Cafe,50,144.968788,-37.80884782,Cafe
385 Bourke Street,Oli & Levi,40,144.9629442,-37.81491502,Cafe
706-738 Bourke Street,Salud Espresso Bar,30,144.9490176,-37.81792089,Cafe
487-503 Collins Street,Alluvial Restaurant,110,144.9581185,-37.81853877,Cafe
34-56 Poplar Road,Poplars,10,144.9479354,-37.77810275,Cafe
58-70 Lorimer Street,Zen Izakaya,32,144.946356,-37.82488026,Cafe
124 La Trobe Street,Pearson and Murph'y Cafe,76,144.9645504,-37.80818365,Cafe
1-9 Powlett Street,Persillade,77,144.9848341,-37.81608793,Cafe
6-12 Atkin Street,Saluministi,38,144.9486384,-37.80374164,Cafe
323 Lygon Street,Milk The Cow,20,144.9671258,-37.79777439,Cafe
522-534 Collins Street,Mr Mason,125,144.9568348,-37.81767359,Cafe
744-770 Bourke Street,Kollabo,70,144.947217,-37.81817241,Cafe
109-117 Swanston Street,Chocolate Arcade,24,144.9657774,-37.81507697,Cafe
1-5 Errol Street,Oskar,25,144.9489789,-37.80488639,Cafe
381-405 Royal Parade,Primary Cafe,70,144.9586811,-37.78398214,Cafe
258 Elgin Street,Cafe Sua Da,6,144.9655339,-37.79670704,Cafe
181 William Street,Mamma Mia,14,144.9573923,-37.81531863,Cafe
335-349 Little Collins Street,Blahnik,48,144.9632938,-37.81554941,Cafe
515 Little Bourke Street,Lt Osteria,65,144.9573923,-37.81531863,Cafe
153-163 Barry Street,Baretto Cafe,15,144.9592807,-37.80023307,Cafe
299 Spring Street,Lost Angel Bar & Restaurant ,60,144.9710147,-37.80814522,Cafe
10-20 Olympic Boulevard,The Glasshouse Eatery,70,144.9823854,-37.82487806,Cafe
87-89 Flinders Lane,Terra Rossa,5,144.9713925,-37.81542975,Cafe
258-274 Collins Street,Runya's Room,48,144.9648999,-37.81536587,Cafe
49-89 Turner Street,Hall St Cafe,59,144.9253775,-37.82304058,Cafe
364-372 Lonsdale Street,Zam Zam Restaurant ,55,144.9614561,-37.81220274,Cafe
148-150 Lygon Street,Pasta Rustica Ristorante,115,144.966737,-37.80366897,Cafe
97-103 Elizabeth Street,Sacred Alley Espresso Bar,12,144.9634979,-37.81592157,Cafe
137-161 Grey Street,Zouki Cafe,68,144.9841619,-37.81229599,Cafe
52-54 Collins Street,Koko Black Chocolate,15,144.9718392,-37.81355886,Cafe
2 Convention Centre Place,Citizen Cafe,33,144.9523782,-37.82539976,Cafe
56-62 Lygon Street,Artee Cafe,42,144.9664413,-37.80566982,Cafe
199-209 Collins Street,Lobby Lounge,70,144.9674304,-37.81584777,Cafe
26-32 King Street,Gami Chicken & Beer,80,144.957466,-37.81952934,Cafe
20-30 Convention Centre Place,Common Man,59,144.9523782,-37.82539976,Cafe
121 Exhibition Street,Urban Deli SX1,98,144.9701092,-37.81281453,Cafe
269-321 Lonsdale Street,The Tea Salon,82,144.9638386,-37.81245199,Cafe
183-265 La Trobe Street,Elles Naturally,30,144.9630189,-37.81073331,Cafe
305-331 City Road,McDonald's,40,144.9578749,-37.82832676,Cafe
457-471 Bourke Street,Cafe Felice,14,144.9601886,-37.81547268,Cafe
175 Lygon Street,Chocolateria San Churro,24,144.9664856,-37.80156205,Cafe
385 Bourke Street,Black Velvet Galleria,6,144.9629442,-37.81491502,Cafe
1 Gower Street,Kensington Pizza ,42,144.9301099,-37.79467114,Cafe
425-427 Docklands Drive,Goldleaf BBQ Cuisine,93,144.9390269,-37.81517782,Cafe
8 Whiteman Street,Rosetta,63,144.9586604,-37.82312164,Cafe
706-738 Bourke Street,Sargon,23,144.9490176,-37.81792089,Cafe
394-400 Lonsdale Street,Hash Specialty Coffee And Roasters,70,144.9605306,-37.81240787,Cafe
50-56 Lorimer Street,Hooks @ The Yarra,60,144.9476471,-37.82461477,Cafe
18-22 McKillop Street,Dip In Cafe,100,144.9618186,-37.81514598,Cafe
178-190 Little Bourke Street,Juicy Bao,70,144.966942,-37.81186912,Cafe
317-321 Little Collins Street,Brown Sugar Cafe,30,144.9642254,-37.81528948,Cafe
212-224 King Street,Delhi Rocks,50,144.9553894,-37.81500707,Cafe
791-847 Collins Street,Rhumba's At Docklands,101,144.9457644,-37.82205739,Cafe
186 King Street,Kedai Satay,75,144.9556966,-37.8156735,Cafe
27-45 Whiteman Street,Mr Hive Kitchen & Bar,358,144.9583432,-37.82559096,Cafe
93-101 Spring Street,Coffee Exchange,45,144.9731836,-37.81260039,Cafe
717-731 Collins Street,Hudsons Coffee Collins Square,19,144.9500934,-37.82068699,Cafe
27-45 Whiteman Street,McDonalds,75,144.9583432,-37.82559096,Cafe
330-344 Little Lonsdale Street,Corner Lane Cafe,17,144.9596748,-37.81181165,Cafe
8 Whiteman Street,Dinner by Heston,60,144.9586604,-37.82312164,Cafe
470-472 Little Lonsdale Street,The Workers Food Room,30,144.9555039,-37.81299012,Cafe
253 Lygon Street,La Parisienne Pates,38,144.9668266,-37.79954259,Cafe
715-727 Bourke Street,Asuka Sushi,28,144.9502584,-37.81864992,Cafe
133-159 Victoria Street,Market Lane Cafe,20,144.9572395,-37.80745984,Cafe
30 Guildford Lane,Cat Cafe Melbourne,24,144.9598681,-37.81123352,Cafe
168-170 Rathdowne Street,The Olive Jar,9,144.9711498,-37.7953809,Cafe
168-174 Bourke Street,Mappen Ramen Bar,44,144.968248,-37.81251216,Cafe
737-743 Bourke Street,Nine Elephants Thai Restaurant,10,144.9489519,-37.81914692,Cafe
28-32 Block Place,Olio Cucina,88,144.9644662,-37.81529155,Cafe
522-534 Collins Street,Fourteen On 3,66,144.9568348,-37.81767359,Cafe
253 Lygon Street,La Parisienne Pates,12,144.9668266,-37.79954259,Cafe
391 St Kilda Road,@Rice Cafe & Bar,48,144.9757194,-37.83548357,Cafe
230-238 Swanston Street,Belleville,130,144.9654266,-37.8123299,Cafe
3 Southgate Avenue,Pure South Dining,20,144.9662623,-37.82066923,Cafe
320-386 Epsom Road,Zigzag Salads & Burgers,32,144.9155212,-37.78257294,Cafe
11-15 Elizabeth Street,McDonalds,130,144.9644996,-37.81782922,Cafe
523-525 Little Lonsdale Street,Drumtong,72,144.9563971,-37.81311232,Cafe
23-37 Star Crescent,Subway,6,144.9378299,-37.81315031,Cafe
303 Lygon Street,Tiamo Coffee,50,144.9670898,-37.79822136,Cafe
189-203 William Street,Tahini Lebanese Diner,126,144.9570408,-37.8146364,Cafe
103-107 Errol Street,Auction Rooms,12,144.9494609,-37.8024571,Cafe
296-310 La Trobe Street,Klik Cafe ,19,144.9604349,-37.81010387,Cafe
351-357 Collins Street,O-Bento,8,144.9627888,-37.81722704,Cafe
18-24 Market Lane,Hofbrouhaus Restaurant,150,144.9694031,-37.81175137,Cafe
16 Celestial Avenue,Heyday Hong Kong Cafe,16,144.9663726,-37.81181046,Cafe
 Peel Street,Pizza @ QV,36,144.9572395,-37.80745984,Cafe
515 Little Bourke Street,Lt Osteria,24,144.9573923,-37.81531863,Cafe
34-56 Poplar Road,Poplars,32,144.9479354,-37.77810275,Cafe
457-471 Bourke Street,Cafe Felice,40,144.9601886,-37.81547268,Cafe
439-441 Docklands Drive,James Squire,72,144.9390269,-37.81517782,Cafe
32-38 Bourke Street,Takumi Japanese Restaurant,50,144.9719781,-37.81136083,Cafe
21-27 McKillop Street,Red Spice Road,200,144.9614687,-37.8152325,Cafe
35-47 Coventry Street,Billy's Pantry,84,144.9693922,-37.82956555,Cafe
355-357 Exhibition Street,Thailicious,25,144.9681732,-37.80752222,Cafe
161-173 Domain Road,Botanical Hotel,150,144.9816996,-37.83431735,Cafe
18-20 Little La Trobe Street,Dokidoki Japanese Restaurant,41,144.9628186,-37.80912871,Cafe
252-254 Flinders Lane,Eurolane Cafe ,8,144.9655966,-37.8166033,Cafe
45 Collins Street,Tazio Birraria & Pizzeria,36,144.9726281,-37.81430616,Cafe
612-624 Collins Street,Bingo Wrap,12,144.9543505,-37.81867544,Cafe
452-470 Flinders Street,Shuji Sushi,30,144.9586012,-37.81946849,Cafe
468-478 Collins Street,Royal Stacks,105,144.9583339,-37.81753764,Cafe
221 Little Lonsdale Street,Shophouse Kitcken,80,144.9657034,-37.810658,Cafe
118-122 Bourke Street,Wagyu One,102,144.969548,-37.81207418,Cafe
818-838 Collins Street,O-Bento,78,144.9450469,-37.82100111,Cafe
64-90 Sutton Street,64 Sutton,150,144.937872,-37.7916558,Cafe
499 Macaulay Road,Grounded House A Coffee Place,14,144.9294451,-37.79458129,Cafe
319-323 Swanston Street,Simmer Huang,85,144.9640475,-37.81076317,Cafe
391 St Kilda Road,@Rice Cafe & Bar,13,144.9757194,-37.83548357,Cafe
95-97 Lygon Street,I Love Istanbul,12,144.9659498,-37.80467681,Cafe
35-37 Poplar Road,Orygen Soul Cafe,45,144.9477601,-37.78084548,Cafe
462-468 Swanston Street,The Big Mama,6,144.96333,-37.8060084,Cafe
209-213 Elizabeth Street,Captains of Industry,45,144.962548,-37.81354034,Cafe
139-143 Bouverie Street,Cafe Tre Sette,42,144.9616994,-37.80322367,Cafe
78A Wellington Parade,Geppetto Trattoria,6,144.9874273,-37.81636296,Cafe
100-116 Bourke Street,Chine On Paramount / Chine Express ,100,144.9697778,-37.81170307,Cafe
2 West Gate Freeway,KFC,40,144.918605,-37.8310487,Cafe
115-119 Collins Street,Philippe,96,144.9700073,-37.81473508,Cafe
40-50 Bourke Street,Cafe On Bourke,100,144.971689,-37.81137728,Cafe
386-392 Lonsdale Street,Zambrero,22,144.9607949,-37.81236842,Cafe
194-200 Bourke Street,Wagaya Japanese Restaurant,20,144.9672768,-37.8124312,Cafe
18 Queen Street,Bond Street Kitchen,44,144.9625773,-37.81829599,Cafe
519-539 St Kilda Road,Rosco's @ Chevron,38,144.9798191,-37.8455379,Cafe
23 Lansdowne Street,Cafe Lansdowne,33,144.9781229,-37.80904405,Cafe
466-468 Little Lonsdale Street,Silhouette's Cafe & Restaurant,22,144.955573,-37.81290439,Cafe
353-359 Little Collins Street,Fugazza,6,144.9629844,-37.81570426,Cafe
18-38 Siddeley Street,Yarra Dragon,20,144.9536422,-37.82253633,Cafe
32-54 Lonsdale Street,Urban Table Expresso,71,144.9707325,-37.8091842,Cafe
235-251 Bourke Street,Warra Warra,34,144.9665978,-37.81376503,Cafe
272-282 Lonsdale Street,Charming Spice,200,144.9639969,-37.81152964,Cafe
24-26 Southgate Avenue,Jarrah Restaurant & Bar,85,144.9671147,-37.82038777,Cafe
35-47 William Street,In a Rush,36,144.9591221,-37.81858017,Cafe
409-413 St Kilda Road,Cafe 409,52,144.9767624,-37.8373358,Cafe
183-265 La Trobe Street,TGI Fridays Restarant & Bar,330,144.9630189,-37.81073331,Cafe
228-230 King Street,Hibachi Japanese Grill ,100,144.955307,-37.81478641,Cafe
82 Wellington Parade,Little Asian House,36,144.9873074,-37.81634891,Cafe
190 Bellair Street,Karelay Patisserie,16,144.9300805,-37.79395787,Cafe
449-451 Elizabeth Street,Malaysian Laksa House,16,144.9602158,-37.80856366,Cafe
517-537 Flinders Lane,Grain Store,75,144.9566017,-37.81988484,Cafe
89-105 Collins Street,Barista 101,38,144.9707498,-37.81492031,Cafe
305 Lygon Street,Tiamo 2,20,144.9670792,-37.79817948,Cafe
253-265 Flinders Lane,Cafe Andiamo,44,144.9659028,-37.81706291,Cafe
415-421 St Kilda Road,Rolld 417 St Kilda,62,144.9770428,-37.83774553,Cafe
100 St Kilda Road,Teatro,100,144.9682264,-37.82094188,Cafe
299 Spring Street,Ways & Means Cafe,32,144.9710147,-37.80814522,Cafe
138-144 Elgin Street,Campos Coffee,12,144.96981,-37.79715068,Cafe
166 Rathdowne Street,Moretons Brasserie,38,144.9711405,-37.79543508,Cafe
196-226 Exhibition Street,Secret Kitchen,300,144.9704962,-37.81055707,Cafe
415-421 St Kilda Road,Aromatic Espresso,62,144.9770428,-37.83774553,Cafe
514-520 Swanston Street,Kitchen 520,50,144.963537,-37.80481107,Cafe
397-407 Docklands Drive,Aree Thai,50,144.9401994,-37.81427742,Cafe
65-67 Flemington Road,Mum Mum Asian Street Food,42,144.9540004,-37.79936937,Cafe
813-817 Bourke Street,Caffe Bambino,6,144.9446836,-37.81993681,Cafe
385-389 Little Lonsdale Street,Pot Lonsdale,100,144.9605406,-37.8118146,Cafe
2 West Gate Freeway,KFC,64,144.918605,-37.8310487,Cafe
326-328 Lygon Street,DOC Espresso,60,144.9674735,-37.79932164,Cafe
61-71 Agnes Street,Aggies Cafe Bar Restaurant,41,144.9799837,-37.81680765,Cafe
377-379 Little Bourke Street,Dex2rose Nitrogen Gelato,32,144.9615983,-37.81379494,Cafe
107-109 Flinders Lane,Bullrun,110,144.9708344,-37.81560645,Cafe
209-211 King Street,Salaam Namaste Dosa Hut CBD,75,144.9549266,-37.81529895,Cafe
37-41 Little Bourke Street,Kri Kri Restaurant,12,144.9715059,-37.81083595,Cafe
594 Queensberry Street,Twenty & Six Espresso,22,144.9475392,-37.80257072,Cafe
65-81 Victoria Street,Cafe Verona,8,144.9572395,-37.80745984,Cafe
559-587 Collins Street,Pho Nom,16,144.9557275,-37.81902044,Cafe
 Peel Street,Tribel Cafe,16,144.9572395,-37.80745984,Cafe
263 Lygon Street,Lygon Food Store,45,144.966868,-37.79929755,Cafe
8 Whiteman Street,Cervo ,40,144.9586604,-37.82312164,Cafe
85-161 Spencer Street,Gaslight Project,30,144.9523393,-37.81815358,Cafe
122-148 Harbour Esplanade,The Medallion Club,950,144.9475776,-37.81656591,Cafe
8 Whiteman Street,Gradi @ Crown,200,144.9586604,-37.82312164,Cafe
374-380 Lonsdale Street,Degani Bakery Cafe,6,144.9611344,-37.81200936,Cafe
20-30 Convention Centre Place,Bohemian Bar & Restaurant,85,144.9523782,-37.82539976,Cafe
235-241 Russell Street,China Bar,69,144.967037,-37.81111923,Cafe
361-365 Little Lonsdale Street,1000 Pound Bend,200,144.9612845,-37.81166967,Cafe
362-364 Spencer Street,Rej's Cafe & Kebabs,6,144.9511755,-37.81189101,Cafe
3 Southgate Avenue,Tutto Bene,35,144.9662623,-37.82066923,Cafe
231-245 Harbour Esplanade,Capri At The Quays Cafe,6,144.9429896,-37.81354363,Cafe
29-65 South Wharf Promenade,The General Assembly,134,144.9503336,-37.82409303,Cafe
32-54 Lonsdale Street,Babbo,23,144.9707325,-37.8091842,Cafe
9 Errol Street,The Hot Poppy,16,144.9489706,-37.80473152,Cafe
267-275 Flinders Lane,The Quarter,45,144.9654844,-37.81710105,Cafe
183-265 La Trobe Street,Chilli India,50,144.9630189,-37.81073331,Cafe
18-38 Siddeley Street,Degani Bakery Cafe,26,144.9536422,-37.82253633,Cafe
183-265 La Trobe Street,Theobroma Chocolate Lounge,28,144.9630189,-37.81073331,Cafe
791-847 Collins Street,Caffe Esc,28,144.9457644,-37.82205739,Cafe
79-85 Bourke Street,Nando's Bourke Street,99,144.9710404,-37.81217956,Cafe
199-209 Collins Street,Allegro Restaurant,20,144.9674304,-37.81584777,Cafe
813-817 Bourke Street,Melbourne Vietnam Noodle House,30,144.9446836,-37.81993681,Cafe
295-307 William Street,Xtraction ,80,144.9558855,-37.81244731,Cafe
221 Little Lonsdale Street,Cafenatics QV,30,144.9657034,-37.810658,Cafe
433-435 Elizabeth Street,Thai Culinary,26,144.9603439,-37.80885861,Cafe
369-379 King Street,Teh Dispensa,19,144.9532514,-37.81166257,Cafe
65-67 Flemington Road,New Lanna Thai ,4,144.9540004,-37.79936937,Cafe
3 Southgate Avenue,Red Emperor,50,144.9662623,-37.82066923,Cafe
295-297 Drummond Street,Doc Pizza & Mozarella Bar,60,144.9684438,-37.7989855,Cafe
284-294 La Trobe Street,By Korea,65,144.9608495,-37.8100143,Cafe
604 Swanston Street,Norsiah's Kitchen,12,144.9643119,-37.80188571,Cafe
335-347 Swanston Street,Nando's,64,144.9637506,-37.8103651,Cafe
2 Convention Centre Place,Citizen Cafe,40,144.9523782,-37.82539976,Cafe
578-606 Bourke Street,Sixpence Cafe,180,144.9561073,-37.81571393,Cafe
478-484 Victoria Street,Rubiras North Melbourne,40,144.9501455,-37.80496737,Cafe
111-129 Bourke Street,Nashi,33,144.9701092,-37.81281453,Cafe
715-727 Bourke Street,Cavallino Cafe,112,144.9502584,-37.81864992,Cafe
221 Little Lonsdale Street,Cafenatics QV,22,144.9657034,-37.810658,Cafe
483 Swanston Street,Sichuan Dining Room,80,144.9620907,-37.80728963,Cafe
258 Lygon Street,Nadalon Fusion,40,144.9671684,-37.80113981,Cafe
11-25 Crossley Street,Becco,16,144.9710142,-37.81143018,Cafe
220-226 Collins Street,1932 Cafe & Restaurant,20,144.9661258,-37.81528474,Cafe
11 Collins Street,Mamasita,72,144.9734622,-37.81377997,Cafe
538-542 Little Collins Street,Mr Fusion,40,144.956774,-37.81695942,Cafe
84-90 Lorimer Street,Al-Khaleej Restaurant,38,144.9435506,-37.82438863,Cafe
45 Collins Street,Little Flinders,32,144.9726281,-37.81430616,Cafe
219-221 Lygon Street,Papa Gino's Pizza Restaurant,100,144.9667173,-37.80018973,Cafe
164-166 Bourke Street,Melbourne Wok,50,144.968386,-37.81247257,Cafe
8 Whiteman Street,Emporio Pizza & Pasta,150,144.9586604,-37.82312164,Cafe
425-427 Docklands Drive,Goldleaf BBQ Cuisine,16,144.9390269,-37.81517782,Cafe
181 William Street,Laurent Boulangerie Patisserie,50,144.9573923,-37.81531863,Cafe
93-101 Spring Street,Cafe Excello ,28,144.9731836,-37.81260039,Cafe
522-536 Swanston Street,El Pronto,35,144.9636402,-37.80430744,Cafe
45 Collins Street,Little Flinders,60,144.9726281,-37.81430616,Cafe
194-200 Bourke Street,Red Silks Restaurant & Bar,65,144.9672768,-37.8124312,Cafe
63-85 Queens Bridge Street,Golden House Chinese Restaurant,96,144.9612916,-37.82386991,Cafe
185-187 Lonsdale Street,International Diethnes Cakes,20,144.9668486,-37.81118708,Cafe
122 Russell Street,Embla,50,144.9687154,-37.81342961,Cafe
519-539 St Kilda Road,Rice @ Chevron,32,144.9798191,-37.8455379,Cafe
700-704 Bourke Street,In a Rush,41,144.9493733,-37.81733574,Cafe
367-377 Royal Parade,Degani Bakery Cafe,48,144.9585626,-37.7849288,Cafe
317-321 Little Collins Street,Dinkum Pies,28,144.9642254,-37.81528948,Cafe
20-30 Convention Centre Place,Common Man,88,144.9523782,-37.82539976,Cafe
457-469 Macaulay Road,Taco Bill,48,144.9315233,-37.79484451,Cafe
58-70 Lorimer Street,Loading Dock,57,144.946356,-37.82488026,Cafe
364-366 Victoria Street,Babu Bar Burger with Balls,40,144.9541341,-37.80544377,Cafe
238 Lygon Street,Spaghettata Restaurant,130,144.9672365,-37.80162591,Cafe
78A Wellington Parade,Geppetto Trattoria,40,144.9874273,-37.81636296,Cafe
2 Swanston Street,In a Rush  ,60,144.9699175,-37.81784465,Cafe
744-770 Bourke Street,Black Cod,30,144.947217,-37.81817241,Cafe
51-53 A'Beckett Street,Darac Grill & Bar,5,144.9620743,-37.8090975,Cafe
535 Little Lonsdale Street,Gami At Healeys - Chicken & Beer,40,144.9560169,-37.8134766,Cafe
500-514 Collins Street,Henry & The Fox,100,144.9574732,-37.81753383,Cafe
197 Lonsdale Street,Tsindos Greek Restaurant,80,144.9665765,-37.81128456,Cafe
494-512 Bourke Street,The Tuck Shop ,60,144.9587607,-37.81494883,Cafe
11-37 Exhibition Street,The Fair Trader Cafe,100,144.9717262,-37.81546152,Cafe
106-120 Harbour Esplanade,Harbour Cafe,20,144.947217,-37.81817241,Cafe
1 Phillip Court,Ootoro,24,144.920988,-37.82600955,Cafe
16-26 Orr Street,Orr Street Cafe,18,144.9654007,-37.8063402,Cafe
829-843 Bourke Street,Merchant Society,25,144.9434599,-37.82044558,Cafe
505-515 Little Collins Street,In A Rush,38,144.9577989,-37.81719649,Cafe
4 Riverside Quay,Hopscotch,60,144.9633758,-37.82092509,Cafe
309-325 Bourke Street,Grasshoppers Feast,40,144.9645323,-37.81445406,Cafe
264-266 Russell Street,Dumplings on Russell,90,144.9671989,-37.81020096,Cafe
23-37 Star Crescent,LeCirque,25,144.9378299,-37.81315031,Cafe
140 Southbank Boulevard,Script Bar & Bistro,126,144.9677949,-37.82420378,Cafe
364-378 Docklands Drive,Johnie's Lounge,40,144.9419092,-37.81284814,Cafe
64-66 Hardware Lane,Grill Steak Seafood,19,144.9611673,-37.81318202,Cafe
25-35 Little Collins Street,The Crux & Co Patisseries,40,144.9727065,-37.81290511,Cafe
143-175 Harbour Esplanade,Va Bene Pizzeria,30,144.9435654,-37.8165193,Cafe
109 Elgin Street,Abla's Restaurant,75,144.9710582,-37.79776853,Cafe
221 Little Lonsdale Street,Movenpick Icecream,44,144.9657034,-37.810658,Cafe
212 Swanston Street,Fat Oma,38,144.9656117,-37.81278915,Cafe
139-141 Lygon Street,Universal Pizza,100,144.9660865,-37.80384773,Cafe
2 Swanston Street,Cafe Chinotto,40,144.9699175,-37.81784465,Cafe
550 Bourke Street,Chilangos,16,144.9573923,-37.81531863,Cafe
194-196 Flinders Street,Careers Cafe,40,144.9681433,-37.81673488,Cafe
478-484 Albert Street,Albert St Deli,53,144.9746801,-37.80907045,Cafe
178-190 Little Bourke Street,City BBQ Chinese Restaurant,60,144.966942,-37.81186912,Cafe
53-75 Pelham Street,Michelino's Trattoria,70,144.9671858,-37.80324285,Cafe
205-207 Lygon Street,Ma's Dumpling Den,16,144.9665902,-37.80049164,Cafe
731-735 Bourke Street,Degani Bakery Cafe,70,144.9498213,-37.81921015,Cafe
116-122 Hardware Street,The Hardware Societe,47,144.9607032,-37.81194755,Cafe
507-541 Flinders Street,Northbanc Cafe,50,144.9572299,-37.82088351,Cafe
183-265 La Trobe Street,Sushi Sushi,36,144.9630189,-37.81073331,Cafe
14 Lansdowne Street,Zio's Ristorante,75,144.9786966,-37.80938005,Cafe
612-624 Collins Street,Purple Peanuts Japanese Cafe,14,144.9543505,-37.81867544,Cafe
46-74 Flinders Street,The Press Club ,45,144.9727209,-37.81546181,Cafe
45-49 Bourke Street,Sempre Pizza & Calzone,60,144.9719053,-37.8119837,Cafe
108 Lygon Street,Carlton Curry House,12,144.9666993,-37.80443778,Cafe
550 Lonsdale Street,Suda,43,144.9560169,-37.8134766,Cafe
338-352 Bourke Street,Ca De Vin,140,144.9632879,-37.81360425,Cafe
218-224 Drummond Street,La Cacciatora Restaurant,26,144.9685975,-37.80116198,Cafe
210 Queensberry Street,The Queensberry Pour House,26,144.9620274,-37.80421363,Cafe
2 Swanston Street,Arintji,100,144.9699175,-37.81784465,Cafe
555 Bourke Street,Spin Coffee,40,144.9578132,-37.81636534,Cafe
1-7 Lygon Street,No1 Steam Boat,50,144.9656386,-37.80673947,Cafe
368-378 Elizabeth Street,Oriental Spoon,180,144.961747,-37.80994879,Cafe
189-191 Little Bourke Street,Westlake Restaurant,200,144.9669548,-37.812194,Cafe
494-512 Bourke Street,Cafenatics ,39,144.9587607,-37.81494883,Cafe
107-109 Flinders Lane,Bullrun,4,144.9708344,-37.81560645,Cafe
 Peel Street,Gozleme Cafe,20,144.9572395,-37.80745984,Cafe
175 Lygon Street,Chocolateria San Churro,60,144.9664856,-37.80156205,Cafe
23-37 Star Crescent,San Churro,34,144.9378299,-37.81315031,Cafe
269-283 City Road,A Treat of France,25,144.9590507,-37.82730522,Cafe
223 Victoria Street,Dolcetti,6,144.9540448,-37.80590009,Cafe
11-19 Liverpool Street,Hochi Mama Kitchen,50,144.9713242,-37.81131159,Cafe
226-236 Russell Street,Izakaya Chuji Japanese Restaurant,90,144.9676444,-37.81098272,Cafe
184-186 Bourke Street,Udon Yasan,48,144.9676888,-37.81267583,Cafe
555 Bourke Street,Brioche by Philip,29,144.9578132,-37.81636534,Cafe
207-209 Swanston Street,Sam Sam,21,144.9650387,-37.81289706,Cafe
310 Flinders Lane,Hako,65,144.9636828,-37.81726468,Cafe
515 Little Bourke Street,Bourke and Willis,40,144.9573923,-37.81531863,Cafe
170-176 William Street,Cafe Lavita On William ,25,144.9582309,-37.81492637,Cafe
163-169 Russell Street,Noodle Wizard,60,144.9676479,-37.81246709,Cafe
791-847 Collins Street,The Groove Train ,150,144.9457644,-37.82205739,Cafe
116-118 Errol Street,5 Lire,30,144.9500956,-37.802235,Cafe
401-403 Collins Street,Morgans at 401,30,144.9612229,-37.81739636,Cafe
90-98 Collins Street,Entrecote City,8,144.9702813,-37.8139675,Cafe
392-406 Bourke Street,Ohsso,15,144.9617562,-37.81416355,Cafe
32-54 Lonsdale Street,Bluebag,6,144.9707325,-37.8091842,Cafe
74 Wellington Parade,Memoria Cafe,30,144.98763,-37.81638646,Cafe
206-218 Bourke Street,Satu Produk Durian,50,144.9668768,-37.81259409,Cafe
183-265 La Trobe Street,Don Don Japanese Restaurant,95,144.9630189,-37.81073331,Cafe
368-386 Lygon Street,Brunetti Carlton,300,144.9681789,-37.79803089,Cafe
97-103 Elizabeth Street,This Side of Paradise,72,144.9634979,-37.81592157,Cafe
427-431 St Kilda Road,Slater St Bench,6,144.9771931,-37.83854242,Cafe
185-199 Queen Street,Queen Street Rescue,60,144.9599687,-37.81428585,Cafe
2-48 Harbour Esplanade,Cafe La Kiss,24,144.9484725,-37.82183078,Cafe
130-148 William Street,Cocoa Bean Cafe,80,144.9589392,-37.81595642,Cafe
469 Elizabeth Street,Sarawak Kitchen,27,144.9599695,-37.807983,Cafe
174-178 Lygon Street,Lemongrass,64,144.96678,-37.80305855,Cafe
120 Lygon Street,Lygon Charcoal Grill & Steakhouse,100,144.9666993,-37.80443778,Cafe
430-442 Collins Street,The Mug House,40,144.9597623,-37.81703239,Cafe
152-158 Bourke Street,Palsaik,120,144.9685359,-37.81206119,Cafe
52-62 Cade Way,Corner Cafe & Convenience Store,35,144.9391831,-37.77625457,Cafe
107-111 Lonsdale Street,Pomodoro Sardo,16,144.9691194,-37.81053336,Cafe
28 Freshwater Place,Boccata,60,144.9622689,-37.82266873,Cafe
101 Waterfront Way,Buddy Bakery Cafe,13,144.9375906,-37.81187395,Cafe
228-236 Flinders Street,Sushi Ten,52,144.9665517,-37.81724878,Cafe
18-22 Collins Street,Paris End Cafe,18,144.9728919,-37.81330535,Cafe
84-90 Lorimer Street,Mad Duck Cafe,27,144.9435506,-37.82438863,Cafe
202-204 Bourke Street,Flavour Town Hot Pot,96,144.967177,-37.81265943,Cafe
163-261 Spencer Street,Theobroma Chocolate Lounge ,40,144.951187,-37.81501701,Cafe
276-282 King Street,Lee's Chinese Gourmet,30,144.9548222,-37.81349786,Cafe
384-390 Little Collins Street,In a Rush Espresso,18,144.9617411,-37.81560573,Cafe
8 Whiteman Street,Kitchen Workshop,260,144.9586604,-37.82312164,Cafe
393-397 Little Bourke Street,Larder Section,12,144.9612043,-37.8138513,Cafe
407-409 Swanston Street,Druids Cafe,28,144.9631797,-37.80895593,Cafe
566-574 Queensberry Street,French Quarter Patisserie,14,144.9484758,-37.80271264,Cafe
45 Collins Street,Thr1ve,20,144.9726281,-37.81430616,Cafe
174-192 Exhibition Street,Locanda Italian Steakhouse,90,144.9706454,-37.81121462,Cafe
37 Errol Street,Char Siu House,38,144.9490851,-37.80412429,Cafe
271 Swanston Street,OPPA (Korean Kitchen),55,144.964551,-37.81190136,Cafe
706-738 Bourke Street,Tukk & Co,15,144.9490176,-37.81792089,Cafe
20-30 Convention Centre Place,Bohemian Bar & Restaurant,40,144.9523782,-37.82539976,Cafe
2-12 Parliament Place,The Commune ,47,144.9757456,-37.81162322,Cafe
46-74 Flinders Street,No 8 Exhibition Cafe,80,144.9727209,-37.81546181,Cafe
183-265 La Trobe Street,Naughty Nuri's Warung and Grill ,120,144.9630189,-37.81073331,Cafe
207-361 Flinders Street,Arbory Bar and Eatery,367,144.9654659,-37.81866105,Cafe
304-328 Swanston Street,Mr Tulk Cafe,80,144.965306,-37.80976881,Cafe
8 Whiteman Street,Man Tong Kitchen,180,144.9586604,-37.82312164,Cafe
148-150 Errol Street,Mork Chocolate,18,144.9501892,-37.80154511,Cafe
253-265 Flinders Lane,The Journal Canteen/Oskars Kitchen,60,144.9659028,-37.81706291,Cafe
507-523 Elizabeth Street,Simply Spanish,36,144.9572395,-37.80745984,Cafe
2-16 Newquay Promenade,Newquay International Buffet,130,144.9436836,-37.81389091,Cafe
156-160 Elgin Street,Nora,26,144.9693917,-37.79713752,Cafe
2-16 Newquay Promenade,Newquay International Buffet,68,144.9436836,-37.81389091,Cafe
407A St Kilda Road,McDonald's,9,144.976192,-37.83615254,Cafe
14 Bourke Street,Red Pepper Indian Restaurant,33,144.9724607,-37.81126209,Cafe
382-384 Elizabeth Street,Gloria Jeans,40,144.9614515,-37.80977165,Cafe
235-241 Russell Street,Stalactites Restaurant,144,144.967037,-37.81111923,Cafe
422-428 Collins Street,N Lee Bakery,30,144.9599965,-37.81679183,Cafe
209-227 Spring Street,Supergrind Cafe,40,144.9718354,-37.80990475,Cafe
516-526 Bourke Street,Bluestones 520 Cafe,70,144.9583865,-37.81527349,Cafe
228-236 Flinders Street,Alice Nevins,8,144.9665517,-37.81724878,Cafe
345 Victoria Street,Cafe Metsa,32,144.9499616,-37.80546579,Cafe
114-128 William Street,Tempo Bar & Cafe,60,144.9589224,-37.81630648,Cafe
744-770 Bourke Street,Kollabo,16,144.947217,-37.81817241,Cafe
138-150 Rathdowne Street,Ziyka,50,144.9710405,-37.7960463,Cafe
25-45 Collins Street,Pei Modern,40,144.9726281,-37.81430616,Cafe
269-321 Lonsdale Street,Chokolait,65,144.9638386,-37.81245199,Cafe
230 Grattan Street,Tsubu Bar,80,144.9612468,-37.79739836,Cafe
737-743 Bourke Street,11 Inch Pizza CBD,30,144.9489519,-37.81914692,Cafe
196-208 Russell Street,Crystal Jade Restaurant,200,144.9678632,-37.81158809,Cafe
159 Pelham Street,Briscola Espresso,16,144.9612607,-37.80241321,Cafe
507-523 Elizabeth Street,Cafe Victoria,24,144.9572395,-37.80745984,Cafe
559-587 Collins Street,Black Rice,30,144.9557275,-37.81902044,Cafe
457-469 Little Collins Street,Terrace Deli,120,144.95955,-37.81660734,Cafe
18-38 Siddeley Street,Byblos Bar & Restaurant,220,144.9536422,-37.82253633,Cafe
550 Little Lonsdale Street,Angliss Restaurant ,150,144.9528962,-37.81327283,Cafe
715-727 Bourke Street,Grain 717,42,144.9502584,-37.81864992,Cafe
121-127 Little Collins Street,Harry's At Stamford ,200,144.9697676,-37.8136886,Cafe
428-432 Little Bourke Street,DANSK Restaurant,45,144.9597229,-37.81392392,Cafe
24-28 Collins Street,McDonald's,60,144.9727083,-37.81342593,Cafe
133-135 Flinders Lane,Meatball & Wine Bar,53,144.9701585,-37.81573536,Cafe
818-838 Collins Street,O-Bento,26,144.9450469,-37.82100111,Cafe
818-838 Collins Street,Saman Estate Coffee,22,144.9450469,-37.82100111,Cafe
285-313 Spencer Street,Code 3,30,144.9509981,-37.81379938,Cafe
243-249 Swanston Street,Rice Paper Vietnamese Restaurant,74,144.9647365,-37.81230108,Cafe
541-557 Lonsdale Street,Bergerac,60,144.9562135,-37.81439357,Cafe
324-326 King Street,Cafe Sonex ,4,144.9542745,-37.81261513,Cafe
171 Bourke Street,Fomo Thai,100,144.9684972,-37.81296416,Cafe
368 Victoria Street,Prudence Bar,70,144.9540548,-37.80543619,Cafe
449-451 Elizabeth Street,Malaysian Laksa House,54,144.9602158,-37.80856366,Cafe
163-261 Spencer Street,Theobroma Chocolate Lounge ,46,144.951187,-37.81501701,Cafe
346-376 Queen Street,Stassi Cafe,48,144.9592377,-37.81024912,Cafe
239-293 Wellington Parade South,Mugs Alley,16,144.9759275,-37.81642072,Cafe
380-384 Little Bourke Street,French Saloon,14,144.9613283,-37.81354346,Cafe
115-117 Little Bourke Street,Gyoza Gyoza & Momo Shabu Shabu,150,144.9690101,-37.81158808,Cafe
258 Lygon Street,Nadalon Fusion,40,144.9671684,-37.80113981,Cafe
174-176 Queen Street,Nirankar Restaurant ,110,144.9607699,-37.81429326,Cafe
226-236 Russell Street,Nihonshu Shochu & Sake Bar,25,144.9676444,-37.81098272,Cafe
313-315 Swanston Street,D House Cafe,70,144.964105,-37.81088539,Cafe
189 Lygon Street,Buenos Aires Steakhouse,20,144.966488,-37.8011904,Cafe
163 Grattan Street,Animal Orchestra,48,144.9634206,-37.80059737,Cafe
341 King Street,Impresso Cafe,16,144.9535989,-37.81229604,Cafe
768-804 Swanston Street,The Longing Flavour,8,144.965164,-37.79780844,Cafe
163-261 Spencer Street,Starbucks ,53,144.951187,-37.81501701,Cafe
299-319 Queen Street,Melbourne Mahn Doo,80,144.9586601,-37.81145082,Cafe
48-50 Flemington Road,Parkville Cafe,112,144.9501914,-37.79382016,Cafe
555 La Trobe Street,Angliss Bistro,60,144.9528962,-37.81327283,Cafe
292 Lygon Street,Minzaman Lebanese Restaurant,20,144.9673338,-37.80013942,Cafe
506-516 Elizabeth Street,Wing Loong Chinese Restaurant,18,144.9601828,-37.80671508,Cafe
16-32 Rakaia Way,Bhoj On Docklands ,110,144.9412614,-37.81460533,Cafe
45 Collins Street,Great Space Cafe,65,144.9726281,-37.81430616,Cafe
128-130 Lygon Street,Da Guido,60,144.9666832,-37.80403393,Cafe
221 Little Lonsdale Street,Gloria Jeans,40,144.9657034,-37.810658,Cafe
1-27 South Wharf Promenade,The Boatbuilders Yard,336,144.9534995,-37.82437522,Cafe
219-233 Elizabeth Street,Little Ramen Bar,36,144.9622831,-37.81321386,Cafe
9-11 Swanston Street,McDonalds,180,144.9669316,-37.81723918,Cafe
519-539 St Kilda Road,Rice @ Chevron,12,144.9798191,-37.8455379,Cafe
 Alexandra Avenue,The Terrace,200,144.9803723,-37.83016988,Cafe
29-65 South Wharf Promenade,BangPop,196,144.9503336,-37.82409303,Cafe
120 Brunton Avenue,Spotless Services,3240,144.9832828,-37.81992883,Cafe
338-352 Bourke Street,Gekkazan,70,144.9632879,-37.81360425,Cafe
152-154 Lygon Street,Mawal,20,144.9667447,-37.80359309,Cafe
81 Errol Street,Snax Deli,18,144.9492871,-37.80323404,Cafe
391-393 Little Lonsdale Street,Gypsy & Pig,20,144.9603411,-37.81187439,Cafe
8-10 King Street,King Curry,70,144.9576378,-37.81992762,Cafe
207-227 City Road,Boyd Cafe,28,144.9612867,-37.82576299,Cafe
427-431 St Kilda Road,Japan Inn Gourmet Sushi,8,144.9771931,-37.83854242,Cafe
 Peel Street,Pizza @ QV,12,144.9572395,-37.80745984,Cafe
1-9 Freshwater Place,Guava Bean,35,144.962154,-37.82167834,Cafe
723-741 Swanston Street,Cafe Fillings,34,144.9634142,-37.80087264,Cafe
26-28 Market Lane,Hofbrauhaus Restaurant ,60,144.9693353,-37.81160745,Cafe
359-373 Collins Street,Klatch,26,144.9624418,-37.81728432,Cafe
221-231 Collins Street,Three Drops Espresso,25,144.9663304,-37.81584476,Cafe
320-386 Epsom Road,Zigzag Salads & Burgers,16,144.9155212,-37.78257294,Cafe
175-183 Queen Street,Oree,50,144.9599857,-37.81452036,Cafe
256 Lygon Street,Il Gusto,75,144.9671605,-37.80118693,Cafe
243-249 Swanston Street,Rice Paper Vietnamese Restaurant,24,144.9647365,-37.81230108,Cafe
221 Little Lonsdale Street,Grill'd (QV),27,144.9657034,-37.810658,Cafe
281-287 Swanston Street,Bornga,70,144.9643593,-37.81143223,Cafe
328-330 King Street,Russells Old Corner Shop Luncheon Room,20,144.9542466,-37.8125542,Cafe
130-200 St Kilda Road,Garden Restaurant,160,144.9686338,-37.82281707,Cafe
502-506 Victoria Street,Faces & Places,14,144.9495517,-37.80497299,Cafe
3 Central Boulevard,Portside Deli,8,144.9187862,-37.82221049,Cafe
121 Exhibition Street,Dumpling King,24,144.9701092,-37.81281453,Cafe
391-393 Little Lonsdale Street,CJ Lunchbar ,36,144.9603411,-37.81187439,Cafe
355-357 Exhibition Street,Thailicious,12,144.9681732,-37.80752222,Cafe
123-125 Lygon Street,Mercadante Pizza,45,144.9660342,-37.80408996,Cafe
28 Corrs Lane,Yamato Japanese Restaurant,28,144.9681529,-37.81081665,Cafe
200-222 Queen Street,In A Rush,26,144.9604697,-37.81352285,Cafe
318-322 Little Collins Street,Chokolait,30,144.9640121,-37.81488174,Cafe
68-78 Hardware Lane,Grill Steak Seafood,32,144.9611061,-37.8130703,Cafe
183-265 La Trobe Street,Nando's Melbourne Central,122,144.9630189,-37.81073331,Cafe
612-624 Collins Street,Chick-In,32,144.9543505,-37.81867544,Cafe
430-442 Collins Street,Sunny Boy Cafe,16,144.9597623,-37.81703239,Cafe
8 Collins Street,Market Lane Coffee,10,144.9732575,-37.81314231,Cafe
2-14 Exploration Lane,Laksa Bar,60,144.9684463,-37.80913993,Cafe
644-658 Swanston Street,Black Ball,25,144.9642823,-37.80131908,Cafe
184-192 Queen Street,Kenny's Bakery Cafe,6,144.9606804,-37.81402844,Cafe
126-158 Clarendon Street,GG Restaurant & Bar,250,144.9841619,-37.81229599,Cafe
205-207 Russell Street,Sweetie And Moustache Dessert Lounge,80,144.9672984,-37.81169847,Cafe
376-390 Collins Street,The Groove Train,140,144.9617186,-37.81629382,Cafe
432-446 Docklands Drive,Degani Bakery Cafe,36,144.9378299,-37.81315031,Cafe
788-812 Bourke Street,Tataki Noodles & Dumplings,64,144.9451224,-37.81888389,Cafe
169 Lygon Street,Stuzzichino,48,144.9664569,-37.80171819,Cafe
29-55 College Crescent,Sage & Grace Cafe,6,144.9605953,-37.79301958,Cafe
520 Macaulay Road,Frying Colours,38,144.9287638,-37.79405714,Cafe
106-120 Collins Street,Elements Catering (Kiosk),50,144.9693797,-37.81398457,Cafe
200 Batman Avenue,Delaware North Companies Australia Pty Ltd,50,144.9803771,-37.82181585,Cafe
121 Lygon Street,Grilla House,36,144.9660241,-37.80415049,Cafe
221 Little Lonsdale Street,Squisito Bar,46,144.9657034,-37.810658,Cafe
20-26 Coromandel Place,Oli Levi,2,144.9692543,-37.81302823,Cafe
20-22 Kavanagh Street,Ten Years,14,144.9658273,-37.82280752,Cafe
217-219 King Street,Sud,45,144.9548584,-37.81514931,Cafe
106-114 Berkeley Street,Seven Seeds ,10,144.9591271,-37.8028778,Cafe
8 Whiteman Street,Tia To Vietnamese Restaurant,75,144.9586604,-37.82312164,Cafe
29-65 South Wharf Promenade,Akachochin,63,144.9503336,-37.82409303,Cafe
161-169 Elgin Street,Cafe Lua,24,144.969295,-37.79757961,Cafe
157 Pelham Street,Briscola,16,144.9613352,-37.80242146,Cafe
459 Collins Street,Club Sandwich on Collins,64,144.9589237,-37.81817724,Cafe
20-30 Convention Centre Place,Signature Pho Viet,44,144.9523782,-37.82539976,Cafe
13-15 Errol Street,Toast Kitchen Cafe,24,144.9490423,-37.80463699,Cafe
816-828 Bourke Street,Squires Loft Dockland,102,144.943969,-37.81927362,Cafe
3 Southgate Avenue,The Deck,20,144.9662623,-37.82066923,Cafe
7-19 Alfred Place,Fratelli Fresh,100,144.9699104,-37.81401267,Cafe
27-29 Swanston Street,KFC,77,144.9667724,-37.81688806,Cafe
258-274 Collins Street,Burger Project St. Collins Lane,80,144.9648999,-37.81536587,Cafe
8 Whiteman Street,The Merrywell,64,144.9586604,-37.82312164,Cafe
744-770 Bourke Street,Origami Sushi & Noodles ,4,144.947217,-37.81817241,Cafe
47-55 Little Bourke Street,Bamboo House,120,144.9711092,-37.81101377,Cafe
747-757 Bourke Street,Booji Cafe,18,144.9479753,-37.81925128,Cafe
517-537 Flinders Lane,Grain Store,24,144.9566017,-37.81988484,Cafe
122-148 Harbour Esplanade,Arena View Restaurant And Cafe,2640,144.9475776,-37.81656591,Cafe
163-261 Spencer Street,Pie Face,40,144.951187,-37.81501701,Cafe
320-386 Epsom Road,Saj Mediterranean Grill,40,144.9155212,-37.78257294,Cafe
19 McKillop Street,Guhng ,132,144.961621,-37.81534187,Cafe
269-283 City Road,A Treat of France,12,144.9590507,-37.82730522,Cafe
235-241 Russell Street,Stalactites Restaurant,24,144.967037,-37.81111923,Cafe
3 Southgate Avenue,Bluetrain,80,144.9662623,-37.82066923,Cafe
3-5 Star Circus,The Groove Train,60,144.9378299,-37.81315031,Cafe
744-770 Bourke Street,Espresso Alto ,6,144.947217,-37.81817241,Cafe
43 Little Bourke Street,Punch Lane Wine Bar/Restaurant,45,144.971363,-37.81092017,Cafe
352-362 Lonsdale Street,Moo Moo Pho,88,144.9617626,-37.81212877,Cafe
832-834 Swanston Street,Bento King,30,144.9648999,-37.79668021,Cafe
49-89 Turner Street,Cafe Port IT ,28,144.9253775,-37.82304058,Cafe
131-141 Harbour Esplanade,Hortus x Seven Seeds,20,144.9452948,-37.81711584,Cafe
2-24 Waterview Walk,Supermax Eatery,50,144.9479753,-37.81925128,Cafe
384-390 Little Collins Street,In a Rush Espresso,60,144.9617411,-37.81560573,Cafe
3 Southgate Avenue,Miyako Japanese Cuisine & Teppanyaki,90,144.9662623,-37.82066923,Cafe
201-207 Elizabeth Street,Schnitz,16,144.9626049,-37.81366344,Cafe
133-159 Victoria Street,Josies Food Bar,48,144.9572395,-37.80745984,Cafe
20-30 Convention Centre Place,Gasolina,24,144.9523782,-37.82539976,Cafe
248-254 City Road,Cafe Bella,48,144.959683,-37.82566196,Cafe
221 Little Lonsdale Street,Shophouse Kitcken,75,144.9657034,-37.810658,Cafe
392-406 Bourke Street,McDonald's Bourke St West,120,144.9617562,-37.81416355,Cafe
1-9 Southbank Boulevard,Left Bank Melbourne,100,144.9628914,-37.8210403,Cafe
189-195 Exhibition Street,Golden Delicious,130,144.9699123,-37.81128986,Cafe
27-29 Crossley Street,Gingerboy,100,144.9709314,-37.81125144,Cafe
40-66 Siddeley Street,Pud Thai Vs Pho,32,144.9525486,-37.82290352,Cafe
267-275 Flinders Lane,Degraves Espresso,35,144.9654844,-37.81710105,Cafe
494-512 Bourke Street,Rosa's Canteen,60,144.9587607,-37.81494883,Cafe
132-136 Lygon Street,La Spaghetteria Ristorante,180,144.966693,-37.80395783,Cafe
294-296 Lygon Street,Cafe Trevi,36,144.9673485,-37.80004498,Cafe
220 Spencer Street,Higher Ground,25,144.9535531,-37.8153588,Cafe
469 Elizabeth Street,Sarawak Kitchen,60,144.9599695,-37.807983,Cafe
3 Southgate Avenue,Code Black,65,144.9662623,-37.82066923,Cafe
339 King Street,Komegashi,25,144.9536295,-37.81236188,Cafe
1-9 Powlett Street,Laurent - Boulangerie Patisserie,51,144.9848341,-37.81608793,Cafe
246-260 Bourke Street,Mister Close,64,144.9658365,-37.81296443,Cafe
18-40 Queensberry Street,Coffee on Drummond,24,144.9682868,-37.80482036,Cafe
169-173 Rankins Road,Luncheonette Cafe ,8,144.9311131,-37.79436218,Cafe
490 Flinders Street,Kasskass,40,144.9579912,-37.81995155,Cafe
56 Rosslyn Street,Rosslyn Pizzeria,8,144.9524041,-37.80751845,Cafe
325-331 Flinders Lane,Toby's Estate Coffee,30,144.963491,-37.81775826,Cafe
566-574 Queensberry Street,French Quarter Patisserie,24,144.9484758,-37.80271264,Cafe
199-209 Collins Street,Caboose Canteen,44,144.9674304,-37.81584777,Cafe
1 Phillip Court,Ootoro,23,144.920988,-37.82600955,Cafe
265-267 Swanston Street,Nelayan,62,144.9646021,-37.81201046,Cafe
93-101 Spring Street,Mamma's Boy,10,144.9731836,-37.81260039,Cafe
3 Southgate Avenue,Hophaus,120,144.9662623,-37.82066923,Cafe
415-421 St Kilda Road,Tokyo Sushi Kitchen,10,144.9770428,-37.83774553,Cafe
100 Dorcas Street,Arkibar Cucina,86,144.9662961,-37.83070462,Cafe
788-812 Bourke Street,Black Cod,80,144.9451224,-37.81888389,Cafe
399-413 Lonsdale Street,Claypots Barbarossa,12,144.9606809,-37.81303978,Cafe
48-50 Flemington Road,Sandrock,42,144.9501914,-37.79382016,Cafe
181 William Street,Nashi,22,144.9573923,-37.81531863,Cafe
95-97 Lygon Street,I Love Istanbul,42,144.9659498,-37.80467681,Cafe
350-352 Drummond Street,Markov,20,144.9692712,-37.79771074,Cafe
394-400 Little Bourke Street,Nando's,100,144.9609004,-37.81365679,Cafe
1 Star Circus,Nando's,50,144.9378299,-37.81315031,Cafe
790-814 Collins Street,Street Kitchen Co,57,144.9458305,-37.821044,Cafe
225-229 Victoria Street,Common Ground Coffee,12,144.9539596,-37.80587196,Cafe
3 Southgate Avenue,The Deck,30,144.9662623,-37.82066923,Cafe
121 Exhibition Street,Mabrown Curry House,10,144.9701092,-37.81281453,Cafe
249-263 Faraday Street,Wild Timor Coffee Carlton Pty Ltd,24,144.9652584,-37.7987209,Cafe
264 Wellington Parade,KereKere Green,50,144.9804557,-37.81296163,Cafe
193 Flemington Road,Refs Cafe,8,144.9484238,-37.79508314,Cafe
2 Swanston Street,Taxi Kitchen,220,144.9699175,-37.81784465,Cafe
743-751 Swanston Street,China Style ,40,144.9636423,-37.8006201,Cafe
304-306 Little Collins Street,Cafe Insieme,16,144.9643486,-37.81473293,Cafe
123-129 Howard Street,Ample Cafe Bar,12,144.9536961,-37.80409478,Cafe
36-58 Macaulay Road,Platinum Cafe,35,144.9430243,-37.7985945,Cafe
136-154 Victoria Street,T-Square Club Cafe,38,144.9625116,-37.80619487,Cafe
478 Drummond Street,Fatayer Cafe,30,144.9690954,-37.79465838,Cafe
562-574 Bourke Street,The Common,106,144.9567557,-37.81550891,Cafe
480 Bourke Street,CBD Bakery,10,144.9594641,-37.81506553,Cafe
2-50 Southbank Boulevard,Pellaroma Cafe Bar ,28,144.962643,-37.82221927,Cafe
133-139 City Road,Dee Casa,60,144.9635826,-37.82348388,Cafe
232 Lygon Street,Ghans House,18,144.9672175,-37.80175883,Cafe
206-218 Bourke Street,China Chilli,180,144.9668768,-37.81259409,Cafe
432-446 Docklands Drive,Sakura Sushi Bar,56,144.9378299,-37.81315031,Cafe
427-457 Swanston Street,Roll'D RMIT,39,144.9626932,-37.80826292,Cafe
177-183 Lygon Street,Cafe Cavallino,48,144.9664967,-37.80144374,Cafe
477-479 St Kilda Road,The Deck Cafe On St Kilda Road,32,144.978556,-37.8418809,Cafe
299-307 Bourke Street,Sensory Lab,8,144.9648958,-37.81436987,Cafe
381-405 Royal Parade,Primary Cafe,24,144.9586811,-37.78398214,Cafe
32-54 Lonsdale Street,Olivino @ Urban Workshop ,48,144.9707325,-37.8091842,Cafe
54-58 Hardware Lane,Max Bar & Restaurant,108,144.9612623,-37.81339488,Cafe
1-9 Freshwater Place,Cowboy Cafe,6,144.962154,-37.82167834,Cafe
275 Lygon Street,Salonica Gyros Bar,20,144.9669104,-37.79905377,Cafe
788-812 Bourke Street,Tataki Noodles & Dumplings,25,144.9451224,-37.81888389,Cafe
31 Sturt Street,Blondie Bar,40,144.9677949,-37.82420378,Cafe
63 Errol Street,Agraba,38,144.9492052,-37.803603,Cafe
6-12 Atkin Street,Saluministi,8,144.9486384,-37.80374164,Cafe
305-307 Exhibition Street,B & B' Guette Cafe,38,144.9687626,-37.80879339,Cafe
163-261 Spencer Street,Schnitz,50,144.951187,-37.81501701,Cafe
8 Whiteman Street,Long Chim,100,144.9586604,-37.82312164,Cafe
175-181 A'Beckett Street,ABC Cafe,60,144.958212,-37.81022045,Cafe
252-254 Flinders Lane,Aix Cafe Creperie Salon,13,144.9655966,-37.8166033,Cafe
3 Southgate Avenue,Hophaus,140,144.9662623,-37.82066923,Cafe
177 Russell Street,Crazy Wing,40,144.9675488,-37.81229698,Cafe
535 Bourke Street,Sake Jr,32,144.9578132,-37.81636534,Cafe
174 Bellair Street,Sori Cafe,12,144.9299293,-37.79360999,Cafe
25-45 Collins Street,Pei Modern,80,144.9726281,-37.81430616,Cafe
500-514 Collins Street,Kantina Kartel,100,144.9574732,-37.81753383,Cafe
185-199 Queen Street,Queen Street Rescue,33,144.9599687,-37.81428585,Cafe
258-264 Little Bourke Street,8 Bit,35,144.9648395,-37.8125239,Cafe
13A Victoria Street,Han Guuk Guan Korean Restaurant,124,144.9679821,-37.8075865,Cafe
29-65 South Wharf Promenade,Charlie Lovett,40,144.9503336,-37.82409303,Cafe
1-9 Southbank Boulevard,Breslin Bar And Grill,100,144.9628914,-37.8210403,Cafe
12-16 Kavanagh Street,Saporito Cafe Bar & Grill,12,144.9662582,-37.82261378,Cafe
2 St Andrews Place,Macchiato,60,144.9773405,-37.81154319,Cafe
535 Bourke Street,Etto St James,47,144.9578132,-37.81636534,Cafe
302-308 Flinders Lane,Northeast China Family,124,144.9638971,-37.81719967,Cafe
221-231 Queen Street,Speck Cafe,20,144.9597543,-37.81355361,Cafe
452-470 Flinders Street,Laneway Cafe,32,144.9586012,-37.81946849,Cafe
8 Whiteman Street,Rosetta,88,144.9586604,-37.82312164,Cafe
229 Russell Street,Bamboo Village BBQ,30,144.967115,-37.81129519,Cafe
60 Hardware Lane,Il Nostro Posto,21,144.961215,-37.81328955,Cafe
302-304 Little Lonsdale Street,Cafe Giraffe,50,144.960506,-37.81151662,Cafe
134-142 Swanston Street,L'Incontro,100,144.9662921,-37.81430553,Cafe
261-263 Queensberry Street,QB's Cafe,12,144.9599256,-37.80440558,Cafe
221 Little Lonsdale Street,Squisito Bar,16,144.9657034,-37.810658,Cafe
1-19 Princes Walk,Pilgrim,40,144.9689349,-37.81865919,Cafe
60 Olympic Boulevard,Edwin's Cafe,24,144.9823854,-37.82487806,Cafe
385 Bourke Street,Oli & Levi,15,144.9629442,-37.81491502,Cafe
28 Wills Street,Little Chef,36,144.9571621,-37.81071591,Cafe
1-19 Princes Walk,Riverland Bar,35,144.9689349,-37.81865919,Cafe
306-320 Little Lonsdale Street,Dare 1,52,144.9602803,-37.81158232,Cafe
10 Brens Drive,State Netball & Hockey Centre Cafe,16,144.947632,-37.78541878,Cafe
669-675 Bourke Street,Kinfolk Cafe,8,144.9541004,-37.81721781,Cafe
330-344 Little Lonsdale Street,Don Too,50,144.9596748,-37.81181165,Cafe
18-22 Flemington Road,Isabella ,36,144.9550404,-37.79885182,Cafe
1-9 Freshwater Place,Crintis Southbank,380,144.962154,-37.82167834,Cafe
65W Toorak Road,Fawkner Park Tennis Centre,12,144.9800012,-37.83804253,Cafe
351-357 Collins Street,Henrietta's Chicken Shop,61,144.9627888,-37.81722704,Cafe
559-587 Collins Street,Pho Nom,28,144.9557275,-37.81902044,Cafe
194-196 Faraday Street,Yo-Chi,40,144.9680207,-37.79844782,Cafe
1 Star Circus,Chillipadi Mamak,50,144.9378299,-37.81315031,Cafe
524 Macaulay Road,Mr Griffiths Alibis and Libations,30,144.9286331,-37.79404162,Cafe
75-77 Flinders Lane,Cafe Shots Espresso Bar,18,144.9722399,-37.81514512,Cafe
225-237 King Street,Taketori Fusion Japanese,60,144.9547419,-37.81488684,Cafe
69-71 Errol Street,Errol's Cafe,30,144.9490835,-37.80345572,Cafe
230 Grattan Street,The Potter Espresso Bar,42,144.9612468,-37.79739836,Cafe
100 Dorcas Street,Arkibar Cucina,60,144.9662961,-37.83070462,Cafe
147-149 Bourke Street,Gyoza Douraku,80,144.9689721,-37.81280567,Cafe
733-747 Collins Street,De Mad Hatter,93,144.9494345,-37.82089145,Cafe
401-405 Little Bourke Street,The Apartment Restaurant Club Lounge,100,144.9610348,-37.81403196,Cafe
487-497 Flinders Lane,B3 Cafe,28,144.957712,-37.81937993,Cafe
380-384 Little Bourke Street,Kirk's Wine Bar,28,144.9613283,-37.81354346,Cafe
221 Little Lonsdale Street,Papparich,40,144.9657034,-37.810658,Cafe
179 Russell Street,Ta-Ta House,80,144.9675307,-37.81225906,Cafe
435-437 St Kilda Road,Cafe Promenade,60,144.9775355,-37.83909862,Cafe
287-293 Exhibition Street,Vanilla Bean,80,144.9688949,-37.80907468,Cafe
106-116 A'Beckett Street,I Love Dumplings,80,144.9599969,-37.80914342,Cafe
283-297 Bourke Street,The Pancake Parlour,250,144.9652357,-37.8142367,Cafe
273-279 Little Collins Street,San Paolo Solarino,45,144.9653693,-37.81490375,Cafe
350 Lygon Street,Grill'd Healthy Burgers,56,144.9675264,-37.79887015,Cafe
346-376 Queen Street,Stassi Cafe,4,144.9592377,-37.81024912,Cafe
377-379 Little Collins Street,Nori Nori,6,144.9624392,-37.81585501,Cafe
4-10 Bank Place,Treviso,85,144.9606423,-37.81669009,Cafe
40-66 Siddeley Street,Sea on Quay,20,144.9525486,-37.82290352,Cafe
116 Lygon Street,Il Dolce Freddo,22,144.9666993,-37.80443778,Cafe
32-54 Lonsdale Street,Shuji Sushi,14,144.9707325,-37.8091842,Cafe
233-237 Lonsdale Street,Touche Hombre,20,144.9655481,-37.81158031,Cafe
6-8 Nicholson Street,Cafe Ecco,200,144.973619,-37.80849653,Cafe
737-743 Bourke Street,The Hof Downtown,96,144.9489519,-37.81914692,Cafe
458-468 Lonsdale Street,The Firm Espresso Bar,48,144.9583529,-37.8130525,Cafe
362 Lygon Street,Sea Saltfish & Sushi Bar,43,144.9676347,-37.79832944,Cafe
211-229 Sturt Street,Downstaris Bistro & Lounge ,26,144.9661569,-37.82967464,Cafe
439-445 St Kilda Road,Commodity Cafe ,80,144.977677,-37.83949217,Cafe
505-535 Collins Street,Vue De Monde,30,144.957551,-37.8186626,Cafe
641-679 Collins Street,Espresso Hub,32,144.9530968,-37.81969578,Cafe
84-90 Lorimer Street,Mad Duck Cafe,35,144.9435506,-37.82438863,Cafe
509-515 St Kilda Road,In a Rush,30,144.9793624,-37.8441033,Cafe
304-328 Swanston Street,The Moat Bar & Cafe,50,144.965306,-37.80976881,Cafe
170-176 William Street,Cafe Lavita On William ,60,144.9582309,-37.81492637,Cafe
111-129 Bourke Street,Crisp Creative Salad,24,144.9701092,-37.81281453,Cafe
6-8 Anderson Street,Roller Door Cafe,24,144.9421307,-37.80592001,Cafe
120 Lygon Street,Lygon Charcoal Grill & Steakhouse,29,144.9666993,-37.80443778,Cafe
66 Bourke Street,Pellegrinis Espresso Bar,45,144.9711634,-37.81165009,Cafe
134-142 Swanston Street,L'Incontro,20,144.9662921,-37.81430553,Cafe
32-54 Lonsdale Street,Babbo,42,144.9707325,-37.8091842,Cafe
3-5 Star Circus,The Coffee Club Waterfront City,50,144.9378299,-37.81315031,Cafe
18-38 Siddeley Street,Jamps Cafe,57,144.9536422,-37.82253633,Cafe
27-45 Whiteman Street,Schnitz,65,144.9583432,-37.82559096,Cafe
171-173 King Street,Shanghai Master Dumpling,50,144.95526,-37.81608475,Cafe
528-538 Lonsdale Street,Lua Bakery,22,144.9564217,-37.81365662,Cafe
452-470 Flinders Street,Laneway Cafe,72,144.9586012,-37.81946849,Cafe
153-163 Barry Street,Baretto Cafe,120,144.9592807,-37.80023307,Cafe
57-67 Little Collins Street,Rare Steakhouse,110,144.9716953,-37.81309819,Cafe
85-161 Spencer Street,Southern Asian Cuisine,43,144.9523393,-37.81815358,Cafe
816 Lorimer Street,Bolte Cafe,24,144.9309535,-37.82210926,Cafe
4 Riverside Quay,Soho Restaurant & Bar,60,144.9633758,-37.82092509,Cafe
399-413 Lonsdale Street,A25,26,144.9606809,-37.81303978,Cafe
148 Swanston Street,Sushi Sushi,10,144.9662156,-37.8141284,Cafe
173-175 Bourke Street,Taco Bill Mexican Restaurant,50,144.9684168,-37.81298798,Cafe
17-19 Elizabeth Street,Snack Delight,36,144.9644466,-37.81771534,Cafe
76-84 Collins Street,Mediterranean Deli,34,144.9707087,-37.81358646,Cafe
109-117 Swanston Street,30ml Coffee,16,144.9657774,-37.81507697,Cafe
185-187 Lygon Street,Cafe Cavallino,68,144.9664496,-37.80128848,Cafe
587-589 Elizabeth Street,BBQ Brothers 10,76,144.9581233,-37.80460732,Cafe
3-5 Star Circus,Healthy Habits,10,144.9378299,-37.81315031,Cafe
175-177 Domain Road,Bacash,16,144.9819451,-37.83430009,Cafe
1-9 Freshwater Place,Cowboy Cafe,8,144.962154,-37.82167834,Cafe
462-468 Swanston Street,The Big Mama,48,144.96333,-37.8060084,Cafe
300-316 Flinders Street,#Coffee,80,144.964041,-37.81805379,Cafe
11-19 Liverpool Street,Hochi Mama Kitchen,12,144.9713242,-37.81131159,Cafe
188 Bellair Street,Fruits of Passion,28,144.9299933,-37.79392952,Cafe
300-328 Grattan Street,Hudsons Coffee Melbourne Private,20,144.9559628,-37.79854141,Cafe
27-35 Little Bourke Street,Mezzo ,16,144.97183,-37.8109435,Cafe
519-539 St Kilda Road,Shuji Sushi,25,144.9798191,-37.8455379,Cafe
430-436 Little Collins Street,Bistro Vue,110,144.9601101,-37.81596878,Cafe
41-43 Exhibition Street,Blue Bag,10,144.9715746,-37.81501535,Cafe
104-112 Flinders Street,Pastuso,170,144.9711544,-37.81600001,Cafe
201-203 Faraday Street,Shakahari Vegetarian Restaurant,20,144.967803,-37.79900338,Cafe
230 Grattan Street,Lab 39,32,144.9612468,-37.79739836,Cafe
221-231 Queen Street,French Fix,4,144.9597543,-37.81355361,Cafe
174-184 City Road,Rumour Restaurant Bar & Lounge,20,144.9618918,-37.82382188,Cafe
189 Elgin Street,Ultimate Coffee Bar,12,144.9682099,-37.79746832,Cafe
3-5 Star Circus,The Coffee Club Waterfront City,100,144.9378299,-37.81315031,Cafe
500-514 Collins Street,Henry & The Fox,181,144.9574732,-37.81753383,Cafe
237 Swanston Street,Tina's Noodle Kitchen,80,144.9648043,-37.81244693,Cafe
161 Spring Street,The European,18,144.9724291,-37.8109513,Cafe
185-187 Lonsdale Street,International Diethnes Cakes,73,144.9668486,-37.81118708,Cafe
150 Lonsdale Street,The J Walk Cafe,70,144.967574,-37.81012652,Cafe
313-329 Exhibition Street,Shuji Sushi,56,144.9684259,-37.80864972,Cafe
233-237 Lonsdale Street,Touche Hombre,80,144.9655481,-37.81158031,Cafe
276-282 King Street,Dosirock,40,144.9548222,-37.81349786,Cafe
109-117 Swanston Street,Om Vegetarian,18,144.9657774,-37.81507697,Cafe
28-32 Elizabeth Street,Om Vegetarian,52,144.9648816,-37.81729894,Cafe
299-319 Queen Street,Melbourne Mahn Doo,30,144.9586601,-37.81145082,Cafe
97-103 Elizabeth Street,Sacred Alley Espresso Bar,45,144.9634979,-37.81592157,Cafe
194-200 Bourke Street,Sichuan Dining Room,72,144.9672768,-37.8124312,Cafe
106 Lygon Street,Saigon Pho Carlton,10,144.9666993,-37.80443778,Cafe
105 Little Bourke Street,Dessert Kitchen,50,144.9693399,-37.81146308,Cafe
89-105 Collins Street,Laissez-Faire,26,144.9707498,-37.81492031,Cafe
167 Lygon Street,Kokoblack,60,144.966446,-37.80178513,Cafe
162 Albert Street,Grocery Bar East Melbourne,34,144.9856254,-37.81004657,Cafe
166-170 Lonsdale Street,Melina on the Rooftop,100,144.9673697,-37.8105674,Cafe
306-308 Lygon Street,Dimattina's Restaurant Bar,36,144.9674164,-37.79978612,Cafe
100-102 Flinders Street,A Hereford Beefstouw,125,144.9713707,-37.81593915,Cafe
303 Lygon Street,Tiamo Coffee,20,144.9670898,-37.79822136,Cafe
92-106 Victoria Parade,East Side Story Bar + Cafe,58,144.9748871,-37.80862592,Cafe
349-351 Victoria Street,Katmandu Cottage,8,144.9497885,-37.80539346,Cafe
194-208 Victoria Street,Brother Dough,71,144.9606673,-37.80607064,Cafe
196-198 Pelham Street,Keiser Cafe,24,144.9592355,-37.80185711,Cafe
790-814 Collins Street,A25,12,144.9458305,-37.821044,Cafe
235-251 Bourke Street,Oh Deer,44,144.9665978,-37.81376503,Cafe
349-351 Flinders Lane,Bluestone Restaurant / Bluestone Downstairs,140,144.9628549,-37.81789895,Cafe
16-32 Rakaia Way,Renzo's Bar Cafe Italiano,90,144.9412614,-37.81460533,Cafe
3 Southgate Avenue,Lindt Chocolate Cafe,38,144.9662623,-37.82066923,Cafe
737-743 Bourke Street,Nine Elephants Thai Restaurant,38,144.9489519,-37.81914692,Cafe
2-24 Waterview Walk,Six Drops Coffee House,28,144.9479753,-37.81925128,Cafe
263-329 Lorimer Street,Pier 35 Bar & Grill,90,144.9052161,-37.82483593,Cafe
53 Royal Parade,Cafe Royale,18,144.9575513,-37.79539648,Cafe
215 Queen Street,Michelangelo,12,144.9598741,-37.81379647,Cafe
121-131 Collins Street,Collins Kitchen,360,144.9698467,-37.81516811,Cafe
407B-407D St Kilda Road,Cafe Rosco,88,144.9762096,-37.836275,Cafe
1 Riverside Quay,The Bond Store Cafe,14,144.9638744,-37.82193589,Cafe
229 Exhibition Street,Dumpling To Go,45,144.9695404,-37.81058325,Cafe
121 Exhibition Street,Mad Mex,20,144.9701092,-37.81281453,Cafe
201-203 Bourke Street,KFC,50,144.9675263,-37.81323955,Cafe
122 Russell Street,Embla,8,144.9687154,-37.81342961,Cafe
506-516 Elizabeth Street,Wing Loong Chinese Restaurant,60,144.9601828,-37.80671508,Cafe
452-456 Lonsdale Street,Piccolo Me,80,144.9586138,-37.81298088,Cafe
607-621 Swanston Street,Wonder Kafe,25,144.9629688,-37.80403829,Cafe
318-322 Little Collins Street,Chokolait,25,144.9640121,-37.81488174,Cafe
168-174 Bourke Street,Nando's Russell Street,72,144.968248,-37.81251216,Cafe
45 Collins Street,Laurent,54,144.9726281,-37.81430616,Cafe
53-57 Lonsdale Street,Kenny's Bakery Cafe,36,144.9707149,-37.81005686,Cafe
11-41 Melrose Street,Cafe Innov-8,18,144.9414027,-37.79501722,Cafe
131-133 Domain Road,Entrecote - Paris Steakhouse & Winebar,120,144.9804913,-37.83412547,Cafe
267-275 Flinders Lane,Xpressomondo,18,144.9654844,-37.81710105,Cafe
25-45 Collins Street,The Atrium on 35,150,144.9726281,-37.81430616,Cafe
6-8 Dorcas Street,Nashi ,33,144.9702153,-37.82981139,Cafe
330-344 Little Lonsdale Street,Corner Lane Cafe,50,144.9596748,-37.81181165,Cafe
607-619 Bourke Street,In A Rush ,36,144.9555529,-37.81677365,Cafe
345 Victoria Street,Cafe Metsa,38,144.9499616,-37.80546579,Cafe
16-30 Russell Place,Neapoli Wine Bar,20,144.9674275,-37.81355434,Cafe
221-229 Faraday Street,Thresherman's Bakehouse,70,144.9667269,-37.79886072,Cafe
70 Bourke Street,Self Preservation,16,144.9710755,-37.81166963,Cafe
221 Little Lonsdale Street,Meshiya Japanese Restaurant,12,144.9657034,-37.810658,Cafe
559-587 Collins Street,Earl Canteen,23,144.9557275,-37.81902044,Cafe
181 William Street,Nashi,16,144.9573923,-37.81531863,Cafe
578-606 Bourke Street,Nando's - Bourke Place,46,144.9561073,-37.81571393,Cafe
415-421 St Kilda Road,Bon,21,144.9770428,-37.83774553,Cafe
2 Swanston Street,Bokchoy Tang,36,144.9699175,-37.81784465,Cafe
289-299 Swanston Street,Starbucks ,90,144.9642637,-37.8112271,Cafe
242-244 Lygon Street,Front Cooking School,239,144.9672606,-37.80151178,Cafe
429 Little Collins Street,Little Brother Cafe,75,144.960452,-37.8162783,Cafe
470-496 Swanston Street,Cafe Crema,30,144.9635132,-37.80555235,Cafe
386-392 Little Bourke Street,Ciao Pizza Napoli Restaurant,60,144.9610735,-37.81359799,Cafe
174-184 City Road,Rumour Restaurant Bar & Lounge,60,144.9618918,-37.82382188,Cafe
161-173 Domain Road,Botanical Hotel,22,144.9816996,-37.83431735,Cafe
185-189 Domain Road,The Golden Triangle Restaurant,60,144.9822675,-37.8343508,Cafe
37 Errol Street,Char Siu House,12,144.9490851,-37.80412429,Cafe
45 Newquay Promenade,Berth Restaurant,80,144.9418421,-37.81515588,Cafe
559-587 Collins Street,Spudbar Collins Street 567,16,144.9557275,-37.81902044,Cafe
220 Spencer Street,Pretty Mama,90,144.9535531,-37.8153588,Cafe
330-352 William Street,Beer Wine and Calzone,90,144.9565783,-37.81124428,Cafe
48-50 Flemington Road,McDonalds Royal Children's Hospital,32,144.9501914,-37.79382016,Cafe
222-224 Pelham Street,Books N Bites Cafe,12,144.9583287,-37.80169537,Cafe
392-396 Little Collins Street,Marroo,74,144.9615306,-37.81556194,Cafe
304-306 Little Collins Street,Cafe Insieme,14,144.9643486,-37.81473293,Cafe
194-200 Bourke Street,Sushi Hotaru,46,144.9672768,-37.8124312,Cafe
250-254 Flinders Street,II Tempo Bar,50,144.9659973,-37.81752037,Cafe
183-265 La Trobe Street,Gloria Jeans Level 2,54,144.9630189,-37.81073331,Cafe
494-512 Bourke Street,Ikyu Sushi,80,144.9587607,-37.81494883,Cafe
184-192 Collins Street,Bistrot D'Orsay,50,144.9672778,-37.81485585,Cafe
519-539 St Kilda Road,Cafe La Colline ,34,144.9798191,-37.8455379,Cafe
19-21 Lincoln Square South,Kaprica,60,144.9627813,-37.80336259,Cafe
737-743 Bourke Street,11 Inch Pizza CBD,40,144.9489519,-37.81914692,Cafe
20-30 Convention Centre Place,Studio Coffee,100,144.9523782,-37.82539976,Cafe
295-301 Exhibition Street,Miss Chu,50,144.9688284,-37.80893166,Cafe
84-90 Lorimer Street,Al-Khaleej Restaurant,80,144.9435506,-37.82438863,Cafe
169 Bourke Street,Da Rin,52,144.9685632,-37.81294598,Cafe
111-129 Bourke Street,Healthy Habits Cafe,14,144.9701092,-37.81281453,Cafe
206-218 Bourke Street,Lost Heaven,250,144.9668768,-37.81259409,Cafe
288-294 Russell Street,Indian Delights On Russell,10,144.966972,-37.80966479,Cafe
501-503 Elizabeth Street,McDonalds,136,144.9595526,-37.80735265,Cafe
377-391 Swanston Street,Hungry Jack's,12,144.9634198,-37.80945732,Cafe
165-167 Exhibition Street,Indi Hots Restaurant,80,144.9700956,-37.81170899,Cafe
320-386 Epsom Road,Rye Cafe,40,144.9155212,-37.78257294,Cafe
359 Victoria Street,Amiconi,8,144.9495766,-37.80538455,Cafe
3-5 Waratah Place,Old Crystal Jade Steamboat,50,144.9670449,-37.81172075,Cafe
501-503 Elizabeth Street,McDonalds,64,144.9595526,-37.80735265,Cafe
829-843 Bourke Street,Indi Hots,30,144.9434599,-37.82044558,Cafe
183-265 La Trobe Street,Frozen by a Thousand Blessings,21,144.9630189,-37.81073331,Cafe
111-113 Grattan Street,Tigerlily Cafe,52,144.9657698,-37.80081687,Cafe
313-315 Drummond Street,Masani's Italian Dinning & Terrace ,30,144.968492,-37.79837995,Cafe
238 Lygon Street,Spaghettata Restaurant,44,144.9672365,-37.80162591,Cafe
550 Lonsdale Street,Shuji Sushi,10,144.9560169,-37.8134766,Cafe
821-827 Bourke Street,Delhi Belly,56,144.9441447,-37.82029136,Cafe
41-55 Victoria Harbour Promenade,IGG International Buffet and Bar,660,144.9429888,-37.81938143,Cafe
16-32 Rakaia Way,Renzo's Bar Cafe Italiano,90,144.9412614,-37.81460533,Cafe
489-499 Elizabeth Street,Jasper Kitchen ,60,144.9596331,-37.80750344,Cafe
104 Ireland Street,Villanove Coffee,16,144.9430815,-37.80642484,Cafe
394 Collins Street,The Bank On Collins,100,144.9610454,-37.81666775,Cafe
8 Whiteman Street,Silks,170,144.9586604,-37.82312164,Cafe
103-107 Errol Street,Auction Rooms,104,144.9494609,-37.8024571,Cafe
717-731 Collins Street,Long Shot,24,144.9500934,-37.82068699,Cafe
21-25 Hardware Lane,Campari House,50,144.9613142,-37.81409153,Cafe
242-244 Little Bourke Street,By Korea,38,144.965603,-37.81213633,Cafe
166-170 Lonsdale Street,Goody's Burger House,16,144.9673697,-37.8105674,Cafe
275-285 Exhibition Street,Trunk,200,144.9689066,-37.80938323,Cafe
507-523 Elizabeth Street,Simply Spanish,14,144.9572395,-37.80745984,Cafe
179-201 Pelham Street,Porta Via,40,144.960034,-37.80240996,Cafe
262-274 King Street,Gangnam Pocha,37,144.9549294,-37.81372352,Cafe
251-253 Swanston Street,Melbourne Vietnam Noodle House,125,144.9646962,-37.81221437,Cafe
156-180 Berkeley Street,Bar Commercio,20,144.9588203,-37.80155731,Cafe
41-55 Victoria Harbour Promenade,VinTam's Bakery,40,144.9429888,-37.81938143,Cafe
200-222 Queen Street,In A Rush,32,144.9604697,-37.81352285,Cafe
320-386 Epsom Road,Pacinos Italian Restaurant,130,144.9155212,-37.78257294,Cafe
422-428 Queen Street,Muleta's,100,144.9581156,-37.80861319,Cafe
133-159 Victoria Street,Market Lane Cafe,40,144.9572395,-37.80745984,Cafe
333-351 Exhibition Street,The Terrace Restaurant Bar & Grill ,103,144.9680267,-37.8078604,Cafe
40-66 Siddeley Street,Sea on Quay,24,144.9525486,-37.82290352,Cafe
744-770 Bourke Street,Favoloso,20,144.947217,-37.81817241,Cafe
235 Exhibition Street,Subway,6,144.9694844,-37.81044353,Cafe
18-40 Queensberry Street,Coffee on Drummond,8,144.9682868,-37.80482036,Cafe
519-539 St Kilda Road,Nando's Chevron,32,144.9798191,-37.8455379,Cafe
700-704 Bourke Street,Ichi Maki,60,144.9493733,-37.81733574,Cafe
35-47 Coventry Street,Billy's Pantry,42,144.9693922,-37.82956555,Cafe
221 Little Lonsdale Street,Earl Canteen,62,144.9657034,-37.810658,Cafe
407A St Kilda Road,McDonald's,34,144.976192,-37.83615254,Cafe
435-443 Little Collins Street,Syracuse Restaurant - Bar ,20,144.9600859,-37.81638558,Cafe
122-124 Peel Street,Maria Trattoria,80,144.9564599,-37.80519937,Cafe
291-309 Smithfield Road,Hungry Jack's,40,144.9187654,-37.79214606,Cafe
559-587 Collins Street,Buddabah,26,144.9557275,-37.81902044,Cafe
383-385 Little Bourke Street,Ume Sushi House,24,144.961463,-37.81377588,Cafe
791-847 Collins Street,Elements Cafe ,68,144.9457644,-37.82205739,Cafe
2-16 Newquay Promenade,The Conder Restaurant,130,144.9436836,-37.81389091,Cafe
464-468 Victoria Street,The Sensible Sandwich Cafe,6,144.9505407,-37.80500905,Cafe
457-469 Little Collins Street,Terrace Deli,38,144.95955,-37.81660734,Cafe
31-39 Elizabeth Street,Mad Mex Flinders Lane,6,144.9643316,-37.81741878,Cafe
124-126 Little Bourke Street,Golden Orchid Restaurant,80,144.9687601,-37.81131219,Cafe
700-704 Bourke Street,Mr Grazier,140,144.9493733,-37.81733574,Cafe
359 Victoria Street,Amiconi,60,144.9495766,-37.80538455,Cafe
194-200 Bourke Street,Shandong Mama Dumplings,60,144.9672768,-37.8124312,Cafe
23-99 Commercial Road,Alfretti Cafe,40,144.982664,-37.84633593,Cafe
195 Lonsdale Street,@T Ease,60,144.9666305,-37.8112684,Cafe
309-325 Bourke Street,Sushi Monger ,13,144.9645323,-37.81445406,Cafe
353-359 Little Collins Street,Fugazza,12,144.9629844,-37.81570426,Cafe
12-16 Kavanagh Street,Saporito Cafe Bar & Grill,30,144.9662582,-37.82261378,Cafe
220 Spencer Street,Pho 24,30,144.9535531,-37.8153588,Cafe
313-315 Drummond Street,Masani's Italian Dinning & Terrace ,60,144.968492,-37.79837995,Cafe
550 Lonsdale Street,Donoghue's ,38,144.9560169,-37.8134766,Cafe
87-91 Bourke Street,The Grand Trailer Park Taverna,160,144.9709029,-37.812234,Cafe
744-770 Bourke Street,Kagawa Japanese Cafe,28,144.947217,-37.81817241,Cafe
171-175 Elgin Street,The Shaw Davey Slum,20,144.9687079,-37.79750574,Cafe
 Alexandra Avenue,Jardin Tan,207,144.9803723,-37.83016988,Cafe
163 Grattan Street,Animal Orchestra,88,144.9634206,-37.80059737,Cafe
221-227 Exhibition Street,Yamato Japanese Restaurant,50,144.9695849,-37.81067091,Cafe
214-216 Little Bourke Street,Mao Please,120,144.9662182,-37.81204418,Cafe
63-65 City Road,The Beggar's Bowl,11,144.9658443,-37.82222503,Cafe
269-275 William Street,Kaefei,8,144.9564474,-37.81270785,Cafe
198-204 Faraday Street,Crinitis Southern Italian Cuisine,110,144.9678378,-37.79850638,Cafe
317-321 Little Collins Street,Brown Sugar Cafe,12,144.9642254,-37.81528948,Cafe
2-20 Sutherland Street,China Spice,90,144.9609484,-37.81131629,Cafe
372-380 Albert Street,Degani @ East Melbourne,18,144.9787048,-37.80963919,Cafe
330-344 Little Lonsdale Street,Water Flame ,64,144.9596748,-37.81181165,Cafe
378-380 Little Collins Street,Oriental Tea House,120,144.9620207,-37.81551671,Cafe
258-260 Flinders Lane,Cafe Vicolino,30,144.9654744,-37.81664468,Cafe
115-123 Hardware Street,Bowert to Williamsburg,25,144.9603936,-37.81210735,Cafe
199-207 Spring Street,Hudson's Coffee,9,144.9720594,-37.81012699,Cafe
164 Rathdowne Street,Cure Bar & Eatery,35,144.9711319,-37.79547684,Cafe
189-203 William Street,Mr Q Grab & Go,90,144.9570408,-37.8146364,Cafe
466-468 Little Lonsdale Street,Gue on Brights Place,40,144.955573,-37.81290439,Cafe
313-315 Swanston Street,D House Cafe,8,144.964105,-37.81088539,Cafe
68-78 Hardware Lane,Grill Steak Seafood,60,144.9611061,-37.8130703,Cafe
161-173 Domain Road,Gilson,42,144.9816996,-37.83431735,Cafe
261-263 Queensberry Street,QB's Cafe,35,144.9599256,-37.80440558,Cafe
 Peel Street,Merlo Coffee,16,144.9572395,-37.80745984,Cafe
45-49 Bourke Street,Shuji Sushi,8,144.9719053,-37.8119837,Cafe
132-134 Russell Street,Ba'get,12,144.9685948,-37.81316722,Cafe
39-43 Bourke Street,Lanes Edge Cafe,52,144.9720472,-37.81193572,Cafe
48-50 Flemington Road,Parkville Cafe,244,144.9501914,-37.79382016,Cafe
545-557 Flinders Street,Nandos Northbank,6,144.9565185,-37.82099397,Cafe
221 Little Lonsdale Street,Grill'd (QV),70,144.9657034,-37.810658,Cafe
183-265 La Trobe Street,Max Brenner-Chocolate Bar,72,144.9630189,-37.81073331,Cafe
25 Wills Street,Operator 25,56,144.9571621,-37.81071591,Cafe
13-15 Hardware Lane,Roll'd,32,144.9614053,-37.8142907,Cafe
612-624 Collins Street,Pallet Espresso,20,144.9543505,-37.81867544,Cafe
 Elliott Avenue,Lakeside Bistro And Function Centre,240,144.9514349,-37.78428452,Cafe
23-99 Commercial Road,Alfretti Cafe,10,144.982664,-37.84633593,Cafe
230 Grattan Street,Lot#6 Cafe,80,144.9612468,-37.79739836,Cafe
181 William Street,Rock the Wok,24,144.9573923,-37.81531863,Cafe
206-218 Bourke Street,Tim Ho Wan,90,144.9668768,-37.81259409,Cafe
380-394 Docklands Drive,Cafe Bourgeois,50,144.9411967,-37.81308483,Cafe
42-44 King Street,Rare Steakhouse King Street,120,144.9573222,-37.81918367,Cafe
12-18 Meyers Place,San Telmo Restaurant,85,144.972451,-37.81221617,Cafe
578-606 Bourke Street,Mistress Bourke,72,144.9561073,-37.81571393,Cafe
744-770 Bourke Street,Espresso Alto ,22,144.947217,-37.81817241,Cafe
520-528 Victoria Street,Nizams Indian Restaurant,4,144.9487135,-37.80474738,Cafe
230 Grattan Street,Tsubu Bar,50,144.9612468,-37.79739836,Cafe
1-9 Exhibition Street,Bonnie Coffee Co,12,144.9720412,-37.81584246,Cafe
191 Nicholson Street,Scopri Italian Food & Wine ,60,144.9749221,-37.79568657,Cafe
164-170 Flinders Street,Nando's,74,144.9690862,-37.81670922,Cafe
161 Spring Street,The Melbourne Supper Club,90,144.9724291,-37.8109513,Cafe
367-377 Royal Parade,Degani Bakery Cafe,60,144.9585626,-37.7849288,Cafe
419 Elizabeth Street,Raan Kan Eang,40,144.9604891,-37.80911597,Cafe
298-336 Victoria Parade,Hudsons Coffee Freemasons,6,144.9822638,-37.8094576,Cafe
221-231 Queen Street,Caterina's Cucina E Bar,80,144.9597543,-37.81355361,Cafe
258-260 Flinders Lane,Eliana Lulu,32,144.9654744,-37.81664468,Cafe
541-557 Lonsdale Street,Bergerac,110,144.9562135,-37.81439357,Cafe
130-132 Flinders Street,Cafe Bisqui ,34,144.970543,-37.81627651,Cafe
331-335 Lygon Street,Jimmy Watsons ,24,144.9671779,-37.7975082,Cafe
176 Rathdowne Street,Bangkok Rain ,12,144.9711745,-37.79523278,Cafe
20-24 Guildford Lane,Krimper,90,144.9601274,-37.81115719,Cafe
210-222 Russell Street,Famous Hot Pot ,52,144.9679947,-37.81132789,Cafe
209-213 Elizabeth Street,Tropicana Juice Bar,10,144.962548,-37.81354034,Cafe
191 Lygon Street,Leyalina,48,144.9664967,-37.80114228,Cafe
559-587 Collins Street,Stockroom 567,90,144.9557275,-37.81902044,Cafe
80 Queensberry Street,Lambs Restaurant,22,144.9666993,-37.80443778,Cafe
389-399 Collins Street,The Old Chamber ,45,144.961439,-37.8173062,Cafe
11-15 Waratah Place,Hot Space,54,144.9669365,-37.81150382,Cafe
1 Phillip Court,Felicci's,38,144.920988,-37.82600955,Cafe
137-139 Flinders Lane,Oter,60,144.9700425,-37.8157316,Cafe
11-37 Exhibition Street,Grill'd,60,144.9717262,-37.81546152,Cafe
1-9 Southbank Boulevard,Breslin Bar And Grill,60,144.9628914,-37.8210403,Cafe
121 Exhibition Street,Tower Shushi,24,144.9701092,-37.81281453,Cafe
480 Bourke Street,CBD Bakery,20,144.9594641,-37.81506553,Cafe
233-239 Collins Street,Maccaroni Trattoria Italiana,22,144.9660881,-37.81602805,Cafe
299 Spring Street,Lost Angel Bar & Restaurant ,90,144.9710147,-37.80814522,Cafe
258 Elgin Street,Cafe Sua Da,45,144.9655339,-37.79670704,Cafe
29-65 South Wharf Promenade,Akachochin,20,144.9503336,-37.82409303,Cafe
402-408 Lonsdale Street,Mook Ji Bar,68,144.9603254,-37.81244232,Cafe
174 Bellair Street,Sori Cafe,14,144.9299293,-37.79360999,Cafe
177-183 Lygon Street,Cafe Cavallino,100,144.9664967,-37.80144374,Cafe
166-168 Lygon Street,Il Gambero On The Park ,28,144.9668138,-37.803305,Cafe
313-329 Exhibition Street,Jack Sprat,60,144.9684259,-37.80864972,Cafe
121 Exhibition Street,Urban Deli SX1,110,144.9701092,-37.81281453,Cafe
43 Epsom Road,Local Folk Cafe,13,144.9256097,-37.79223674,Cafe
15-19 Warburton Lane,Portello Rosso,45,144.9618462,-37.81381239,Cafe
343 King Street,Biryani House,24,144.9535723,-37.81223871,Cafe
127-133 Leicester Street,Bar Scopa ,16,144.9602088,-37.80290295,Cafe
536-548 Little Lonsdale Street,All 4 U Cafe & Bar,40,144.9532342,-37.81359291,Cafe
604 Swanston Street,Spice 9 Grill ,74,144.9643119,-37.80188571,Cafe
480-490 Collins Street,Yuzu Cafe & Cuisine,120,144.9579514,-37.8176551,Cafe
57-67 Little Collins Street,N Lee Bakery And Cafe,18,144.9716953,-37.81309819,Cafe
122-148 Harbour Esplanade,Locker Room Cafe,12,144.9475776,-37.81656591,Cafe
3 Southgate Avenue,Grill'd,30,144.9662623,-37.82066923,Cafe
2 Convention Centre Place,Caffe Cino,50,144.9523782,-37.82539976,Cafe
189 Collins Street,Box On Collins Restaurant,20,144.9677066,-37.81546677,Cafe
1-9 Freshwater Place,Nashi ,20,144.962154,-37.82167834,Cafe
706-738 Bourke Street,Hawkers Corner,60,144.9490176,-37.81792089,Cafe
116-122 Hardware Street,The Hardware Societe,20,144.9607032,-37.81194755,Cafe
578-606 Bourke Street,Mistress Bourke,100,144.9561073,-37.81571393,Cafe
45-49 Bourke Street,Shuji Sushi,88,144.9719053,-37.8119837,Cafe
268-276 Victoria Street,Hallah,50,144.9573902,-37.80580455,Cafe
85-161 Spencer Street,Hungry Jack's,100,144.9523393,-37.81815358,Cafe
2-14 Hope Street,Bistro Gitan,74,144.9793098,-37.83713808,Cafe
230 Grattan Street,Lab 39,61,144.9612468,-37.79739836,Cafe
317-321 Little Collins Street,Caffe E Biscotti,15,144.9642254,-37.81528948,Cafe
63-75 Coventry Street,Manchipster Fish And Burger Bar,40,144.9679591,-37.82998246,Cafe
472-482 Flinders Street,Riverside Deli & Coffee House,50,144.9582721,-37.81974184,Cafe
296-298 Russell Street,Shu Grill Bar,30,144.9669287,-37.80957196,Cafe
131-137 Lonsdale Street,1st Choice Restaurant ,60,144.96853,-37.81098009,Cafe
78-84 Bourke Street,Grossi Florentino,54,144.9708473,-37.81172969,Cafe
497-513 Rathdowne Street,Providence Cafe & Eatery,22,144.9706731,-37.79365073,Cafe
174-178 Lygon Street,Lemongrass,16,144.96678,-37.80305855,Cafe
140-146 Lygon Street,La Notte Restaurant,180,144.9667231,-37.803783,Cafe
64-90 Sutton Street,64 Sutton,30,144.937872,-37.7916558,Cafe
213-221 Berkeley Street,Garage Cafe & Bar,70,144.9584099,-37.80041082,Cafe
222-244 Bourke Street,Gloria Jean's Coffees,20,144.9662952,-37.81272047,Cafe
100 Little Lonsdale Street,Gami Chicken and Beer,48,144.9687195,-37.80913623,Cafe
49 Rathdowne Street,Epocha Restaurant,30,144.9685944,-37.80578725,Cafe
70 Speakmen Street,Don't Tell Charles Coffee & Desserts,14,144.9163635,-37.79387621,Cafe
204 Little Bourke Street,Ling Nam Chinese Restaurant,90,144.9665408,-37.81199247,Cafe
445-447 Queensberry Street,Grigons & Orr Corner Store ,20,144.952777,-37.80357227,Cafe
466-468 Little Lonsdale Street,Silhouette's Cafe & Restaurant,40,144.955573,-37.81290439,Cafe
612-624 Collins Street,Choix Creperie Cafe,6,144.9543505,-37.81867544,Cafe
415-421 St Kilda Road,Famish'd,28,144.9770428,-37.83774553,Cafe
131-137 Lonsdale Street,Encore Restaurant & Bar,35,144.96853,-37.81098009,Cafe
 Royal Parade,Carlton Cafe,70,144.9613973,-37.78509079,Cafe
100-106 Leicester Street,Stovetop,16,144.9608587,-37.8037076,Cafe
219-233 Elizabeth Street,Shanghai Street,8,144.9622831,-37.81321386,Cafe
311 Exhibition Street,Food Stories Chinese Canteen,6,144.9687046,-37.80869914,Cafe
20-26 Queen Street,Maha Bar & Grill,80,144.9625299,-37.81819275,Cafe
2-14 Hope Street,Bistro Gitan,6,144.9793098,-37.83713808,Cafe
240 Lygon Street,Piccolo Mondo,120,144.9672464,-37.80158026,Cafe
32-54 Lonsdale Street,Goz City,11,144.9707325,-37.8091842,Cafe
38-46 Sabre Drive,Sabre Cafe,22,144.9063359,-37.82797655,Cafe
380 Elizabeth Street,Nando's ,58,144.9614913,-37.80985709,Cafe
63-75 Coventry Street,Restuarant Ayams Chef,8,144.9679591,-37.82998246,Cafe
222-244 Bourke Street,Ramen Bankara,50,144.9662952,-37.81272047,Cafe
199-209 Collins Street,Lobby Lounge,24,144.9674304,-37.81584777,Cafe
1-13 William Street,Williams Bar Cafe,100,144.9595106,-37.81943285,Cafe
219-233 Elizabeth Street,Little Ramen Bar,6,144.9622831,-37.81321386,Cafe
295-307 William Street,Xtraction ,100,144.9558855,-37.81244731,Cafe
381-387 Flinders Lane,Travistock House Cafe,40,144.961389,-37.81825094,Cafe
316-318 Lygon Street,Copperwood ,160,144.9676,-37.79962339,Cafe
1-9 Freshwater Place,McDonald's,54,144.962154,-37.82167834,Cafe
276-282 King Street,Biryani Palace,24,144.9548222,-37.81349786,Cafe
297-307 Victoria Street,One Star Coffee Lounge,8,144.9513664,-37.80562951,Cafe
215 Victoria Street,Don Camillo Cafe Bar Restaurant,9,144.954241,-37.80592219,Cafe
706-738 Bourke Street,Focaccino,18,144.9490176,-37.81792089,Cafe
235-237 Faraday Street,New York Minute,24,144.9662956,-37.7988135,Cafe
252-254 Flinders Lane,Eurolane Cafe ,6,144.9655966,-37.8166033,Cafe
45 Collins Street,Great Space Cafe,27,144.9726281,-37.81430616,Cafe
221-231 Queen Street,Ho's Cafe  ,30,144.9597543,-37.81355361,Cafe
8 Whiteman Street,Spice Temple,180,144.9586604,-37.82312164,Cafe
788-812 Bourke Street,In A Rush 800,56,144.9451224,-37.81888389,Cafe
706-738 Bourke Street,Focaccino,50,144.9490176,-37.81792089,Cafe
251-257 Cardigan Street,Rice Bar Not Only Rice,40,144.9651037,-37.80077102,Cafe
56-64 Collins Street,Cafe 60,60,144.9716242,-37.81361885,Cafe
195 Lonsdale Street,@T Ease,10,144.9666305,-37.8112684,Cafe
38-40 Lonsdale Street,Madam's Kitchen,46,144.9707325,-37.8091842,Cafe
2 Swanston Street,Crossbar Cafe,50,144.9699175,-37.81784465,Cafe
118 Lygon Street,Grilled 118,20,144.9666993,-37.80443778,Cafe
131-135 Bourke Street,Heirloom ,113,144.9694638,-37.8130107,Cafe
19-21 Lonsdale Street,Lonsdale Coffee Delight,27,144.9715313,-37.80981882,Cafe
100 St Kilda Road,Teatro,60,144.9682264,-37.82094188,Cafe
37-41 Little Bourke Street,Vamos,100,144.9715059,-37.81083595,Cafe
67-73 Hardware Lane,The Mill,60,144.960908,-37.81323451,Cafe
183-265 La Trobe Street,Monkey King Bar,18,144.9630189,-37.81073331,Cafe
165 Bourke Street,Pintoh,75,144.9686295,-37.81292544,Cafe
330-352 William Street,Brother Thomas Coffee,6,144.9565783,-37.81124428,Cafe
471 Elizabeth Street,CY Sushi & Noodle,34,144.9599508,-37.80794087,Cafe
111-129 Queen Street,Lanai Restaurant & Bar,80,144.9606367,-37.81581152,Cafe
75-77 Flinders Lane,Cafe Shots Espresso Bar,5,144.9722399,-37.81514512,Cafe
14-40 Market Street,KCL (Koury's Coffee Lounge) ,35,144.9611339,-37.81848796,Cafe
487 Elizabeth Street,Podok Rempah,12,144.9597917,-37.80760291,Cafe
22-38 William Street,Shiraaz at CBD Fine Indian Cuisine,90,144.9599653,-37.81877654,Cafe
542-546 Little Bourke Street,SMXL,9,144.9563672,-37.81477885,Cafe
163-169 Russell Street,Shanghai Dragon Dumpling House,28,144.9676479,-37.81246709,Cafe
51 Bourke Street,The Mess Hall,24,144.9717967,-37.81200666,Cafe
8 Errol Street,Cafe Sabor,20,144.949581,-37.80489366,Cafe
452-470 Flinders Street,Shuji Sushi,56,144.9586012,-37.81946849,Cafe
63-65 George Street,George Street Cafe,35,144.9881843,-37.81575788,Cafe
1010 La Trobe Street,Coffee n' all Customs House,36,144.9453402,-37.81453858,Cafe
304-306 Little Collins Street,Gordons Cafe & Bar,22,144.9643486,-37.81473293,Cafe
113-129 Sturt Street,Malthouse Kitchen,100,144.9669591,-37.8271278,Cafe
289-299 Swanston Street,Guzman Y Gomez Swanston Street,86,144.9642637,-37.8112271,Cafe
535 Little Lonsdale Street,Kenny's Bakery Cafe ,12,144.9560169,-37.8134766,Cafe
516-520 Collins Street,Feast @ 520,42,144.9572629,-37.81780327,Cafe
363-367 Little Collins Street,That's Amore Bistro,58,144.9628116,-37.81581721,Cafe
221 Little Lonsdale Street,Papparich,80,144.9657034,-37.810658,Cafe
517-537 Flinders Lane,Delhi Streets,28,144.9566017,-37.81988484,Cafe
705-715 Collins Street,Chiara,80,144.9511863,-37.82096812,Cafe
639 Lonsdale Street,Piccolo,9,144.9535531,-37.8153588,Cafe
240-254 Victoria Parade,Solah,12,144.9799791,-37.80919457,Cafe
350-352 Drummond Street,Markov,65,144.9692712,-37.79771074,Cafe
8 Whiteman Street,Nobu Melbourne,160,144.9586604,-37.82312164,Cafe
152-158 Bourke Street,Ginza Teppanyaki Japanese Restaurant,80,144.9685359,-37.81206119,Cafe
45 Collins Street,Asian Pavillion ,14,144.9726281,-37.81430616,Cafe
44-50 Errol Street,Reynoldo's,150,144.9500439,-37.80411038,Cafe
612-624 Collins Street,Pallet Espresso,3,144.9543505,-37.81867544,Cafe
175-177 Domain Road,Bacash,100,144.9819451,-37.83430009,Cafe
183-265 La Trobe Street,Food Inc.,40,144.9630189,-37.81073331,Cafe
230 Grattan Street,Zambrero,48,144.9612468,-37.79739836,Cafe
188 Bellair Street,Fruits of Passion,41,144.9299933,-37.79392952,Cafe
172 Rathdowne Street,Fu Lu Chinese Cafe,4,144.9711594,-37.79532263,Cafe
61-73 Flinders Lane,Cecconi's Flinders Lane,180,144.9725123,-37.81506474,Cafe
148-150 Lygon Street,Pasta Rustica Ristorante,38,144.966737,-37.80366897,Cafe
104 Ireland Street,Villanove Coffee,13,144.9430815,-37.80642484,Cafe
183-265 La Trobe Street,Gloria Jeans,20,144.9630189,-37.81073331,Cafe
160-162 Bourke Street,Whitte Tomato,70,144.9684702,-37.81244856,Cafe
187 Flinders Lane,Ezard,68,144.9683751,-37.81635789,Cafe
305 Lygon Street,Tiamo 2,125,144.9670792,-37.79817948,Cafe
401-405 Swanston Street,KFC,73,144.963217,-37.80904283,Cafe
391-393 Little Lonsdale Street,Gypsy & Pig,10,144.9603411,-37.81187439,Cafe
24-38 Little Bourke Street,Deli 1884,45,144.9714138,-37.81033978,Cafe
302-308 Flinders Lane,Bistro Du Peuple,22,144.9638971,-37.81719967,Cafe
1-9 Freshwater Place,The Meat & Wine Co,250,144.962154,-37.82167834,Cafe
1-27 South Wharf Promenade,The Boatbuilders Yard,54,144.9534995,-37.82437522,Cafe
175-183 Queen Street,Kenny's Bakery Cafe,56,144.9599857,-37.81452036,Cafe
250-254 Flinders Street,II Tempo Bar,30,144.9659973,-37.81752037,Cafe
199-209 Collins Street,Campari Spritz Point,32,144.9674304,-37.81584777,Cafe
225 Russell Street,Shujinko,48,144.9671363,-37.81134266,Cafe
226-236 Russell Street,Thai Chilli Cafe,48,144.9676444,-37.81098272,Cafe
383-385 Little Bourke Street,Ume Sushi House,36,144.961463,-37.81377588,Cafe
500 Victoria Street,El Subor,70,144.9496812,-37.804917,Cafe
22-32 Little La Trobe Street,Little Charley - Brady Hotels Central Melbourne,40,144.9626724,-37.80917165,Cafe
743-751 Swanston Street,KFC Carlton,10,144.9636423,-37.8006201,Cafe
131-133 Domain Road,Entrecote - Paris Steakhouse & Winebar,30,144.9804913,-37.83412547,Cafe
230 Grattan Street,Shanti Bhagwan Cafe,36,144.9612468,-37.79739836,Cafe
87-89 Flinders Lane,Swiss Club Restaurant,100,144.9713925,-37.81542975,Cafe
743-751 Swanston Street,China Style ,44,144.9636423,-37.8006201,Cafe
740-750 Swanston Street,E Dumpling,8,144.9647653,-37.79899938,Cafe
535 Little Lonsdale Street,Gami At Healeys - Chicken & Beer,12,144.9560169,-37.8134766,Cafe
500-514 Collins Street,Kantina Kartel,22,144.9574732,-37.81753383,Cafe
49-89 Turner Street,Cafe Port IT ,35,144.9253775,-37.82304058,Cafe
389-395 Lonsdale Street,Kalamaki Greek Street Food,25,144.9610121,-37.81288006,Cafe
221-231 Collins Street,Tako Sushi Japanses Cafe,20,144.9663304,-37.81584476,Cafe
1-9 Freshwater Place,Nashi ,14,144.962154,-37.82167834,Cafe
256-268 Flinders Street,Il Tempo 2 Pasta,14,144.9656264,-37.81760781,Cafe
72 Victoria Street,Biryani King,45,144.9654212,-37.80670799,Cafe
141-155 City Road,Fusion Hotpot,110,144.963253,-37.82376394,Cafe
791-847 Collins Street,Volume Cafe,40,144.9457644,-37.82205739,Cafe
161-169 Elgin Street,Cafe Lua,36,144.969295,-37.79757961,Cafe
6 Riverside Quay,Ludlow Bar & Dining Room,300,144.9638287,-37.82082512,Cafe
226-236 Russell Street,Pho Dung Tan Dinh City,80,144.9676444,-37.81098272,Cafe
199-209 Collins Street,Three Below,25,144.9674304,-37.81584777,Cafe
263 Lygon Street,Lygon Food Store,29,144.966868,-37.79929755,Cafe
11-37 Exhibition Street,The French Brasserie,85,144.9717262,-37.81546152,Cafe
189-203 William Street,Little Billy,150,144.9570408,-37.8146364,Cafe
18-24 Dorcas Street,Humbaba,24,144.9695681,-37.83002436,Cafe
270-272 Flinders Street,Platform 270,48,144.9653484,-37.81769553,Cafe
183-265 La Trobe Street,Caffe Torre,79,144.9630189,-37.81073331,Cafe
46-62 Cook Street,Red Rooster Westgate,40,144.9171939,-37.82984854,Cafe
1-4 Nicholson Street,Aromatic Cafe,40,144.9735223,-37.80899046,Cafe
2-12 Parliament Place,The Commune ,70,144.9757456,-37.81162322,Cafe
121 Lygon Street,Grilla House,24,144.9660241,-37.80415049,Cafe
256-268 Flinders Street,Il Tempo 2 Pasta,32,144.9656264,-37.81760781,Cafe
351-357 Collins Street,Vapiano,250,144.9627888,-37.81722704,Cafe
318-322 Little Bourke Street,Nant 1821,88,144.9631276,-37.81292437,Cafe
167-175 Franklin Street,Discovery Cafe,50,144.9591538,-37.80895967,Cafe
243-249 Swanston Street,The Lounge,118,144.9647365,-37.81230108,Cafe
15-17 Celestial Avenue,Supper Inn Chinese Restaurant,70,144.9661302,-37.81188094,Cafe
149 Lygon Street,Tank Fish And Chippery ,20,144.9661127,-37.80369873,Cafe
407-409 Swanston Street,Druids Cafe,75,144.9631797,-37.80895593,Cafe
176 Bellair Street,White Rabbit Record Bar,35,144.9299348,-37.7936563,Cafe
238-242 Flinders Street,Flora Indian Restaurant,140,144.9663532,-37.81733219,Cafe
18-22 McKillop Street,Dip In Cafe,10,144.9618186,-37.81514598,Cafe
11-41 Melrose Street,Cafe Innov-8,4,144.9414027,-37.79501722,Cafe
100 St Kilda Road,Sake Restaurant & Bar,70,144.9682264,-37.82094188,Cafe
230 Lygon Street,Lygon Dolce Vita,45,144.9672092,-37.80180395,Cafe
235-251 Bourke Street,Starbucks,16,144.9665978,-37.81376503,Cafe
251-257 Cardigan Street,Rakuzen Simple Japanese ,36,144.9651037,-37.80077102,Cafe
107-117 Victoria Harbour Promenade,Snack A Rama,30,144.9405366,-37.82003433,Cafe
157-159 Lonsdale Street,Kokoro Ramen,59,144.9678627,-37.81093607,Cafe
240 Lygon Street,Piccolo Mondo,28,144.9672464,-37.80158026,Cafe
213-217 Russell Street,Spices Indonesian Kitchen,40,144.9672365,-37.81156167,Cafe
320-386 Epsom Road,Rye Cafe,16,144.9155212,-37.78257294,Cafe
700-704 Bourke Street,90 Secondi,75,144.9493733,-37.81733574,Cafe
203-207 Lonsdale Street,Carribbean Grilled Fish by China Chilli,80,144.9663534,-37.81133175,Cafe
700-704 Bourke Street,Story Coffee & Food Store,16,144.9493733,-37.81733574,Cafe
53-75 Pelham Street,Michelino's Trattoria,16,144.9671858,-37.80324285,Cafe
8-14 Rankins Lane,Manchester Press,50,144.9621262,-37.81387847,Cafe
29-65 South Wharf Promenade,The General Assembly,180,144.9503336,-37.82409303,Cafe
372-380 Albert Street,Degani @ East Melbourne,46,144.9787048,-37.80963919,Cafe
359-373 Collins Street,The Overdraft Cafe,40,144.9624418,-37.81728432,Cafe
100 St Kilda Road,Centro Espresso,56,144.9682264,-37.82094188,Cafe
209 Lygon Street,Il Cantuccio Restaurant,20,144.9666464,-37.80043187,Cafe
58 Clarke Street,Circolo,8,144.9593368,-37.82786328,Cafe
500 Victoria Street,El Subor,4,144.9496812,-37.804917,Cafe
122-130 Wellington Parade,The Grey Smith,28,144.9859889,-37.81609349,Cafe
791-847 Collins Street,Caffe Esc,36,144.9457644,-37.82205739,Cafe
520-528 Victoria Street,Nizams Indian Restaurant,28,144.9487135,-37.80474738,Cafe
25-45 Collins Street,Sofi's Lounge,140,144.9726281,-37.81430616,Cafe
538-542 Little Collins Street,Five Points,14,144.956774,-37.81695942,Cafe
98 Bourke Street,Jaisalmer Palace Indian Restaurant ,80,144.9701703,-37.81194604,Cafe
122-124 Peel Street,Maria Trattoria,4,144.9564599,-37.80519937,Cafe
387 Little Bourke Street,Coffee 7,20,144.9613937,-37.81379622,Cafe
11-19 Liverpool Street,Rice Paper Scissors Asian Kitchen,20,144.9713242,-37.81131159,Cafe
295-301 Exhibition Street,Sally's Kitchen,50,144.9688284,-37.80893166,Cafe
235 Exhibition Street,Subway,28,144.9694844,-37.81044353,Cafe
538-542 Little Collins Street,Piccolocino,8,144.956774,-37.81695942,Cafe
28-38 Queen Street,Cafe 34,36,144.9624375,-37.81798973,Cafe
72 Stubbs Street,La Tortilleria,30,144.9353022,-37.79142203,Cafe
362 Lygon Street,Sea Saltfish & Sushi Bar,17,144.9676347,-37.79832944,Cafe
550 Bourke Street,Tadka Boom,40,144.9573923,-37.81531863,Cafe
393-397 Little Bourke Street,Larder Section,18,144.9612043,-37.8138513,Cafe
483 Swanston Street,Pork Belly House Melbourne,24,144.9620907,-37.80728963,Cafe
183-265 La Trobe Street,Theobroma Chocolate Lounge,34,144.9630189,-37.81073331,Cafe
207-213 Queen Street,La Romana Pizza Al Taglio,50,144.9599073,-37.81386746,Cafe
134-136 Flinders Street,Desi Dhaba,90,144.9704304,-37.81629562,Cafe
37-43 Caravel Lane,B Club Cafe,28,144.9406594,-37.8149263,Cafe
19-37 A'Beckett Street,We Cafe,36,144.9626101,-37.80894099,Cafe
768-804 Swanston Street,The Longing Flavour,50,144.965164,-37.79780844,Cafe
225-229 Lygon Street,Cafe Corretto,55,144.966741,-37.80004558,Cafe
313-329 Exhibition Street,Global Kitchen Caffe,80,144.9684259,-37.80864972,Cafe
487-497 Flinders Lane,B3 Cafe,6,144.957712,-37.81937993,Cafe
37-43 Caravel Lane,Steakhouse 66,50,144.9406594,-37.8149263,Cafe
680-682 Swanston Street,Colourful Yunnan Restaurant,8,144.9642366,-37.80062759,Cafe
2-20 Sutherland Street,Raw Trader,19,144.9609484,-37.81131629,Cafe
405-407 Collins Street,Bluebag,40,144.9611131,-37.81745676,Cafe
27-31 Hardware Lane,Big Boy BBQ,16,144.9612664,-37.81398752,Cafe
111-129 Bourke Street,Nashi,31,144.9701092,-37.81281453,Cafe
1-9 Freshwater Place,Shuji Sushi,2,144.962154,-37.82167834,Cafe
305-331 City Road,McDonald's,50,144.9578749,-37.82832676,Cafe
187 Flinders Lane,Om Nom,40,144.9683751,-37.81635789,Cafe
230 Lygon Street,Lygon Dolce Vita,12,144.9672092,-37.80180395,Cafe
251-257 Cardigan Street,Rice Bar Not Only Rice,58,144.9651037,-37.80077102,Cafe
21-25 Hardware Lane,Campari House,100,144.9613142,-37.81409153,Cafe
206-218 Bourke Street,Shanghai Dynasty Restaurant,300,144.9668768,-37.81259409,Cafe
256 Lygon Street,Il Gusto,24,144.9671605,-37.80118693,Cafe
478 Drummond Street,Fatayer Cafe,16,144.9690954,-37.79465838,Cafe
267-275 Flinders Lane,Jing Jai Thai,70,144.9654844,-37.81710105,Cafe
273-279 Little Collins Street,San Paolo Solarino,22,144.9653693,-37.81490375,Cafe
40-50 Bourke Street,Cafe On Bourke,32,144.971689,-37.81137728,Cafe
31 Sturt Street,Blondie Bar,80,144.9677949,-37.82420378,Cafe
302-308 Flinders Lane,Robot Sushi & Bar,40,144.9638971,-37.81719967,Cafe
360 La Trobe Street,Dotonbori,52,144.9591368,-37.8107204,Cafe
791-803 Bourke Street,Pok Pok,50,144.9456209,-37.81974585,Cafe
221 Little Lonsdale Street,Mad Mex,12,144.9657034,-37.810658,Cafe
58 Clarke Street,Circolo,18,144.9593368,-37.82786328,Cafe
320 Lygon Street,Donnini's ,24,144.9675104,-37.79953749,Cafe
101 Waterfront Way,Buddy Bakery Cafe,16,144.9375906,-37.81187395,Cafe
317-321 Little Collins Street,Cafe Segovia,16,144.9642254,-37.81528948,Cafe
612-624 Collins Street,Purple Peanuts Japanese Cafe,18,144.9543505,-37.81867544,Cafe
118-126 Queen Street,CoF.E.Fix,8,144.9612988,-37.81565401,Cafe
96-98 Flinders Street,Tonka Bar & Restaurant,120,144.9714735,-37.81589712,Cafe
4 Riverside Quay,Soho Restaurant & Bar,60,144.9633758,-37.82092509,Cafe
519-539 St Kilda Road,Beluga At Chevron ,33,144.9798191,-37.8455379,Cafe
377-379 Little Collins Street,Nori Nori,45,144.9624392,-37.81585501,Cafe
445-447 Queensberry Street,Grigons & Orr Corner Store ,9,144.952777,-37.80357227,Cafe
547-555 Flinders Lane,Cherry & Twigs,24,144.9558379,-37.82001952,Cafe
85-161 Spencer Street,Velluto,20,144.9523393,-37.81815358,Cafe
85-161 Spencer Street,Grill'd,88,144.9523393,-37.81815358,Cafe
6-8 Nicholson Street,Cafe Ecco,24,144.973619,-37.80849653,Cafe
515 Little Bourke Street,Slate Restaurant Bar,60,144.9573923,-37.81531863,Cafe
257-259 Macaulay Road,North End Deli,30,144.938198,-37.79557663,Cafe
199-207 Spring Street,Father John Cafe,8,144.9720594,-37.81012699,Cafe
720-750 Collins Street,Shinsei Rice & Sushi Bar,72,144.9492736,-37.81999404,Cafe
8 Whiteman Street,Lucky Chans,130,144.9586604,-37.82312164,Cafe
262 Lygon Street,Alpino Restaurant,24,144.9671843,-37.80103476,Cafe
183-265 La Trobe Street,Cupcake Central ,20,144.9630189,-37.81073331,Cafe
35-47 Coventry Street,Queenie's Restaurant & Cafe,40,144.9693922,-37.82956555,Cafe
304-306 Little Collins Street,Laurent Boulangerie Patisserie,30,144.9643486,-37.81473293,Cafe
197 Lonsdale Street,Tsindos Greek Restaurant,16,144.9665765,-37.81128456,Cafe
163-173 Queen Street,Plus 6zer0,80,144.9602243,-37.81467989,Cafe
16 Bourke Street,Red Pepper Indian Restaurant,66,144.972413,-37.81127672,Cafe
199 Victoria Street,Bombay Lounge,38,144.9547681,-37.8059984,Cafe
118-120 Elgin Street,Longhorn Saloon,300,144.9708545,-37.79723715,Cafe
18 Queen Street,Bond Street Kitchen,4,144.9625773,-37.81829599,Cafe
237 Swanston Street,Tina's Noodle Kitchen,16,144.9648043,-37.81244693,Cafe
19-37 A'Beckett Street,No 1 Spicey Pot,58,144.9626101,-37.80894099,Cafe
59-63 Bourke Street,Spaghetti Tree ,12,144.9715659,-37.81212537,Cafe
475-485 Flinders Lane,Masala Grill,4,144.9581001,-37.81936891,Cafe
243-263 Franklin Street,GJ's Grill,34,144.9566627,-37.80967009,Cafe
100-116 Bourke Street,Killiney Kopitiam Bourke Street,80,144.9697778,-37.81170307,Cafe
188-194 Little Collins Street,Sarti Restaurant & Bar,65,144.9675807,-37.81390779,Cafe
744-770 Bourke Street,De Gusto,12,144.947217,-37.81817241,Cafe
262-276 Lorimer Street,Bonnie and Duke Cafe Port Melbourne,40,144.9050213,-37.82653298,Cafe
83-93 Franklin Street,No 1 Delicious,102,144.9617628,-37.80816923,Cafe
299-319 Queen Street,Quanjude Restaurant ,130,144.9586601,-37.81145082,Cafe
212 Berkeley Street,Haymarket Place,10,144.9589985,-37.80052523,Cafe
100 St Kilda Road,Cafe Vic,300,144.9682264,-37.82094188,Cafe
24-42 Newquay Promenade,Medici Cafe Bar Restaurant,76,144.942139,-37.81434525,Cafe
41-55 Victoria Harbour Promenade,IGG International Buffet and Bar,100,144.9429888,-37.81938143,Cafe
44-64 Spencer Street,Restaurant 1903,75,144.9548831,-37.81970047,Cafe
133-139 City Road,Dee Casa,16,144.9635826,-37.82348388,Cafe
267-275 Flinders Lane,RMB Cafe,18,144.9654844,-37.81710105,Cafe
11-37 Exhibition Street,Grill'd,36,144.9717262,-37.81546152,Cafe
168 Russell Street,Hakata Genuke,30,144.9681879,-37.8122734,Cafe
500-514 Collins Street,Cafenatics On Church ,47,144.9574732,-37.81753383,Cafe
169 Lygon Street,Stuzzichino,34,144.9664569,-37.80171819,Cafe
53-57 Lonsdale Street,Healthy Nibbles Cafe,20,144.9707149,-37.81005686,Cafe
180-184 Victoria Parade,Basement Espresso,94,144.9778946,-37.80895362,Cafe
2 Collins Street,Cafe Alcaston,35,144.9735468,-37.81304887,Cafe
39-43 Bourke Street,Lanes Edge Cafe,14,144.9720472,-37.81193572,Cafe
241-245 Collins Street,Ganache Chocolate Lounge,16,144.9658313,-37.81606673,Cafe
182 Collins Street,Teppanyaki Inn,70,144.9674537,-37.81479918,Cafe
63-65 George Street,George Street Cafe,24,144.9881843,-37.81575788,Cafe
61-69 A'Beckett Street,B Churrasco,180,144.961749,-37.80919305,Cafe
551-555 Little Lonsdale Street,Mapo Grill & Bar ,64,144.9555653,-37.81329521,Cafe
156-164 Cardigan Street,Don Tojo,48,144.9656265,-37.80132569,Cafe
505-507 Macaulay Road,Mr Piccolo Kitchen and Bar,40,144.9292429,-37.79454041,Cafe
46-74 Flinders Street,Gazi,160,144.9727209,-37.81546181,Cafe
189-195 Exhibition Street,369 Chinese Restaurant,50,144.9699123,-37.81128986,Cafe
555 Bourke Street,Famish'd,32,144.9578132,-37.81636534,Cafe
48-50 Flemington Road,Shuji Sushi,32,144.9501914,-37.79382016,Cafe
743-751 Swanston Street,KFC Carlton,22,144.9636423,-37.8006201,Cafe
93-101 Spring Street,Coffee Exchange,18,144.9731836,-37.81260039,Cafe
644-658 Swanston Street,Oko Oko,40,144.9642823,-37.80131908,Cafe
297-307 Victoria Street,One Star Coffee Lounge,25,144.9513664,-37.80562951,Cafe
85-161 Spencer Street,Mad Mex,38,144.9523393,-37.81815358,Cafe
150-170 Harbour Esplanade,Broadcast Cafe,90,144.9458827,-37.81566514,Cafe
183-265 La Trobe Street,Wood N Chimney,180,144.9630189,-37.81073331,Cafe
519-539 St Kilda Road,Shuji Sushi,18,144.9798191,-37.8455379,Cafe
401 Rathdowne Street,St Ann's On Rathdowne Street,22,144.9703208,-37.79692164,Cafe
111-129 Bourke Street,Roll'd Southen Cross Lane,25,144.9701092,-37.81281453,Cafe
296-310 La Trobe Street,Klik Cafe ,70,144.9604349,-37.81010387,Cafe
720-750 Collins Street,Simmer Pronto ,72,144.9492736,-37.81999404,Cafe
394-400 Lonsdale Street,Hash Specialty Coffee And Roasters,10,144.9605306,-37.81240787,Cafe
427-457 Swanston Street,Level Seven Cafe,40,144.9626932,-37.80826292,Cafe
252-254 Flinders Lane,Cafe Issus,40,144.9655966,-37.8166033,Cafe
100 St Kilda Road,Centro Espresso,54,144.9682264,-37.82094188,Cafe
6-8 Anderson Street,Roller Door Cafe,10,144.9421307,-37.80592001,Cafe
 Wellington Parade,The Pavilion,92,144.9804557,-37.81296163,Cafe
221-223 Russell Street,Nam Loong Restaurant,50,144.9671667,-37.81140869,Cafe
316-318 Lygon Street,Copperwood ,33,144.9676,-37.79962339,Cafe
1-9 Freshwater Place,Crintis Southbank,38,144.962154,-37.82167834,Cafe
10-14 Errol Street,Sosta Cucina,22,144.9495689,-37.80483255,Cafe
173-181 Victoria Street,Nando's,36,144.9556037,-37.80606639,Cafe
11-17 Cohen Place,Tea House At Chinatown,100,144.9689152,-37.81104301,Cafe
209-227 Spring Street,Supergrind Cafe,18,144.9718354,-37.80990475,Cafe
740-750 Swanston Street,E Dumpling,32,144.9647653,-37.79899938,Cafe
138 Queensberry Street,Queens Cafe,8,144.9642948,-37.80444614,Cafe
99-127 Pearl River Road,Igloo Cafe & St Moritz Bar,80,144.9356321,-37.81223232,Cafe
113 Little Bourke Street,Famous Hotpot & BBQ,120,144.9691026,-37.8115616,Cafe
172-176 Little Bourke Street,Jin Dumpling And Noodle House,100,144.96713,-37.8118553,Cafe
211-213 Swanston Street,Yoyogi Japanese Cafe,98,144.9650158,-37.81284647,Cafe
398-400 Lygon Street,Trotters Restaurant,24,144.9677565,-37.79763393,Cafe
466-468 Little Lonsdale Street,Gue on Brights Place,16,144.955573,-37.81290439,Cafe
111-129 Queen Street,Lanai Restaurant & Bar,40,144.9606367,-37.81581152,Cafe
183 Elgin Street,Gemma Simple Italian,10,144.9683841,-37.79752965,Cafe
193 Flemington Road,Refs Cafe,30,144.9484238,-37.79508314,Cafe
34-60 Little Collins Street,Soi 38,37,144.9719189,-37.81246632,Cafe
126-142 Victoria Parade,Zouki Cafe Eye & Ear Hospital,52,144.9762558,-37.80899054,Cafe
669-675 Bourke Street,Kinfolk Cafe,36,144.9541004,-37.81721781,Cafe
6-12 Miles Street,8 On Miles,8,144.9679695,-37.82843322,Cafe
221 Little Lonsdale Street,Sushi Sushi ,61,144.9657034,-37.810658,Cafe
53-57 Lonsdale Street,Kenny's Bakery Cafe,6,144.9707149,-37.81005686,Cafe
578-606 Bourke Street,"The Attic, Artisan Bread And Cafe",100,144.9561073,-37.81571393,Cafe
403 St Kilda Road,Earl Canteen,12,144.975942,-37.83587066,Cafe
207-213 Queen Street,Sool Tong,20,144.9599073,-37.81386746,Cafe
143-145 Bourke Street,Izakya Hachibeh,80,144.9690422,-37.81278439,Cafe
70 Therry Street,Invita,36,144.9572395,-37.80745984,Cafe
475-485 Flinders Lane,Masala Grill,120,144.9581001,-37.81936891,Cafe
744-770 Bourke Street,Kagawa Japanese Cafe,8,144.947217,-37.81817241,Cafe
159 Pelham Street,Briscola Espresso,30,144.9612607,-37.80241321,Cafe
97-103 Flemington Road,Avist Cafe ,40,144.9527053,-37.79844295,Cafe
1-7 Lygon Street,No1 Steam Boat,4,144.9656386,-37.80673947,Cafe
249-263 Faraday Street,Wild Timor Coffee Carlton Pty Ltd,17,144.9652584,-37.7987209,Cafe
222-224 Pelham Street,Books N Bites Cafe,60,144.9583287,-37.80169537,Cafe
292-298 Flinders Street,Kimchi Tray,36,144.9643537,-37.81807489,Cafe
509-515 St Kilda Road,In a Rush,50,144.9793624,-37.8441033,Cafe
2 Convention Centre Place,Dock 37 Bar & Kitchen,500,144.9523782,-37.82539976,Cafe
791-847 Collins Street,Koji Sushi,30,144.9457644,-37.82205739,Cafe
20-30 Convention Centre Place,Dumpling Dynasty,49,144.9523782,-37.82539976,Cafe
813-817 Bourke Street,Melbourne Vietnam Noodle House,60,144.9446836,-37.81993681,Cafe
40-56 Queens Bridge Street,Mesh/Tonic Bar,350,144.9597768,-37.8238538,Cafe
48-50 Grattan Street,Il Vicolo,4,144.96788,-37.80059699,Cafe
432-446 Docklands Drive,Gloria Jean's Coffees Harbour Town,15,144.9378299,-37.81315031,Cafe
549-551 St Kilda Road,Epicure Kitchen Cafe,104,144.9802844,-37.84659007,Cafe
180-184 Victoria Parade,Basement Espresso,9,144.9778946,-37.80895362,Cafe
171-175 Elgin Street,The Shaw Davey Slum,300,144.9687079,-37.79750574,Cafe
269-321 Lonsdale Street,Chocolate Bar New York,100,144.9638386,-37.81245199,Cafe
326-328 Lygon Street,DOC Espresso,50,144.9674735,-37.79932164,Cafe
990 La Trobe Street,O-Bento,16,144.9467679,-37.81384049,Cafe
199-209 Collins Street,Starbucks,25,144.9674304,-37.81584777,Cafe
199-209 Collins Street,Allegro Restaurant,75,144.9674304,-37.81584777,Cafe
132-142 Wellington Parade,Il Duca Restaurant,60,144.9855915,-37.81618515,Cafe
15-19 Swanston Street,Hungry Jack's Pty Ltd,277,144.9668342,-37.81709702,Cafe
38-46 Sabre Drive,Sabre Cafe,74,144.9063359,-37.82797655,Cafe
213-215 Lonsdale Street,Pacific BBQ Cafe ,100,144.9661427,-37.81144245,Cafe
114-120 Russell Street,Izakaya Den,52,144.9689753,-37.81350285,Cafe
113 Lonsdale Street,Seamstress,20,144.9690111,-37.81056538,Cafe
790-814 Collins Street,Heavy D's Cafe & Sanwich Bar,14,144.9458305,-37.821044,Cafe
309 Exhibition Street,65 Degrees ,22,144.9687244,-37.80874125,Cafe
744-770 Bourke Street,Halyard Coffee,4,144.947217,-37.81817241,Cafe
433 Little Collins Street,Dikstein's Corner Bar,36,144.9603413,-37.81631094,Cafe
2 Swanston Street,Taxi Riverside,250,144.9699175,-37.81784465,Cafe
459 Collins Street,Billi Green's,150,144.9589237,-37.81817724,Cafe
338-352 Bourke Street,Federal Coffee Palace,155,144.9632879,-37.81360425,Cafe
27-45 Whiteman Street,Subway,30,144.9583432,-37.82559096,Cafe
511 Spencer Street,Junie Moon's,20,144.9485541,-37.80875296,Cafe
416-420 Collins Street,Subway,22,144.9603119,-37.8169991,Cafe
3 Southgate Avenue,Lindt Chocolate Cafe,50,144.9662623,-37.82066923,Cafe
612-620 Bourke Street,Hudson's Coffee,30,144.9553253,-37.81622847,Cafe
272-282 Lonsdale Street,Sakura Kaiten Sushi II,30,144.9639969,-37.81152964,Cafe
541-543 St Kilda Road,J&K  Cafe,30,144.9800592,-37.84607473,Cafe
55 Newquay Promenade,Cargo Cafe & Bar,50,144.9414051,-37.8153411,Cafe
23-37 Star Crescent,San Churro,64,144.9378299,-37.81315031,Cafe
61-73 Flinders Lane,Cecconi's Flinders Lane,12,144.9725123,-37.81506474,Cafe
134-144 Bourke Street,Shark Fin House,380,144.9688573,-37.81199769,Cafe
380-384 Little Bourke Street,Blok M Express,50,144.9613283,-37.81354346,Cafe
220-226 Collins Street,Switchboard Cafe,30,144.9661258,-37.81528474,Cafe
295-301 Exhibition Street,Miss Chu,12,144.9688284,-37.80893166,Cafe
20-30 Convention Centre Place,Signature Pho Viet,20,144.9523782,-37.82539976,Cafe
507-523 Elizabeth Street,Pickett's Deli & Rotisserie,42,144.9572395,-37.80745984,Cafe
8 Whiteman Street,Cafe Baci's,100,144.9586604,-37.82312164,Cafe
309-325 Bourke Street,Riva Cafe Bar,46,144.9645323,-37.81445406,Cafe
18-38 Siddeley Street,Man Mo @ Wtc,110,144.9536422,-37.82253633,Cafe
160-162 Rathdowne Street,Calrton Pizzeria Bar and Restaurant,12,144.9711231,-37.79553609,Cafe
178-190 Little Bourke Street,Petaling Street Malaysian Hawker Food,110,144.966942,-37.81186912,Cafe
471 Elizabeth Street,CY Sushi & Noodle,14,144.9599508,-37.80794087,Cafe
80 Dorcas Street,Cafe Clicquot,16,144.9662961,-37.83070462,Cafe
228-236 Flinders Street,Kim Sing Chinese Restaurant,40,144.9665517,-37.81724878,Cafe
446-452 Collins Street,Macchiato On Collins,22,144.959442,-37.81730302,Cafe
715-727 Bourke Street,Asuka Sushi,18,144.9502584,-37.81864992,Cafe
7-9 Waratah Place,New Kum Den Chinese Restaurant,70,144.9669911,-37.81162502,Cafe
788-812 Bourke Street,Black Cod,45,144.9451224,-37.81888389,Cafe
69-71 Errol Street,Errol's Cafe,40,144.9490835,-37.80345572,Cafe
840-850 Collins Street,Little Bean Dockside,75,144.9445328,-37.82092961,Cafe
201-207 Elizabeth Street,Schnitz,20,144.9626049,-37.81366344,Cafe
183-265 La Trobe Street,Food Inc.,20,144.9630189,-37.81073331,Cafe
295-297 Drummond Street,Doc Pizza & Mozarella Bar,30,144.9684438,-37.7989855,Cafe
421-423 Little Collins Street,Shamble Coffee Brewers,16,144.9606374,-37.81622852,Cafe
141-165 Collins Street,Urban Express,160,144.9687553,-37.81543178,Cafe
8 Whiteman Street,The Atlantic/The Den /The Oyster Bar & Grill/ Fish & Chippery by The Atlantic,200,144.9586604,-37.82312164,Cafe
829-843 Bourke Street,Shinsei Fish & Sushi Bar ,72,144.9434599,-37.82044558,Cafe
384-390 Little Collins Street,STREAT,30,144.9617411,-37.81560573,Cafe
562-564 Queensberry Street,Bela Bistro,8,144.9487134,-37.80271962,Cafe
49 Rathdowne Street,Epocha Restaurant,100,144.9685944,-37.80578725,Cafe
348-358 La Trobe Street,The Basement Cafe,35,144.9592776,-37.81067976,Cafe
433-435 Elizabeth Street,Rose Garden Barbecue Shop,24,144.9603439,-37.80885861,Cafe
212-222 La Trobe Street,By Korea ,44,144.9628763,-37.80962882,Cafe
121-123 Flinders Lane,Sake Restaurant and Bar,125,144.9705132,-37.81567009,Cafe
555 La Trobe Street,Cafe 555,60,144.9528962,-37.81327283,Cafe
118-126 Queen Street,CoF.E.Fix,32,144.9612988,-37.81565401,Cafe
48-50 Flemington Road,Degani Bakery Cafe,45,144.9501914,-37.79382016,Cafe
562-564 Queensberry Street,Bela Bistro,40,144.9487134,-37.80271962,Cafe
25 Newquay Promenade,Fish Bar,60,144.9427543,-37.81473601,Cafe
124 Lygon Street,Thai City Restaurant,24,144.9666993,-37.80443778,Cafe
374-380 Lonsdale Street,Woochon,50,144.9611344,-37.81200936,Cafe
151 Lygon Street,Tank Fish And Chippery ,18,144.9661179,-37.80366248,Cafe
99-109 Lygon Street,Toto's Pizza,70,144.9659744,-37.80449163,Cafe
110 Lygon Street,Ying Thai 2,30,144.9666993,-37.80443778,Cafe
599 Elizabeth Street,Cafe Perri & Perri Cine Video and Photography,18,144.9581215,-37.80434979,Cafe
723-741 Swanston Street,Cafe Fillings,22,144.9634142,-37.80087264,Cafe
263-329 Lorimer Street,Ocean View Cafe Port Melbourne,30,144.9052161,-37.82483593,Cafe
612-620 Bourke Street,Dosa Corner,50,144.9553253,-37.81622847,Cafe
335-349 Little Collins Street,Healthy Sushi Melbourne,24,144.9632938,-37.81554941,Cafe
84-86 Elizabeth Street,Hudsons Elizabeth Street,31,144.9641934,-37.81591326,Cafe
304-328 Swanston Street,The Moat Bar & Cafe,40,144.965306,-37.80976881,Cafe
507-523 Elizabeth Street,Cafe Victoria,38,144.9572395,-37.80745984,Cafe
242-284 Exhibition Street,Bros Sushi,12,144.9699756,-37.80941489,Cafe
162 Albert Street,Gourmet Pizza Bar,50,144.9856254,-37.81004657,Cafe
203-207 Lonsdale Street,Carribbean Grilled Fish by China Chilli,16,144.9663534,-37.81133175,Cafe
48-50 Flemington Road,Aruba Espresso Cafe,32,144.9501914,-37.79382016,Cafe
221-231 Queen Street,Speck Cafe,2,144.9597543,-37.81355361,Cafe
167 Lygon Street,Kokoblack,30,144.966446,-37.80178513,Cafe
403 St Kilda Road,Earl Canteen,13,144.975942,-37.83587066,Cafe
519-539 St Kilda Road,Rosco's @ Chevron,68,144.9798191,-37.8455379,Cafe
34 Courtney Street,Akita Japanese Restaurant,60,144.9544611,-37.80204173,Cafe
183-265 La Trobe Street,Spiga,100,144.9630189,-37.81073331,Cafe
198-204 Bellair Street,The Premises Espresso,20,144.9301769,-37.79426147,Cafe
520-536 Little Collins Street,Chestnut Exchange Cafe,68,144.957088,-37.81686865,Cafe
48-50 Flemington Road,Smith And Singleton,200,144.9501914,-37.79382016,Cafe
11-19 Liverpool Street,Shimbashi Japanese Soba & Sake Bar,8,144.9713242,-37.81131159,Cafe
147-149 Bourke Street,Gyoza Douraku,12,144.9689721,-37.81280567,Cafe
111-129 Bourke Street,Healthy Habits Cafe,24,144.9701092,-37.81281453,Cafe
166-186 Little Collins Street,Il Bacaro Cucina E Bar,45,144.9678599,-37.81376794,Cafe
338-344 Queen Street,Niku Niku Japanese Gourmet,41,144.9590294,-37.81075124,Cafe
20-30 Convention Centre Place,Mad Mex,28,144.9523782,-37.82539976,Cafe
8 Whiteman Street,San Antone,187,144.9586604,-37.82312164,Cafe
331-339 Bourke Street,Caffe E Torta,24,144.964049,-37.81458812,Cafe
221 Little Lonsdale Street,Chocolateria San Churro QV,40,144.9657034,-37.810658,Cafe
502-506 Victoria Street,Faces & Places,12,144.9495517,-37.80497299,Cafe
33-35 Guildford Lane,Rustica Canteen,48,144.9598612,-37.81146107,Cafe
393-397 Little Bourke Street,Triim,24,144.9612043,-37.8138513,Cafe
193-195 Little Bourke Street,Dessert Story,60,144.9668265,-37.81221773,Cafe
24-28 Collins Street,McDonald's,18,144.9727083,-37.81342593,Cafe
170 Bellair Street,Pimm Thai Cafe,20,144.9299154,-37.79353782,Cafe
405-407 Collins Street,Bluebag,15,144.9611131,-37.81745676,Cafe
3 Southgate Avenue,Bluetrain,180,144.9662623,-37.82066923,Cafe
3 Central Boulevard,Portside Deli,44,144.9187862,-37.82221049,Cafe
24-42 Newquay Promenade,Achelya Cafe,120,144.942139,-37.81434525,Cafe
254-258 Queen Street,Red Cliff Chinese Restaurant,78,144.9599448,-37.81247811,Cafe
19-35 Queen Street,Luca's Cafe,36,144.9617799,-37.81822749,Cafe
1 Star Circus,Nando's,35,144.9378299,-37.81315031,Cafe
304-328 Swanston Street,Mr Tulk Cafe,70,144.965306,-37.80976881,Cafe
408-416 Queen Street,Phancy Cafe & Catering ,10,144.9585116,-37.80897917,Cafe
133-159 Victoria Street,Josies Food Bar,29,144.9572395,-37.80745984,Cafe
121 Exhibition Street,Axil Coffee Roasters,23,144.9701092,-37.81281453,Cafe
181 William Street,Sakae,20,144.9573923,-37.81531863,Cafe
302-308 Flinders Lane,Cafe Bar Mile,50,144.9638971,-37.81719967,Cafe
124 La Trobe Street,Pearson and Murph'y Cafe,80,144.9645504,-37.80818365,Cafe
23-99 Commercial Road,Alf's Cafe,244,144.982664,-37.84633593,Cafe
613-639 Little Collins Street,In Zone Cafe,44,144.9543659,-37.81818484,Cafe
661-667 Spencer Street,Tong Fu Garden Melbourne,36,144.9444471,-37.80624547,Cafe
555 Bourke Street,Simply Spanish,50,144.9578132,-37.81636534,Cafe
200-202 La Trobe Street,Yami Yami 3 ,80,144.96321,-37.80953222,Cafe
330-332 Cardigan Street,Le Miel Et Le Lune,4,144.9663778,-37.79685803,Cafe
54-60 Market Street,Oak & Vine Restaurant,68,144.9608283,-37.81778076,Cafe
85-87 Peel Street,Hello Jose,30,144.9555843,-37.80619737,Cafe
555 Bourke Street,Pok Pok Junior,50,144.9578132,-37.81636534,Cafe
58-70 Lorimer Street,Zen Izakaya,100,144.946356,-37.82488026,Cafe
27-33 City Road,Spire,40,144.9668813,-37.82169186,Cafe
181-183 King Street,La Figo,62,144.9551743,-37.81589843,Cafe
394-400 Lonsdale Street,Yami Yami,36,144.9605306,-37.81240787,Cafe
1-9 Powlett Street,My Sushi Japanese Cafe,6,144.9848341,-37.81608793,Cafe
459-475 Little Bourke Street,Alibi Kitchen & Bar,12,144.9590443,-37.81456798,Cafe
398-400 Lygon Street,Trotters Restaurant,125,144.9677565,-37.79763393,Cafe
121 Exhibition Street,In a Rush,24,144.9701092,-37.81281453,Cafe
47 Errol Street,Wonky Trolley,30,144.9490476,-37.80390823,Cafe
829-843 Bourke Street,D G Expresso,36,144.9434599,-37.82044558,Cafe
317-321 Little Collins Street,Cafe Segovia,46,144.9642254,-37.81528948,Cafe
176 Rathdowne Street,Bangkok Rain ,23,144.9711745,-37.79523278,Cafe
700-704 Bourke Street,Story Coffee & Food Store,12,144.9493733,-37.81733574,Cafe
149 Lygon Street,Tank Fish And Chippery ,18,144.9661127,-37.80369873,Cafe
132-134 Russell Street,Ba'get,24,144.9685948,-37.81316722,Cafe
175 Russell Street,Mr Kitchen,55,144.9675678,-37.8123356,Cafe
291-293 Elizabeth Street,Oriental Spoon,150,144.9617094,-37.81179183,Cafe
816 Lorimer Street,Bolte Cafe,52,144.9309535,-37.82210926,Cafe
2-24 Waterview Walk,Twirled Pasta Bar,25,144.9479753,-37.81925128,Cafe
399-413 Lonsdale Street,Claypots Barbarossa,10,144.9606809,-37.81303978,Cafe
2 Swanston Street,Il Pom Italian,70,144.9699175,-37.81784465,Cafe
335-349 Little Collins Street,Souperman,12,144.9632938,-37.81554941,Cafe
2 Convention Centre Place,Melbourne Public,100,144.9523782,-37.82539976,Cafe
807-811 Bourke Street,Cafernatics Forte,31,144.9450661,-37.81970478,Cafe
132-142 Wellington Parade,Il Duca Restaurant,5,144.9855915,-37.81618515,Cafe
265-279 Little Bourke Street,The Louden Kitchen & Grill,150,144.9646469,-37.81288667,Cafe
12-18 Meyers Place,Pizza Pizza Pizza,40,144.972451,-37.81221617,Cafe
133-135 Flinders Lane,Meatball & Wine Bar,27,144.9701585,-37.81573536,Cafe
235-251 Bourke Street,Momo Station,18,144.9665978,-37.81376503,Cafe
117 Grattan Street,Roy's Cafe,24,144.9656241,-37.80080042,Cafe
7-9 Elizabeth Street,Pepperoni's,60,144.9645503,-37.81793185,Cafe
188-202 King Street,La Di Da,250,144.9556244,-37.81551353,Cafe
20-22 Kavanagh Street,Ten Years,9,144.9658273,-37.82280752,Cafe
487 Elizabeth Street,Podok Rempah,45,144.9597917,-37.80760291,Cafe
107-113 Collins Street,Il Solito Posto,70,144.9702598,-37.81468591,Cafe
68 Victoria Street,Carlton Megabytes,33,144.9655262,-37.80671734,Cafe
441-443 Little Bourke Street,The Taste of Korchi City,60,144.959659,-37.81430686,Cafe
673-683 La Trobe Street,Yummy Hut,32,144.9475368,-37.81486994,Cafe
196-212 Little Collins Street,Stellini Bar,32,144.9671568,-37.81384227,Cafe
535 Little Lonsdale Street,Back Pocket Little Lonsdale,15,144.9560169,-37.8134766,Cafe
3 Southgate Avenue,Waterfront (Southgate),192,144.9662623,-37.82066923,Cafe
353-359 Little Collins Street,Madame Squint,20,144.9629844,-37.81570426,Cafe
87-89 Flinders Lane,Terra Rossa,80,144.9713925,-37.81542975,Cafe
541-547 Spencer Street,Embassy Cafe,40,144.9477871,-37.80811106,Cafe
179 King Street,Woodo,54,144.9552051,-37.81596556,Cafe
333-351 Exhibition Street,The Terrace Restaurant Bar & Grill ,15,144.9680267,-37.8078604,Cafe
744-770 Bourke Street,Nando's,110,144.947217,-37.81817241,Cafe
143-175 Harbour Esplanade,Va Bene Pizzeria,180,144.9435654,-37.8165193,Cafe
221 Little Lonsdale Street,Meshiya Japanese Restaurant,50,144.9657034,-37.810658,Cafe
305-307 Exhibition Street,B & B' Guette Cafe,6,144.9687626,-37.80879339,Cafe
538-542 Little Collins Street,Piccolocino,22,144.956774,-37.81695942,Cafe
788-812 Bourke Street,Sushi Wang,16,144.9451224,-37.81888389,Cafe
185 King Street,King Jons,47,144.9551492,-37.81584127,Cafe
562-574 Bourke Street,The Common,8,144.9567557,-37.81550891,Cafe
103-105 Lonsdale Street,Bomba Tapas Bar and Rooftop,118,144.9692541,-37.81049305,Cafe
142-148 Flinders Street,Dutchess,100,144.9700863,-37.81640747,Cafe
412-414 Collins Street,Taco Bill Collins Street,80,144.960489,-37.81698962,Cafe
612-624 Collins Street,Gloria Jean's Coffees,6,144.9543505,-37.81867544,Cafe
 Peel Street,Tribel Cafe,36,144.9572395,-37.80745984,Cafe
63-75 Coventry Street,Restuarant Ayams Chef,85,144.9679591,-37.82998246,Cafe
201-203 Lygon Street,Borsari Ristorante,70,144.9666725,-37.80089707,Cafe
430-442 Collins Street,Sunny Boy Cafe,34,144.9597623,-37.81703239,Cafe
2 Lonsdale Street,Mr Speaker ,75,144.9714146,-37.8090402,Cafe
292 Lygon Street,Minzaman Lebanese Restaurant,43,144.9673338,-37.80013942,Cafe
432-446 Docklands Drive,Gloria Jean's Coffees Harbour Town,28,144.9378299,-37.81315031,Cafe
48-50 Flemington Road,Degani Bakery Cafe,20,144.9501914,-37.79382016,Cafe
103-105 Queen Street,Aki Sushi ,70,144.9608476,-37.81614776,Cafe
136-140 Elizabeth Street,Pho Flinders,10,144.963743,-37.81484304,Cafe
515 Little Bourke Street,Slate Restaurant Bar,105,144.9573923,-37.81531863,Cafe
60 Olympic Boulevard,Edwin's Cafe,150,144.9823854,-37.82487806,Cafe
65-67 Flemington Road,Mum Mum Asian Street Food,4,144.9540004,-37.79936937,Cafe
163-261 Spencer Street,Coffee Rush,13,144.951187,-37.81501701,Cafe
439-441 Docklands Drive,Almina,220,144.9390269,-37.81517782,Cafe
