MeterId,AssetId,Barcode,CreditCard,TapAndGo,MeterType,StreetName,Longitude,Latitude,Location
GPW1,1647783,MPM1647783,YES,YES,Reino TTX-S,Geographe Street,144.94519526513153,-37.81969027975531,"(-37.819690279755, 144.945195265132)"
124TA,1629539,MPM1629539,YES,YES,Cale CWT-C,Dodds Street,144.96724468306365,-37.83060990590586,"(-37.830609905906, 144.967244683064)"
337A,1647784,MPM1647784,YES,YES,Reino TTX-S,Rosslyn Street,144.9478551755557,-37.80989660231165,"(-37.809896602312, 144.947855175556)"
337B,1647785,MPM1647785,YES,YES,Reino TTX-S,Rosslyn Street,144.9488595960221,-37.80966518942013,"(-37.80966518942, 144.948859596022)"
209A,1647645,MPM1647645,YES,YES,Reino TTX-S,Bedford Street,144.95615700585253,-37.801968545863815,"(-37.801968545864, 144.956157005853)"
374A,1647646,MPM1647646,YES,YES,Reino TTX-S,Victoria Street,144.9555910475334,-37.805948273607896,"(-37.805948273608, 144.955591047533)"
352A,1647105,MPM1647105,YES,YES,Reino TVX,Victoria Street,144.9697232970336,-37.80728011456029,"(-37.80728011456, 144.969723297034)"
PRE2,1620156,MPM1620156,YES,NO,Reino VX1,Pearl River Road,144.93656404982576,-37.81277820071696,"(-37.812778200717, 144.936564049826)"
130B,1647787,MPM1647787,YES,YES,Reino TTX-S,Walsh Street,144.9529741224953,-37.80827827327172,"(-37.808278273272, 144.952974122495)"
380A,1647788,MPM1647788,YES,YES,Reino TTX-S,Howard Street,144.95336846724513,-37.806669419600226,"(-37.8066694196, 144.953368467245)"
380B,1647789,MPM1647789,YES,YES,Reino TTX-S,Howard Street,144.9535632360357,-37.80680653903779,"(-37.806806539038, 144.953563236036)"
206A,1647735,MPM1647735,YES,YES,Reino TTX-S,The Avenue,144.9571547408052,-37.78886821935832,"(-37.788868219358, 144.957154740805)"
ZOOT22,1629557,MPM1629557,YES,YES,Cale CWT-C,Elliott Avenue,144.95196904117554,-37.78677191866955,"(-37.78677191867, 144.951969041176)"
ZOOT17,1629560,MPM1629560,YES,YES,Cale CWT-C,Elliott Avenue,144.95421736115708,-37.784938633437584,"(-37.784938633438, 144.954217361157)"
ZOOT18,1629568,MPM1629568,YES,YES,Cale CWT-C,Elliott Avenue,144.95483629984093,-37.78444922853569,"(-37.784449228536, 144.954836299841)"
722A,1647318,MPM1647318,YES,YES,Cale CWT-C Touch,Riverside Quay,144.96358349512153,-37.82159253061528,"(-37.821592530615, 144.963583495122)"
728A,1647319,MPM1647319,YES,YES,Cale CWT-C Touch,Clarke Street,144.95904815971736,-37.826461067256666,"(-37.826461067257, 144.959048159717)"
615A,1647320,MPM1647320,YES,YES,Cale CWT-C Touch,Flinders Lane,144.95763129158112,-37.81930823861795,"(-37.819308238618, 144.957631291581)"
615B,1647321,MPM1647321,YES,YES,Cale CWT-C Touch,Flinders Lane,144.95925324938588,-37.81883847209113,"(-37.818838472091, 144.959253249386)"
587A,1647322,MPM1647322,YES,YES,Cale CWT-C Touch,Spencer Street,144.95077097053644,-37.81140651871275,"(-37.811406518713, 144.950770970536)"
587B,1647323,MPM1647323,YES,YES,Cale CWT-C Touch,Spencer Street,144.95056149758278,-37.81159141674251,"(-37.811591416743, 144.950561497583)"
718A,1647324,MPM1647324,YES,YES,Cale CWT-C Touch,Kavanagh Street,144.96643276710884,-37.8228267770271,"(-37.822826777027, 144.966432767109)"
718B,1647325,MPM1647325,YES,YES,Cale CWT-C Touch,Kavanagh Street,144.96675688491538,-37.82282574203234,"(-37.822825742032, 144.966756884915)"
631A,1647328,MPM1647328,YES,YES,Cale CWT-C Touch,Little Collins Street,144.9592413025957,-37.81652109223487,"(-37.816521092235, 144.959241302596)"
631B,1647329,MPM1647329,YES,YES,Cale CWT-C Touch,Little Collins Street,144.95986783238249,-37.81627222189719,"(-37.816272221897, 144.959867832383)"
712A,1647330,MPM1647330,YES,YES,Cale CWT-C Touch,City Road,144.95889793929848,-37.82709316861435,"(-37.827093168614, 144.958897939298)"
686A,1647331,MPM1647331,YES,YES,Cale CWT-C Touch,Therry Street,144.95872984000115,-37.80738066902977,"(-37.80738066903, 144.958729840001)"
PS1,1620111,MPM1620111,YES,NO,Reino VX1,St Andrews Place,144.97733520113482,-37.8121404390391,"(-37.812140439039, 144.977335201135)"
DN24,1620112,MPM1620112,YES,NO,Reino VX1,Bourke Street,144.94167688769855,-37.820342463067945,"(-37.820342463068, 144.941676887699)"
535B,1647327,MPM1647327,YES,YES,Cale CWT-C Touch,Elizabeth Street,144.9610888963124,-37.8094616404191,"(-37.809461640419, 144.961088896312)"
522A,1647335,MPM1647335,YES,YES,Cale CWT-C Touch,Russell Street,144.9671067615599,-37.810305877762495,"(-37.810305877762, 144.96710676156)"
ZOOT2,1629571,MPM1629571,YES,YES,Cale CWT-C,Poplar Road,144.95077567198226,-37.781744593817976,"(-37.781744593818, 144.950775671982)"
359TA,1630413,MPM1630413,YES,YES,Reino TTX,Lytton Street,144.96713936176764,-37.79354621427657,"(-37.793546214277, 144.967139361768)"
130A,1647786,MPM1647786,YES,YES,Reino TTX-S,Walsh Street,144.95300516728926,-37.8084225684166,"(-37.808422568417, 144.953005167289)"
NAE3,1620150,MPM1620150,YES,NO,Reino VX1,Nicholson Street,144.97322195129937,-37.808560381364515,"(-37.808560381365, 144.973221951299)"
JAW1,1620152,MPM1620152,YES,NO,Reino VX1,Gisborne Street,144.97530424325146,-37.810554796764464,"(-37.810554796764, 144.975304243251)"
VN1,1620157,MPM1620157,YES,NO,Reino VX1,Albert Street,144.97428884305322,-37.80928274012333,"(-37.809282740123, 144.974288843053)"
RW63,1620158,MPM1620158,YES,NO,Reino VX1,Lansdowne Street,144.97824850392405,-37.8094428288153,"(-37.809442828815, 144.978248503924)"
PW3,1620199,MPM1620199,YES,NO,Reino VX1,Parliament Place,144.9754293156957,-37.81111203686092,"(-37.811112036861, 144.975429315696)"
NAW2,1620149,MPM1620149,YES,NO,Reino VX1,Nicholson Street,144.97290603723948,-37.80880780496721,"(-37.808807804967, 144.972906037239)"
RE82,1620120,MPM1620120,YES,NO,Reino VX1,Lansdowne Street,144.97857168515935,-37.80917495958077,"(-37.809174959581, 144.978571685159)"
JAE1,1620148,MPM1620148,YES,NO,Reino VX1,Gisborne Street,144.97574683428343,-37.81012926383267,"(-37.810129263833, 144.975746834283)"
642A,1647326,MPM1647326,YES,YES,Cale CWT-C Touch,Little Bourke Street,144.97061900696323,-37.81099033742911,"(-37.810990337429, 144.970619006963)"
660A,1647587,MPM1647587,YES,YES,Cale CWT-C Touch,Little Lonsdale Street,144.96528735997242,-37.810322215600394,"(-37.8103222156, 144.965287359972)"
660B,1647588,MPM1647588,YES,YES,Cale CWT-C Touch,Little Lonsdale Street,144.96631247868132,-37.810012455185124,"(-37.810012455185, 144.966312478681)"
522B,1647336,MPM1647336,YES,YES,Cale CWT-C Touch,Russell Street,144.96676002685183,-37.810203789662964,"(-37.810203789663, 144.966760026852)"
514A,1647589,MPM1647589,YES,YES,Cale CWT-C Touch,Exhibition Street,144.96880471198793,-37.80855953559227,"(-37.808559535592, 144.968804711988)"
ZOOT12,1629635,MPM1629635,YES,YES,Cale CWT-C,Poplar Road,144.95481094658047,-37.783342411171006,"(-37.783342411171, 144.95481094658)"
514B,1647341,MPM1647341,YES,YES,Cale CWT-C Touch,Exhibition Street,144.96915141062826,-37.808676450391204,"(-37.808676450391, 144.969151410628)"
546A,1647571,MPM1647571,YES,YES,Cale CWT-C Touch,Queen Street,144.95929406438736,-37.81159671412509,"(-37.811596714125, 144.959294064387)"
546B,1647572,MPM1647572,YES,YES,Cale CWT-C Touch,Queen Street,144.95903343286713,-37.8116758349979,"(-37.811675834998, 144.959033432867)"
101TC,1630359,MPM1630359,YES,YES,Reino TTX,Princes Park Drive,144.96189426516412,-37.7897475341734,"(-37.789747534173, 144.961894265164)"
ZOOT13,1630436,MPM1630436,YES,YES,Cale CWT-C,Poplar Road,144.95542133082964,-37.783838473673,"(-37.783838473673, 144.95542133083)"
547A,1647575,MPM1647575,YES,YES,Cale CWT-C Touch,Queen Street,144.95853092697752,-37.810565409783784,"(-37.810565409784, 144.958530926978)"
547B,1647576,MPM1647576,YES,YES,Cale CWT-C Touch,Queen Street,144.95878054929486,-37.810473879186176,"(-37.810473879186, 144.958780549295)"
654A,1647595,MPM1647595,YES,YES,Cale CWT-C Touch,Lonsdale Street,144.96027573682204,-37.812745338515064,"(-37.812745338515, 144.960275736822)"
654B,1647596,MPM1647596,YES,YES,Cale CWT-C Touch,Lonsdale Street,144.96091119329245,-37.812790823544404,"(-37.812790823544, 144.960911193292)"
654C,1647597,MPM1647597,YES,YES,Cale CWT-C Touch,Lonsdale Street,144.96158439568086,-37.81236391337735,"(-37.812363913377, 144.961584395681)"
213TB,1630235,MPM1630235,YES,NO,Reino TX-P,St Kilda Road,144.9805342016259,-37.84912458550654,"(-37.849124585507, 144.980534201626)"
213TA,1630320,MPM1630320,YES,NO,Reino TX-P,St Kilda Road,144.98024002308054,-37.84830494941705,"(-37.848304949417, 144.980240023081)"
575A,1647591,MPM1647591,YES,YES,Cale CWT-C Touch,King Street,144.95306640149067,-37.81094585054689,"(-37.810945850547, 144.953066401491)"
509A,1647592,MPM1647592,YES,YES,Cale CWT-C Touch,Exhibition Street,144.97145153217699,-37.813679457738914,"(-37.813679457739, 144.971451532177)"
670A,1647593,MPM1647593,YES,YES,Cale CWT-C Touch,La Trobe Street,144.96250723987504,-37.81009999998877,"(-37.810099999989, 144.962507239875)"
670B,1647598,MPM1647598,YES,YES,Cale CWT-C Touch,La Trobe Street,144.96243626599622,-37.8098885905418,"(-37.809888590542, 144.962436265996)"
161A,1647024,MPM1647024,YES,YES,Reino TVX,Nicholson Street,144.9740585917084,-37.80196648129943,"(-37.801966481299, 144.974058591708)"
161B,1647025,MPM1647025,YES,YES,Reino TVX,Nicholson Street,144.97393329697823,-37.802719468570515,"(-37.802719468571, 144.973933296978)"
ZOOT21,1629566,MPM1629566,YES,YES,Cale CWT-C,Elliott Avenue,144.952369901445,-37.786185390805464,"(-37.786185390805, 144.952369901445)"
ZOOT23,1629570,MPM1629570,YES,YES,Cale CWT-C,Elliott Avenue,144.95059205196284,-37.78743227513849,"(-37.787432275138, 144.950592051963)"
205C,1647790,MPM1647790,YES,YES,Reino TTX-S,The Avenue,144.9571985560988,-37.782450594534204,"(-37.782450594534, 144.957198556099)"
698A,1647594,MPM1647594,YES,YES,Cale CWT-C Touch,Victoria Street,144.95885964474692,-37.805960844981776,"(-37.805960844982, 144.958859644747)"
662A,1647599,MPM1647599,YES,YES,Cale CWT-C Touch,Little Lonsdale Street,144.95978434461463,-37.811850050464095,"(-37.811850050464, 144.959784344615)"
ZOOT4,1629535,MPM1629535,YES,YES,Cale CWT-C,Poplar Road,144.95089162579262,-37.78148058330753,"(-37.781480583308, 144.950891625793)"
ZOOT11,1630110,MPM1630110,YES,YES,Cale CWT-P,Poplar Road,144.95492887856068,-37.783792975625495,"(-37.783792975625, 144.954928878561)"
ZOOT3,1629569,MPM1629569,YES,YES,Cale CWT-C,Poplar Road,144.95041356766916,-37.78170386814547,"(-37.781703868145, 144.950413567669)"
ZOOT1,1629572,MPM1629572,YES,YES,Cale CWT-C,Poplar Road,144.9499306962684,-37.781986184516896,"(-37.781986184517, 144.949930696268)"
159A,1630378,MPM1630378,YES,YES,Reino TTX-S,The Avenue,144.9577343539372,-37.7914989521323,"(-37.791498952132, 144.957734353937)"
101TF,1631147,MPM1631147,YES,YES,Reino TTX,Princes Park Drive,144.9628556720403,-37.78751279672607,"(-37.787512796726, 144.96285567204)"
ZOOT14,1629564,MPM1629564,YES,YES,Cale CWT-C,Poplar Road,144.9552016716433,-37.784034181290494,"(-37.78403418129, 144.955201671643)"
ZOOT19,1629565,MPM1629565,YES,YES,Cale CWT-C,Elliott Avenue,144.9522154320039,-37.78649532379961,"(-37.7864953238, 144.952215432004)"
ZOOT15,1629567,MPM1629567,YES,YES,Cale CWT-C,Elliott Avenue,144.95438507004135,-37.78504995816751,"(-37.785049958168, 144.954385070041)"
ZOOT16,1629575,MPM1629575,YES,YES,Cale CWT-C,Elliott Avenue,144.9549910499474,-37.78457753989654,"(-37.784577539897, 144.954991049947)"
ZOOT20,1630435,MPM1630435,YES,YES,Cale CWT-C,Elliott Avenue,144.952732246691,-37.78610301395252,"(-37.786103013953, 144.952732246691)"
PE1,1620113,MPM1620113,YES,NO,Reino VX1,Parliament Place,144.97558691426718,-37.81111024054537,"(-37.811110240545, 144.975586914267)"
297B,1647055,MPM1647055,YES,YES,Reino TVX,Cardigan Street,144.9650096864368,-37.80394057127239,"(-37.803940571272, 144.965009686437)"
ZOOT5,1629556,MPM1629556,YES,YES,Cale CWT-C,Poplar Road,144.9522183191314,-37.7818904429272,"(-37.781890442927, 144.952218319131)"
711A,1647346,MPM1647346,YES,YES,Cale CWT-C Touch,City Road,144.9594887780133,-37.826328986642444,"(-37.826328986642, 144.959488778013)"
711B,1647347,MPM1647347,YES,YES,Cale CWT-C Touch,City Road,144.95967576217652,-37.82643005860456,"(-37.826430058605, 144.959675762177)"
516A,1647332,MPM1647332,YES,YES,Cale CWT-C Touch,Russell Street,144.96963363539862,-37.81645382168683,"(-37.816453821687, 144.969633635399)"
539A,1647339,MPM1647339,YES,YES,Cale CWT-C Touch,Queen Street,144.9621530596515,-37.818486096567646,"(-37.818486096568, 144.962153059652)"
539B,1647340,MPM1647340,YES,YES,Cale CWT-C Touch,Queen Street,144.96228736630846,-37.81813636791829,"(-37.818136367918, 144.962287366308)"
709A,1647343,MPM1647343,YES,YES,Cale CWT-C Touch,City Road,144.9606374646845,-37.82532824680308,"(-37.825328246803, 144.960637464685)"
709B,1647344,MPM1647344,YES,YES,Cale CWT-C Touch,City Road,144.9616386427853,-37.82476309245853,"(-37.824763092459, 144.961638642785)"
709C,1647345,MPM1647345,YES,YES,Cale CWT-C Touch,City Road,144.96156250477756,-37.82454288806336,"(-37.824542888063, 144.961562504778)"
731A,1647348,MPM1647348,YES,YES,Cale CWT-C Touch,Haig Street,144.9582192029688,-37.82625248235267,"(-37.826252482353, 144.958219202969)"
683C,1647435,MPM1647435,YES,YES,Cale CWT-C Touch,Franklin Street,144.95847482222834,-37.808844642228294,"(-37.808844642228, 144.958474822228)"
712B,1647579,MPM1647579,YES,YES,Cale CWT-C Touch,City Road,144.95872223336343,-37.8269856132651,"(-37.826985613265, 144.958722233363)"
GSE1,1647792,MPM1647792,YES,YES,Reino TTX-S,Georgiana Street,144.9504345653076,-37.821535137479465,"(-37.821535137479, 144.950434565308)"
672A,1647412,MPM1647412,YES,YES,Cale CWT-C Touch,La Trobe Street,144.9574710426091,-37.811569755691046,"(-37.811569755691, 144.957471042609)"
672B,1647413,MPM1647413,YES,YES,Cale CWT-C Touch,La Trobe Street,144.9579619635987,-37.81119892950512,"(-37.811198929505, 144.957961963599)"
310B,1645297,MPM1645297,YES,YES,Reino TVX,Queensberry Street,144.96070067532307,-37.804175429318974,"(-37.804175429319, 144.960700675323)"
542A,1647573,MPM1647573,YES,YES,Cale CWT-C Touch,Queen Street,144.96104707175644,-37.81543483745298,"(-37.815434837453, 144.961047071756)"
542B,1647574,MPM1647574,YES,YES,Cale CWT-C Touch,Queen Street,144.9611341453301,-37.81562221264769,"(-37.815622212648, 144.96113414533)"
623C,1647476,MPM1647476,YES,YES,Cale CWT-C Touch,Collins Street,144.95860555497015,-37.817891969232264,"(-37.817891969232, 144.95860555497)"
650A,1647333,MPM1647333,YES,YES,Cale CWT-C Touch,Lonsdale Street,144.9704139104487,-37.809781126351055,"(-37.809781126351, 144.970413910449)"
650B,1647334,MPM1647334,YES,YES,Cale CWT-C Touch,Lonsdale Street,144.97121974382497,-37.80954395386318,"(-37.809543953863, 144.971219743825)"
588A,1647570,MPM1647570,YES,YES,Cale CWT-C Touch,Spencer Street,144.95042720167118,-37.81067536945114,"(-37.810675369451, 144.950427201671)"
219D,1647661,MPM1647661,YES,YES,Reino TTX-S,William Street,144.9544016515901,-37.80768768607314,"(-37.807687686073, 144.95440165159)"
363C,1647106,MPM1647106,YES,YES,Reino TVX,Cardigan Street,144.9649100587383,-37.80294743713413,"(-37.802947437134, 144.964910058738)"
715A,1647351,MPM1647351,YES,YES,Cale CWT-C Touch,St Kilda Road,144.9700486656022,-37.82248904357811,"(-37.822489043578, 144.970048665602)"
345B,1647793,MPM1647793,YES,YES,Reino TTX-S,Flemington Road,144.953395945063,-37.798006296999574,"(-37.798006297, 144.953395945063)"
585A,1647349,MPM1647349,YES,YES,Cale CWT-C Touch,Spencer Street,144.9519369217593,-37.81458035594984,"(-37.81458035595, 144.951936921759)"
685A,1647350,MPM1647350,YES,YES,Cale CWT-C Touch,Therry Street,144.96060169550955,-37.8068534540352,"(-37.806853454035, 144.96060169551)"
706A,1647567,MPM1647567,YES,YES,Cale CWT-C Touch,City Road,144.96497630045363,-37.82234707756991,"(-37.82234707757, 144.964976300454)"
706C,1647569,MPM1647569,YES,YES,Cale CWT-C Touch,City Road,144.96636638921245,-37.82142487982575,"(-37.821424879826, 144.966366389212)"
689B,1647566,MPM1647566,YES,YES,Cale CWT-C Touch,Dudley Street,144.951558266872,-37.80943368603649,"(-37.809433686036, 144.951558266872)"
538A,1647580,MPM1647580,YES,YES,Cale CWT-C Touch,Bond Street,144.96269346575562,-37.818093821659,"(-37.818093821659, 144.962693465756)"
553A,1647581,MPM1647581,YES,YES,Cale CWT-C Touch,Wills Street,144.95748401792295,-37.81106967520269,"(-37.811069675203, 144.957484017923)"
508A,1647337,MPM1647337,YES,YES,Cale CWT-C Touch,Exhibition Street,144.97166822493105,-37.81477634542956,"(-37.81477634543, 144.971668224931)"
508B,1647338,MPM1647338,YES,YES,Cale CWT-C Touch,Exhibition Street,144.97176628413527,-37.81436200620818,"(-37.814362006208, 144.971766284135)"
577A,1647582,MPM1647582,YES,YES,Cale CWT-C Touch,Downie Street,144.95574056388847,-37.82017281582276,"(-37.820172815823, 144.955740563888)"
649A,1647583,MPM1647583,YES,YES,Cale CWT-C Touch,Little Bourke Street,144.95333996903787,-37.815925269622575,"(-37.815925269623, 144.953339969038)"
649B,1647584,MPM1647584,YES,YES,Cale CWT-C Touch,Little Bourke Street,144.95445913491616,-37.81560238857461,"(-37.815602388575, 144.954459134916)"
507A,1647585,MPM1647585,YES,YES,Cale CWT-C Touch,Exhibition Street,144.9723052806188,-37.81552279525056,"(-37.815522795251, 144.972305280619)"
507B,1647586,MPM1647586,YES,YES,Cale CWT-C Touch,Exhibition Street,144.9719665353437,-37.815429384934596,"(-37.815429384935, 144.971966535344)"
ZOOT6,1630445,MPM1630445,YES,YES,Cale CWT-C,Poplar Road,144.9530129925853,-37.78226017724227,"(-37.782260177242, 144.953012992585)"
696A,1647600,MPM1647600,YES,YES,Cale CWT-C Touch,Victoria Street,144.9622822187981,-37.80647205190106,"(-37.806472051901, 144.962282218798)"
HAST4A,1630371,MPM1630371,YES,YES,Reino TTX,Victoria Parade,144.97903522288252,-37.8088240765491,"(-37.808824076549, 144.979035222883)"
102TH,1630372,MPM1630372,YES,YES,Reino TTX,Royal Parade,144.95970954843693,-37.783986345766465,"(-37.783986345766, 144.959709548437)"
103TE,1630373,MPM1630373,YES,YES,Reino TTX,Royal Parade,144.9583686167371,-37.795144859452456,"(-37.795144859452, 144.958368616737)"
102TJ,1630374,MPM1630374,YES,YES,Reino TTX,Royal Parade,144.96005492629473,-37.78130673184953,"(-37.78130673185, 144.960054926295)"
102TM,1630375,MPM1630375,YES,YES,Reino TTX,Royal Parade,144.96032163595117,-37.77913519945398,"(-37.779135199454, 144.960321635951)"
HAST3,1630376,MPM1630376,YES,YES,Reino TTX,Victoria Parade,144.9743826802445,-37.808313461097704,"(-37.808313461098, 144.974382680245)"
HAST5,1630377,MPM1630377,YES,YES,Reino TTX,Victoria Parade,144.97938289175445,-37.808858266943005,"(-37.808858266943, 144.979382891754)"
102TN,1630379,MPM1630379,YES,YES,Reino TTX,Royal Parade,144.96038138486946,-37.77860097814712,"(-37.778600978147, 144.960381384869)"
102TK,1630380,MPM1630380,YES,YES,Reino TTX,Royal Parade,144.96025923381626,-37.77966470661789,"(-37.779664706618, 144.960259233816)"
382TB,1630381,MPM1630381,YES,YES,Reino TTX,Bowen Crescent,144.96291679977895,-37.78157085276997,"(-37.78157085277, 144.962916799779)"
101TA,1630383,MPM1630383,YES,YES,Reino TTX,Princes Park Drive,144.96173133608133,-37.79119165623689,"(-37.791191656237, 144.961731336081)"
MHET1A,1630384,MPM1630384,YES,YES,Reino TTX,Merchant Street,144.9443079444594,-37.82093920794034,"(-37.82093920794, 144.944307944459)"
LDNT5,1630385,MPM1630385,YES,YES,Reino TTX,Little Docklands Drive,144.94045776903073,-37.81257177408608,"(-37.812571774086, 144.940457769031)"
SIWT4,1630095,MPM1630095,YES,YES,Cale CWT-P,Sturt Street,144.96673976648194,-37.82513000327862,"(-37.825130003279, 144.966739766482)"
67TJ,1630387,MPM1630387,YES,YES,Reino TTX,Cemetery Road West,144.96038674781482,-37.79146875867902,"(-37.791468758679, 144.960386747815)"
101TG,1630388,MPM1630388,YES,YES,Reino TTX,Princes Park Drive,144.9629823492618,-37.78674875094142,"(-37.786748750941, 144.962982349262)"
382TE,1630389,MPM1630389,YES,YES,Reino TTX,Bowen Crescent,144.9621234042572,-37.778751555631644,"(-37.778751555632, 144.962123404257)"
67TK,1630390,MPM1630390,YES,YES,Reino TTX,Cemetery Road West,144.9600106932254,-37.79092176362231,"(-37.790921763622, 144.960010693225)"
69TB,1630391,MPM1630391,YES,YES,Reino TTX,Cemetery Road East,144.96624101443686,-37.79334893635965,"(-37.79334893636, 144.966241014437)"
101TB,1630392,MPM1630392,YES,YES,Reino TTX,Princes Park Drive,144.9619061454305,-37.79049380774107,"(-37.790493807741, 144.961906145431)"
25TC,1630393,MPM1630393,YES,YES,Reino TTX,Lygon Street,144.9685493095723,-37.790521510513955,"(-37.790521510514, 144.968549309572)"
25TB,1630394,MPM1630394,YES,YES,Reino TTX,Lygon Street,144.9688823606817,-37.78857636244474,"(-37.788576362445, 144.968882360682)"
25TD,1630395,MPM1630395,YES,YES,Reino TTX,Lygon Street,144.96839969078005,-37.79137781698426,"(-37.791377816984, 144.96839969078)"
102TC,1630396,MPM1630396,YES,YES,Reino TTX,Royal Parade,144.95919591536673,-37.78825286564409,"(-37.788252865644, 144.959195915367)"
73TA,1630398,MPM1630398,YES,YES,Reino TTX,Swanston Street,144.9646183098635,-37.796065190048665,"(-37.796065190049, 144.964618309864)"
73TD,1630399,MPM1630399,YES,YES,Reino TTX,Swanston Street,144.9652108423447,-37.793930443850634,"(-37.793930443851, 144.965210842345)"
HAIT1,1630401,MPM1630401,YES,YES,Reino TTX,Victoria Parade,144.97231717849135,-37.80791521507372,"(-37.807915215074, 144.972317178491)"
102TG,1630404,MPM1630404,YES,YES,Reino TTX,Royal Parade,144.95946370786953,-37.78609408142811,"(-37.786094081428, 144.95946370787)"
102TE,1630405,MPM1630405,YES,YES,Reino TTX,Royal Parade,144.95931961892674,-37.78718227285706,"(-37.787182272857, 144.959319618927)"
101TD,1630406,MPM1630406,YES,YES,Reino TTX,Princes Park Drive,144.96221963378076,-37.78895541361883,"(-37.788955413619, 144.962219633781)"
510A,1647411,MPM1647411,YES,YES,Cale CWT-C Touch,Exhibition Street,144.97090301715727,-37.81248473363936,"(-37.812484733639, 144.970903017157)"
73TC,1630412,MPM1630412,YES,YES,Reino TTX,Swanston Street,144.96484316533693,-37.794645655438444,"(-37.794645655438, 144.964843165337)"
382TC,1630414,MPM1630414,YES,YES,Reino TTX,Bowen Crescent,144.9627153036176,-37.780443199388706,"(-37.780443199389, 144.962715303618)"
73TB,1630416,MPM1630416,YES,YES,Reino TTX,Swanston Street,144.96475065683882,-37.795281199069045,"(-37.795281199069, 144.964750656839)"
359TB,1630418,MPM1630418,YES,YES,Reino TTX,Lytton Street,144.9673991509216,-37.793775677680365,"(-37.79377567768, 144.967399150922)"
25TA,1630421,MPM1630421,YES,YES,Reino TTX,Lygon Street,144.96925494426003,-37.78641379062514,"(-37.786413790625, 144.96925494426)"
143TJ,1631127,MPM1631127,YES,YES,Reino TTX,Park Street,144.96120741335494,-37.77827610189924,"(-37.778276101899, 144.961207413355)"
165TA,1631129,MPM1631129,YES,YES,Reino TTX,Royal Parade,144.9575886596596,-37.797482426303006,"(-37.797482426303, 144.95758865966)"
353TA,1631130,MPM1631130,YES,YES,Reino TTX,Kay Street,144.9721268147177,-37.794979831930945,"(-37.794979831931, 144.972126814718)"
205TA,1631131,MPM1631131,YES,YES,Reino TTX,Kay Street,144.9720677993466,-37.795193125251735,"(-37.795193125252, 144.972067799347)"
382TD,1631134,MPM1631134,YES,YES,Reino TTX,Bowen Crescent,144.96264875130697,-37.77949271780245,"(-37.779492717802, 144.962648751307)"
224TA,1631138,MPM1631138,YES,YES,Reino TTX,Lygon Street,144.96807084452823,-37.79332098044435,"(-37.793320980444, 144.968070844528)"
382TA,1631142,MPM1631142,YES,YES,Reino TTX,Bowen Crescent,144.9634588962943,-37.78214209512724,"(-37.782142095127, 144.963458896294)"
68TB,1631143,MPM1631143,YES,YES,Reino TTX,Cemetery Road East,144.96629081761256,-37.79315698012081,"(-37.793156980121, 144.966290817613)"
101TE,1631145,MPM1631145,YES,YES,Reino TTX,Princes Park Drive,144.96267806689374,-37.78830686273076,"(-37.788306862731, 144.962678066894)"
102TF,1631146,MPM1631146,YES,YES,Reino TTX,Royal Parade,144.95939974418837,-37.786619568172085,"(-37.786619568172, 144.959399744188)"
510B,1647422,MPM1647422,YES,YES,Cale CWT-C Touch,Exhibition Street,144.97069168425145,-37.81267412384687,"(-37.812674123847, 144.970691684251)"
103TB,1631148,MPM1631148,YES,YES,Reino TTX,Royal Parade,144.95809134059655,-37.79726087443437,"(-37.797260874434, 144.958091340597)"
291TA,1631149,MPM1631149,YES,YES,Reino TTX,Royal Parade,144.9583856372632,-37.79086421655005,"(-37.79086421655, 144.958385637263)"
755A,1647372,MPM1647372,YES,YES,Cale CWT-C Touch,Kavanagh Street,144.9618662860372,-37.82630284138953,"(-37.82630284139, 144.961866286037)"
VS13A,1620107,MPM1620107,YES,NO,Reino VX1,Albert Street,144.98252323875553,-37.81040847508652,"(-37.810408475087, 144.982523238756)"
RE2,1620109,MPM1620109,YES,NO,Reino VX1,Lansdowne Street,144.97784329909746,-37.81355789636299,"(-37.813557896363, 144.977843299097)"
RW1,1620110,MPM1620110,YES,NO,Reino VX1,Lansdowne Street,144.9773622778746,-37.81477098288361,"(-37.814770982884, 144.977362277875)"
CANT24,1630400,MPM1630400,YES,YES,Reino TTX,A'Beckett Street,144.9567542296254,-37.81038353856063,"(-37.810383538561, 144.956754229625)"
HAST4,1630402,MPM1630402,YES,YES,Reino TTX,Victoria Parade,144.97759428554647,-37.808662663908784,"(-37.808662663909, 144.977594285546)"
HAST8,1630403,MPM1630403,YES,YES,Reino TTX,Victoria Parade,144.98148462352384,-37.809096107800855,"(-37.809096107801, 144.981484623524)"
HAST7,1630410,MPM1630410,YES,YES,Reino TTX,Victoria Parade,144.9805753094412,-37.80898851295974,"(-37.80898851296, 144.980575309441)"
MHET1,1630411,MPM1630411,YES,YES,Reino TTX,Merchant Street,144.94403385873824,-37.8203408019881,"(-37.820340801988, 144.944033858738)"
68TA,1631135,MPM1631135,YES,YES,Reino TTX,Cemetery Road East,144.96727318985242,-37.792938200624675,"(-37.792938200625, 144.967273189852)"
67TL,1631136,MPM1631136,YES,YES,Reino TTX,Cemetery Road West,144.95976394379107,-37.7909249690711,"(-37.790924969071, 144.959763943791)"
HAIT2,1631137,MPM1631137,YES,YES,Reino TTX,Victoria Parade,144.97271097011304,-37.807961196561635,"(-37.807961196562, 144.972710970113)"
FNT114,1631139,MPM1631139,YES,YES,Reino TTX,La Trobe Street,144.94708186597046,-37.81431690711793,"(-37.814316907118, 144.94708186597)"
69TA,1631140,MPM1631140,YES,YES,Reino TTX,Cemetery Road East,144.96719811701487,-37.793171346613825,"(-37.793171346614, 144.967198117015)"
67TI,1631141,MPM1631141,YES,YES,Reino TTX,Cemetery Road West,144.96047680864746,-37.79131732527788,"(-37.791317325278, 144.960476808647)"
185TC,1629548,MPM1629548,YES,YES,Cale CWT-C,Wells Street,144.9685060556918,-37.827935634192556,"(-37.827935634193, 144.968506055692)"
278TA,1629559,MPM1629559,YES,YES,Cale CWT-C,Wells Street,144.9693166956185,-37.8300502752343,"(-37.830050275234, 144.969316695619)"
IMW1,1620172,MPM1620172,YES,NO,Reino VX1,Import Lane,144.94442564433106,-37.820314173087894,"(-37.820314173088, 144.944425644331)"
142TA,1631128,MPM1631128,YES,YES,Reino TTX,Garton Street,144.96361551202313,-37.7842509239136,"(-37.784250923914, 144.963615512023)"
142TB,1631133,MPM1631133,YES,YES,Reino TTX,Garton Street,144.96378928682438,-37.78316536595748,"(-37.783165365957, 144.963789286824)"
HAI15,1620196,MPM1620196,YES,NO,Reino VX1,Victoria Parade,144.98975498031098,-37.809842121866076,"(-37.809842121866, 144.989754980311)"
579A,1647450,MPM1647450,YES,YES,Cale CWT-C Touch,Spencer Street,144.95451377253067,-37.81952788818911,"(-37.819527888189, 144.954513772531)"
590A,1647454,MPM1647454,YES,YES,Cale CWT-C Touch,Spencer Street,144.95531470744203,-37.82203102222026,"(-37.82203102222, 144.955314707442)"
699B,1647560,MPM1647560,YES,YES,Cale CWT-C Touch,Siddeley Street,144.9546595475285,-37.82181095798703,"(-37.821810957987, 144.954659547529)"
699C,1647561,MPM1647561,YES,YES,Cale CWT-C Touch,Siddeley Street,144.95476550268856,-37.82194901095819,"(-37.821949010958, 144.954765502689)"
206D,1647738,MPM1647738,YES,YES,Reino TTX-S,The Avenue,144.9569303625068,-37.78706753051924,"(-37.787067530519, 144.956930362507)"
206E,1647739,MPM1647739,YES,YES,Reino TTX-S,The Avenue,144.95689318418803,-37.786358036484835,"(-37.786358036485, 144.956893184188)"
206F,1647740,MPM1647740,YES,YES,Reino TTX-S,The Avenue,144.95689309715934,-37.785424891417726,"(-37.785424891418, 144.956893097159)"
141D,1647748,MPM1647748,YES,YES,Reino TTX-S,The Avenue,144.95838423214136,-37.77949503441702,"(-37.779495034417, 144.958384232141)"
141F,1647750,MPM1647750,YES,YES,Reino TTX-S,The Avenue,144.9594519834493,-37.77859219810682,"(-37.778592198107, 144.959451983449)"
DDS10,1620105,MPM1620105,YES,NO,Reino VX1,Docklands Drive,144.93706352181104,-37.81517934836205,"(-37.815179348362, 144.937063521811)"
K233,1620108,MPM1620108,YES,NO,Reino VX1,Queen Street,144.95816559668248,-37.80655113171812,"(-37.806551131718, 144.958165596682)"
RE1,1620114,MPM1620114,YES,NO,Reino VX1,Lansdowne Street,144.97775817628144,-37.814040204817054,"(-37.814040204817, 144.977758176281)"
TN1,1620116,MPM1620116,YES,NO,Reino VX1,Wellington Parade South,144.97477755679063,-37.815814600423536,"(-37.815814600424, 144.974777556791)"
CS54,1620118,MPM1620118,YES,NO,Reino VX1,Collins Street,144.94088864049567,-37.820801786604044,"(-37.820801786604, 144.940888640496)"
TS2,1620119,MPM1620119,YES,NO,Reino VX1,Wellington Parade South,144.97599423728198,-37.81614288537858,"(-37.816142885379, 144.975994237282)"
STMW3,1620121,MPM1620121,YES,NO,Reino VX1,Saint Mangos Lane North,144.94074268842792,-37.81325170870623,"(-37.813251708706, 144.940742688428)"
DDS11,1620122,MPM1620122,YES,NO,Reino VX1,Docklands Drive,144.93613836785448,-37.81552876822811,"(-37.815528768228, 144.936138367854)"
PRE1,1620123,MPM1620123,YES,NO,Reino VX1,Pearl River Road,144.93800382299702,-37.815548339467426,"(-37.815548339467, 144.938003822997)"
VN63,1620124,MPM1620124,YES,NO,Reino VX1,Albert Street,144.98291338683893,-37.81023388672974,"(-37.81023388673, 144.982913386839)"
RE4,1620125,MPM1620125,YES,NO,Reino VX1,Lansdowne Street,144.978182324723,-37.81154243858934,"(-37.811542438589, 144.978182324723)"
DDN11,1620126,MPM1620126,YES,NO,Reino VX1,Docklands Drive,144.93607494096062,-37.81531894504972,"(-37.81531894505, 144.936074940961)"
DS20,1620130,MPM1620130,YES,NO,Reino VX1,Bourke Street,144.94230585600062,-37.820375544655526,"(-37.820375544656, 144.942305856001)"
DAN1,1620131,MPM1620131,YES,NO,Reino VX1,Cathedral Place,144.97637563700394,-37.810709670401145,"(-37.810709670401, 144.976375637004)"
VN24,1620132,MPM1620132,YES,NO,Reino VX1,Albert Street,144.97900863272474,-37.80980148829879,"(-37.809801488299, 144.979008632725)"
DAN2,1620133,MPM1620133,YES,NO,Reino VX1,Cathedral Place,144.9776307060793,-37.810844709011015,"(-37.810844709011, 144.977630706079)"
K229,1620134,MPM1620134,YES,NO,Reino VX1,Queen Street,144.95803019553503,-37.80731554050359,"(-37.807315540504, 144.958030195535)"
WRW2,1620136,MPM1620136,YES,NO,Reino VX1,Wattle Road,144.93681979554358,-37.81555494897575,"(-37.815554948976, 144.936819795544)"
VS13,1620137,MPM1620137,YES,NO,Reino VX1,Albert Street,144.98150568034052,-37.810296007385915,"(-37.810296007386, 144.981505680341)"
TS3,1620138,MPM1620138,YES,NO,Reino VX1,Wellington Parade South,144.9767110258982,-37.816237004324485,"(-37.816237004324, 144.976711025898)"
AUN1,1620139,MPM1620139,YES,NO,Reino VX1,Augusta Avenue,144.93757446190983,-37.81579204830241,"(-37.815792048302, 144.93757446191)"
AQW1,1620142,MPM1620142,YES,NO,Reino VX1,Aquitania Way,144.94252569453386,-37.8140513079043,"(-37.814051307904, 144.942525694534)"
ADLW1,1620147,MPM1620147,YES,NO,Reino VX1,Adela Lane,144.94223521206393,-37.82114264928349,"(-37.821142649283, 144.942235212064)"
PS2,1620151,MPM1620151,YES,NO,Reino VX1,St Andrews Place,144.97608570925348,-37.81200213152505,"(-37.812002131525, 144.976085709253)"
KRW1,1620154,MPM1620154,YES,NO,Reino VX1,Karlsruhe Lane,144.9453255287662,-37.82112706644281,"(-37.821127066443, 144.945325528766)"
VN22,1620159,MPM1620159,YES,NO,Reino VX1,Albert Street,144.97728533073044,-37.8096116602289,"(-37.809611660229, 144.97728533073)"
DN23,1620160,MPM1620160,YES,NO,Reino VX1,Bourke Street,144.94230793812955,-37.82016231866868,"(-37.820162318669, 144.94230793813)"
DAS1,1620161,MPM1620161,YES,NO,Reino VX1,Cathedral Place,144.97663057700674,-37.81095558515631,"(-37.810955585156, 144.976630577007)"
TS1,1620163,MPM1620163,YES,NO,Reino VX1,Wellington Parade South,144.97480932835643,-37.81598300015558,"(-37.815983000156, 144.974809328356)"
VS12,1620164,MPM1620164,YES,NO,Reino VX1,Albert Street,144.98023320672843,-37.810155286511915,"(-37.810155286512, 144.980233206728)"
PN1,1620165,MPM1620165,YES,NO,Reino VX1,St Andrews Place,144.9765966041091,-37.81191663049082,"(-37.811916630491, 144.976596604109)"
OCN5,1620167,MPM1620167,YES,NO,Reino VX1,Francis Street,144.9550235844096,-37.81820057306203,"(-37.818200573062, 144.95502358441)"
IME1,1620173,MPM1620173,YES,NO,Reino VX1,Import Lane,144.94450493292644,-37.82017109938454,"(-37.820171099385, 144.944504932926)"
PN2,1620174,MPM1620174,YES,NO,Reino VX1,St Andrews Place,144.9757450493901,-37.81181660789425,"(-37.811816607894, 144.97574504939)"
OCS5,1620180,MPM1620180,YES,NO,Reino VX1,Francis Street,144.9553635073535,-37.81818014407148,"(-37.818180144071, 144.955363507354)"
K231,1620182,MPM1620182,YES,NO,Reino VX1,Queen Street,144.95809843235295,-37.80693305706747,"(-37.806933057067, 144.958098432353)"
TN4,1620185,MPM1620185,YES,NO,Reino VX1,Wellington Parade South,144.9772198133737,-37.81614361549433,"(-37.816143615494, 144.977219813374)"
VS14,1620187,MPM1620187,YES,NO,Reino VX1,Albert Street,144.98410041045497,-37.8105856499432,"(-37.810585649943, 144.984100410455)"
TN5,1620189,MPM1620189,YES,NO,Reino VX1,Wellington Parade South,144.9772198133737,-37.81614361549433,"(-37.816143615494, 144.977219813374)"
SFRW1,1620191,MPM1620191,YES,NO,Reino VX1,Seafarer Lane,144.94289521569945,-37.82053898833482,"(-37.820538988335, 144.942895215699)"
TN2,1620194,MPM1620194,YES,NO,Reino VX1,Wellington Parade South,144.97556828122225,-37.8159207760255,"(-37.815920776025, 144.975568281222)"
KRE1,1620195,MPM1620195,YES,NO,Reino VX1,Karlsruhe Lane,144.94543679733505,-37.821043766235526,"(-37.821043766236, 144.945436797335)"
RW2,1620198,MPM1620198,YES,NO,Reino VX1,Lansdowne Street,144.97753307046392,-37.81374367205925,"(-37.813743672059, 144.977533070464)"
TN3,1620201,MPM1620201,YES,NO,Reino VX1,Wellington Parade South,144.97635152367425,-37.816022311859804,"(-37.81602231186, 144.976351523674)"
RW3,1620202,MPM1620202,YES,NO,Reino VX1,Lansdowne Street,144.97765713408887,-37.81297455678959,"(-37.81297455679, 144.977657134089)"
RW4,1620203,MPM1620203,YES,NO,Reino VX1,Lansdowne Street,144.97792724127498,-37.811371881201666,"(-37.811371881202, 144.977927241275)"
RE3,1620204,MPM1620204,YES,NO,Reino VX1,Lansdowne Street,144.97797328549146,-37.81278348435474,"(-37.812783484355, 144.977973285491)"
KW113,1625387,MPM1625387,NO,NO,Duncan Eagle,Queen Street,144.9578929171465,-37.80724011958129,"(-37.807240119581, 144.957892917147)"
KE80,1625390,MPM1625390,NO,NO,Duncan Eagle,Queen Street,144.95825165502194,-37.80715784478113,"(-37.807157844781, 144.958251655022)"
KW112,1625393,MPM1625393,NO,NO,Duncan Eagle,Queen Street,144.9578929171465,-37.80724011958129,"(-37.807240119581, 144.957892917147)"
KW121,1625400,MPM1625400,NO,NO,Duncan Eagle,Queen Street,144.9579418110794,-37.80696773091088,"(-37.806967730911, 144.957941811079)"
WRE2,1629498,MPM1629498,NO,NO,Duncan Eagle,Wattle Road,144.93695342897337,-37.81546073891571,"(-37.815460738916, 144.936953428973)"
UBS59,1629513,MPM1629513,NO,NO,Duncan Eagle,Victoria Street,144.9609768100202,-37.8065406721865,"(-37.806540672186, 144.96097681002)"
UBS60,1629514,MPM1629514,NO,NO,Duncan Eagle,Victoria Street,144.9609768100202,-37.8065406721865,"(-37.806540672186, 144.96097681002)"
119TA,1629528,MPM1629528,YES,YES,Cale CWT-C,Kavanagh Street,144.96233008730417,-37.825602852934935,"(-37.825602852935, 144.962330087304)"
112TA,1629530,MPM1629530,YES,YES,Cale CWT-C,Coventry Street,144.96711999900768,-37.82994253324991,"(-37.82994253325, 144.967119999008)"
140TA,1629532,MPM1629532,YES,YES,Cale CWT-C,Moore Street,144.9644751854116,-37.82834732975389,"(-37.828347329754, 144.964475185412)"
388TA,1629533,MPM1629533,YES,YES,Cale CWT-C,Wells Street,144.96916870617608,-37.82577588348886,"(-37.825775883489, 144.969168706176)"
222TA,1629534,MPM1629534,YES,YES,Cale CWT-C,Balston Street,144.96183821843698,-37.82581042260705,"(-37.825810422607, 144.961838218437)"
280TA,1629536,MPM1629536,YES,YES,Cale CWT-C,Balston Street,144.9613465145944,-37.82527212732914,"(-37.825272127329, 144.961346514594)"
109TB,1629537,MPM1629537,YES,YES,Cale CWT-C,Moore Street,144.965459290841,-37.82501316060049,"(-37.8250131606, 144.965459290841)"
185TA,1629538,MPM1629538,YES,YES,Cale CWT-C,Wells Street,144.9689833943743,-37.82636505629966,"(-37.8263650563, 144.968983394374)"
186TA,1629540,MPM1629540,YES,YES,Cale CWT-C,Dodds Street,144.96786630360808,-37.826538100162814,"(-37.826538100163, 144.967866303608)"
109TC,1629541,MPM1629541,YES,YES,Cale CWT-C,Moore Street,144.96577862866206,-37.82394701037076,"(-37.823947010371, 144.965778628662)"
185TD,1629543,MPM1629543,YES,YES,Cale CWT-C,Wells Street,144.9685791754692,-37.82883346553596,"(-37.828833465536, 144.968579175469)"
160TB,1629545,MPM1629545,YES,YES,Cale CWT-C,Grant Street,144.9702078474688,-37.825220033746156,"(-37.825220033746, 144.970207847469)"
160TA,1629546,MPM1629546,YES,YES,Cale CWT-C,Grant Street,144.9701917752079,-37.825066484754515,"(-37.825066484755, 144.970191775208)"
381TA,1629547,MPM1629547,YES,YES,Cale CWT-C,Balston Street,144.9624907688003,-37.82611916786277,"(-37.826119167863, 144.9624907688)"
94TA,1629549,MPM1629549,YES,YES,Cale CWT-C,Wadey Street,144.96978006071635,-37.82605424740981,"(-37.82605424741, 144.969780060716)"
109TA,1629550,MPM1629550,YES,YES,Cale CWT-C,Moore Street,144.96558067474223,-37.825186021698585,"(-37.825186021699, 144.965580674742)"
55TA,1629551,MPM1629551,YES,YES,Cale CWT-C,Whiteman Street,144.95518420537826,-37.82741251836451,"(-37.827412518365, 144.955184205378)"
384TA,1629552,MPM1629552,YES,YES,Cale CWT-C,Coventry Street,144.9702553156064,-37.82903239917858,"(-37.829032399179, 144.970255315606)"
94TB,1629553,MPM1629553,YES,YES,Cale CWT-C,Wadey Street,144.9704736151875,-37.82606861105052,"(-37.826068611051, 144.970473615188)"
114TA,1629554,MPM1629554,YES,YES,Cale CWT-C,Wells Street,144.96928765781823,-37.825914742622075,"(-37.825914742622, 144.969287657818)"
160TD,1629555,MPM1629555,YES,YES,Cale CWT-C,Grant Street,144.96969692775968,-37.82536830819856,"(-37.825368308199, 144.96969692776)"
185TB,1629562,MPM1629562,YES,YES,Cale CWT-C,Wells Street,144.9687258041838,-37.827228687184096,"(-37.827228687184, 144.968725804184)"
147TA,1629599,MPM1629599,YES,YES,Cale CWT-CA,St Kilda Road,144.9710117124454,-37.829316943205036,"(-37.829316943205, 144.971011712445)"
ZOOT8,1630134,MPM1630134,YES,YES,Cale CWT-P,Poplar Road,144.95314440416993,-37.78196818114381,"(-37.781968181144, 144.95314440417)"
227TB,1629587,MPM1629587,YES,YES,Cale CWT-P,Park Street,144.94735966302687,-37.77660542078602,"(-37.776605420786, 144.947359663027)"
SXNT11,1629588,MPM1629588,YES,YES,Cale CWT-P,Haig Street,144.95697328300693,-37.827098347250676,"(-37.827098347251, 144.956973283007)"
98TA,1629597,MPM1629597,YES,YES,Cale CWT-CA,St Kilda Road,144.97129648762268,-37.827447244285906,"(-37.827447244286, 144.971296487623)"
122TA,1629598,MPM1629598,YES,YES,Cale CWT-CA,Whiteman Street,144.95665615709635,-37.82597664155158,"(-37.825976641552, 144.956656157096)"
ZOOT7,1629579,MPM1629579,YES,YES,Cale CWT-P,Poplar Road,144.95396176298402,-37.78301215075454,"(-37.783012150755, 144.953961762984)"
122TB,1629602,MPM1629602,YES,YES,Cale CWT-CA,Whiteman Street,144.95514585437888,-37.82789218644588,"(-37.827892186446, 144.955145854379)"
186TD,1629628,MPM1629628,YES,YES,Cale CWT-C,Dodds Street,144.9670589348322,-37.82924316787018,"(-37.82924316787, 144.967058934832)"
350TA,1629629,MPM1629629,YES,YES,Cale CWT-C,Moore Street,144.96601214943271,-37.823730743577464,"(-37.823730743577, 144.966012149433)"
140TB,1629633,MPM1629633,YES,YES,Cale CWT-C,Moore Street,144.96458168743663,-37.8284759842736,"(-37.828475984274, 144.964581687437)"
160TC,1629660,MPM1629660,YES,YES,Cale CWT-C,Grant Street,144.96971623925435,-37.82520259065889,"(-37.825202590659, 144.969716239254)"
143TD,1630091,MPM1630091,YES,YES,Cale CWT-P,Park Street,144.9523236780645,-37.77720016932277,"(-37.777200169323, 144.952323678065)"
ZOOT10,1630105,MPM1630105,YES,YES,Cale CWT-P,Poplar Road,144.95439958509544,-37.78339934115867,"(-37.783399341159, 144.954399585095)"
ZOOT9,1630106,MPM1630106,YES,YES,Cale CWT-P,Poplar Road,144.95373922014466,-37.78246389154058,"(-37.782463891541, 144.953739220145)"
MCT12,1630111,MPM1630111,YES,YES,Cale CWT-P,St Kilda Road,144.97515352135147,-37.834972498342836,"(-37.834972498343, 144.975153521351)"
143TE,1630125,MPM1630125,YES,YES,Cale CWT-P,Park Street,144.95375143723675,-37.777369413896345,"(-37.777369413896, 144.953751437237)"
143TC,1630127,MPM1630127,YES,YES,Cale CWT-P,Park Street,144.9509300172701,-37.77703887233731,"(-37.777038872337, 144.95093001727)"
143TI,1630129,MPM1630129,YES,YES,Cale CWT-P,Park Street,144.95910715458214,-37.778016209238075,"(-37.778016209238, 144.959107154582)"
143TH,1630131,MPM1630131,YES,YES,Cale CWT-P,Park Street,144.95857510977828,-37.77795886616958,"(-37.77795886617, 144.958575109778)"
143TF,1630132,MPM1630132,YES,YES,Cale CWT-P,Park Street,144.95575115030448,-37.77761704087141,"(-37.777617040871, 144.955751150304)"
227TA,1630142,MPM1630142,YES,YES,Cale CWT-P,Park Street,144.94644914597424,-37.77649621479439,"(-37.776496214794, 144.946449145974)"
143TG,1630148,MPM1630148,YES,YES,Cale CWT-P,Park Street,144.95760654389144,-37.77783548370972,"(-37.77783548371, 144.957606543891)"
MCWT3,1630151,MPM1630151,YES,YES,Cale CWT-P,St Kilda Road,144.97105088470576,-37.82648499064683,"(-37.826484990647, 144.971050884706)"
SIWT1A,1630155,MPM1630155,YES,YES,Cale CWT-P,Sturt Street,144.9655383512021,-37.82913199279414,"(-37.829131992794, 144.965538351202)"
SKNT7,1630157,MPM1630157,YES,YES,Cale CWT-P,Miles Street,144.96665864303205,-37.82840567880144,"(-37.828405678801, 144.966658643032)"
SKST9,1630158,MPM1630158,YES,YES,Cale CWT-P,Miles Street,144.9651536015349,-37.828253818006424,"(-37.828253818006, 144.965153601535)"
SKNT8,1630162,MPM1630162,YES,YES,Cale CWT-P,Miles Street,144.96530771575556,-37.82813782392547,"(-37.828137823925, 144.965307715756)"
SAST5,1630164,MPM1630164,YES,YES,Cale CWT-P,Wadey Street,144.97049866006554,-37.8261625757507,"(-37.826162575751, 144.970498660066)"
SDST42,1630166,MPM1630166,YES,YES,Cale CWT-P,Coventry Street,144.96834071377697,-37.82959774625039,"(-37.82959774625, 144.968340713777)"
SDST1,1630167,MPM1630167,YES,YES,Cale CWT-P,Coventry Street,144.9695116815025,-37.82925315185988,"(-37.82925315186, 144.969511681503)"
SDNT3,1630168,MPM1630168,YES,YES,Cale CWT-P,Coventry Street,144.96928212557577,-37.829121045534,"(-37.829121045534, 144.969282125576)"
SDNT2,1630169,MPM1630169,YES,YES,Cale CWT-P,Coventry Street,144.97015326546213,-37.82887481762308,"(-37.828874817623, 144.970153265462)"
SDNT1,1630170,MPM1630170,YES,YES,Cale CWT-P,Coventry Street,144.97062565584594,-37.8287307888091,"(-37.828730788809, 144.970625655846)"
SFWT1,1630171,MPM1630171,YES,YES,Cale CWT-P,Dodds Street,144.96707833067697,-37.83063893509864,"(-37.830638935099, 144.967078330677)"
SCNT20,1630173,MPM1630173,YES,YES,Cale CWT-P,Dorcas Street,144.9687895130827,-37.83053296993048,"(-37.83053296993, 144.968789513083)"
SCNT22,1630174,MPM1630174,YES,YES,Cale CWT-P,Dorcas Street,144.96637191676422,-37.83124199352091,"(-37.831241993521, 144.966371916764)"
SDST43,1630176,MPM1630176,YES,YES,Cale CWT-P,Coventry Street,144.9672948230125,-37.82989952884322,"(-37.829899528843, 144.967294823013)"
SDNT7,1630177,MPM1630177,YES,YES,Cale CWT-P,Coventry Street,144.96599779319712,-37.83007960355212,"(-37.830079603552, 144.965997793197)"
SDNT6,1630178,MPM1630178,YES,YES,Cale CWT-P,Coventry Street,144.96734084518698,-37.82968856548911,"(-37.829688565489, 144.967340845187)"
SDNT5,1630179,MPM1630179,YES,YES,Cale CWT-P,Coventry Street,144.96789256492514,-37.82952831746034,"(-37.82952831746, 144.967892564925)"
146TF,1630219,MPM1630219,YES,NO,Reino TX-P,Alexandra Avenue,144.97891721070005,-37.82603998543643,"(-37.826039985436, 144.9789172107)"
146TI,1630220,MPM1630220,YES,NO,Reino TX-P,Alexandra Avenue,144.97964765310192,-37.826631455877795,"(-37.826631455878, 144.979647653102)"
187TA,1630222,MPM1630222,YES,NO,Reino TX-P,Alexandra Avenue,144.98599625513648,-37.82872509676761,"(-37.828725096768, 144.985996255137)"
26TG,1630223,MPM1630223,YES,NO,Reino TX-P,Linlithgow Avenue,144.9717022839846,-37.82413457584366,"(-37.824134575844, 144.971702283985)"
27TB,1630224,MPM1630224,YES,NO,Reino TX-P,Birdwood Avenue,144.97266398358477,-37.82728654557023,"(-37.82728654557, 144.972663983585)"
146TS,1630229,MPM1630229,YES,NO,Reino TX-P,Alexandra Avenue,144.98332850137012,-37.82815952398241,"(-37.828159523982, 144.98332850137)"
146TA,1630230,MPM1630230,YES,NO,Reino TX-P,Alexandra Avenue,144.9773697741597,-37.82449265861537,"(-37.824492658615, 144.97736977416)"
146TG,1630231,MPM1630231,YES,NO,Reino TX-P,Alexandra Avenue,144.97897504918694,-37.826338627850525,"(-37.826338627851, 144.978975049187)"
146TE,1630236,MPM1630236,YES,NO,Reino TX-P,Alexandra Avenue,144.97856779433124,-37.82592754883149,"(-37.825927548831, 144.978567794331)"
26TA,1630237,MPM1630237,YES,NO,Reino TX-P,Linlithgow Avenue,144.97255277998661,-37.825953585449675,"(-37.82595358545, 144.972552779987)"
2TA,1630238,MPM1630238,YES,NO,Reino TX-P,Birdwood Avenue,144.9815628238649,-37.83329079809098,"(-37.833290798091, 144.981562823865)"
26TE,1630239,MPM1630239,YES,NO,Reino TX-P,Linlithgow Avenue,144.97199864874736,-37.82489313597655,"(-37.824893135977, 144.971998648747)"
146TC,1630240,MPM1630240,YES,NO,Reino TX-P,Alexandra Avenue,144.97791205099347,-37.82514188958601,"(-37.825141889586, 144.977912050993)"
146TH,1630241,MPM1630241,YES,NO,Reino TX-P,Alexandra Avenue,144.97920004028504,-37.82629232127822,"(-37.826292321278, 144.979200040285)"
146TO,1630242,MPM1630242,YES,NO,Reino TX-P,Alexandra Avenue,144.98135761920844,-37.82768388337468,"(-37.827683883375, 144.981357619208)"
146TK,1630243,MPM1630243,YES,NO,Reino TX-P,Alexandra Avenue,144.98015191301036,-37.826936198478506,"(-37.826936198479, 144.98015191301)"
146TP,1630244,MPM1630244,YES,NO,Reino TX-P,Alexandra Avenue,144.98234051798318,-37.82797258068846,"(-37.827972580688, 144.982340517983)"
27TC,1630245,MPM1630245,YES,NO,Reino TX-P,Birdwood Avenue,144.9787233931653,-37.83275606947569,"(-37.832756069476, 144.978723393165)"
2TB,1630246,MPM1630246,YES,NO,Reino TX-P,Birdwood Avenue,144.98048563276748,-37.83323159181735,"(-37.833231591817, 144.980485632767)"
146TQ,1630247,MPM1630247,YES,NO,Reino TX-P,Alexandra Avenue,144.9824646016542,-37.827834384868765,"(-37.827834384869, 144.982464601654)"
26TI,1630248,MPM1630248,YES,NO,Reino TX-P,Linlithgow Avenue,144.9713539547804,-37.82351395474308,"(-37.823513954743, 144.97135395478)"
26TF,1630254,MPM1630254,YES,NO,Reino TX-P,Linlithgow Avenue,144.9715538294979,-37.82417732039378,"(-37.824177320394, 144.971553829498)"
MCIT9,1630268,MPM1630268,YES,NO,Reino TX-P,St Kilda Road,144.9761358723671,-37.8375171491488,"(-37.837517149149, 144.976135872367)"
146TB,1630269,MPM1630269,YES,NO,Reino TX-P,Alexandra Avenue,144.97795598129395,-37.82492308143356,"(-37.824923081434, 144.977955981294)"
146TN,1630271,MPM1630271,YES,NO,Reino TX-P,Alexandra Avenue,144.98137725575805,-37.82751281627073,"(-37.827512816271, 144.981377255758)"
NFNT2,1630273,MPM1630273,YES,NO,Reino TX-P,Grey Street,144.9871671091283,-37.811901970471396,"(-37.811901970471, 144.987167109128)"
NFNT3,1630274,MPM1630274,YES,NO,Reino TX-P,Grey Street,144.9876238551572,-37.811953214014586,"(-37.811953214015, 144.987623855157)"
146TM,1630275,MPM1630275,YES,NO,Reino TX-P,Alexandra Avenue,144.98075976200118,-37.82723877747886,"(-37.827238777479, 144.980759762001)"
PPCT1,1630278,MPM1630278,YES,NO,Reino TX-P,Point Park Crescent,144.94145587643376,-37.82321494119819,"(-37.823214941198, 144.941455876434)"
27TM,1630280,MPM1630280,YES,NO,Reino TX-P,Domain Road,144.97560269633146,-37.83315497441764,"(-37.833154974418, 144.975602696331)"
387TB,1630281,MPM1630281,YES,NO,Reino TX-P,Birdwood Avenue,144.97576364271325,-37.83074522371754,"(-37.830745223718, 144.975763642713)"
WCT1,1630282,MPM1630282,YES,NO,Reino TX-P,Toorak Road,144.9812181750801,-37.83777395015077,"(-37.837773950151, 144.98121817508)"
27TH,1630283,MPM1630283,YES,NO,Reino TX-P,Birdwood Avenue,144.97722388687237,-37.831671812567635,"(-37.831671812568, 144.977223886872)"
146TL,1630284,MPM1630284,YES,NO,Reino TX-P,Alexandra Avenue,144.98050476066453,-37.82728851039057,"(-37.827288510391, 144.980504760665)"
187TB,1630285,MPM1630285,YES,NO,Reino TX-P,Alexandra Avenue,144.98709931428343,-37.82970779696136,"(-37.829707796961, 144.987099314283)"
146TR,1630286,MPM1630286,YES,NO,Reino TX-P,Alexandra Avenue,144.98310765567402,-37.827965430404596,"(-37.827965430405, 144.983107655674)"
51TE,1630287,MPM1630287,YES,NO,Reino TX-P,Moubray Street,144.98151939122482,-37.84800926650164,"(-37.848009266502, 144.981519391225)"
51TA,1630288,MPM1630288,YES,NO,Reino TX-P,Moubray Street,144.98385552489958,-37.848298954123386,"(-37.848298954123, 144.9838555249)"
RFWT1,1630289,MPM1630289,YES,NO,Reino TX-P,Simpson Street,144.98853581721463,-37.81157349347338,"(-37.811573493473, 144.988535817215)"
TM49,1630310,MPM1630310,YES,NO,Reino TX-P,Birdwood Avenue,144.97332434159983,-37.82816125885719,"(-37.828161258857, 144.9733243416)"
TM50,1630311,MPM1630311,YES,NO,Reino TX-P,Birdwood Avenue,144.97403662075044,-37.82888167056569,"(-37.828881670566, 144.97403662075)"
TM51,1630312,MPM1630312,YES,NO,Reino TX-P,Birdwood Avenue,144.97764259197848,-37.83196440804758,"(-37.831964408048, 144.977642591978)"
TM54A,1630313,MPM1630313,YES,NO,Reino TX-P,Birdwood Avenue,144.9786608327886,-37.83287302232497,"(-37.832873022325, 144.978660832789)"
TM56,1630314,MPM1630314,YES,NO,Reino TX-P,Birdwood Avenue,144.979922932517,-37.83321781958084,"(-37.833217819581, 144.979922932517)"
TM61,1630316,MPM1630316,YES,NO,Reino TX-P,Dallas Brooks Drive,144.97640304534207,-37.83270489016739,"(-37.832704890167, 144.976403045342)"
TM83,1630317,MPM1630317,YES,NO,Reino TX-P,Domain Road,144.97812950396622,-37.8334886293524,"(-37.833488629352, 144.978129503966)"
TNT66,1630321,MPM1630321,YES,NO,Reino TX-P,Wellington Parade South,144.9806623585082,-37.81656692506642,"(-37.816566925066, 144.980662358508)"
TNT78,1630322,MPM1630322,YES,NO,Reino TX-P,Wellington Parade South,144.9814704148614,-37.81665341533271,"(-37.816653415333, 144.981470414861)"
146TJ,1630323,MPM1630323,YES,NO,Reino TX-P,Alexandra Avenue,144.97980308538354,-37.826915677564365,"(-37.826915677564, 144.979803085384)"
27TA,1630324,MPM1630324,YES,NO,Reino TX-P,Birdwood Avenue,144.97297570887378,-37.827617850044774,"(-37.827617850045, 144.972975708874)"
146TD,1630325,MPM1630325,YES,NO,Reino TX-P,Alexandra Avenue,144.9785492618723,-37.82564035915253,"(-37.825640359153, 144.978549261872)"
146TT,1630326,MPM1630326,YES,NO,Reino TX-P,Alexandra Avenue,144.9836223799537,-37.82804439454302,"(-37.828044394543, 144.983622379954)"
26TC,1630327,MPM1630327,YES,NO,Reino TX-P,Linlithgow Avenue,144.97233361705332,-37.825366831709275,"(-37.825366831709, 144.972333617053)"
27TN,1630328,MPM1630328,YES,NO,Reino TX-P,Domain Road,144.97685740992986,-37.833314756300474,"(-37.8333147563, 144.97685740993)"
104TA,1630329,MPM1630329,YES,NO,Reino TX-P,St Kilda Road,144.98011444777876,-37.84843136513127,"(-37.848431365131, 144.980114447779)"
VST103,1630330,MPM1630330,YES,NO,Reino TX-P,Albert Street,144.9867642097417,-37.810877092270815,"(-37.810877092271, 144.986764209742)"
VST104,1630331,MPM1630331,YES,NO,Reino TX-P,Albert Street,144.98754306305852,-37.810962815675,"(-37.810962815675, 144.987543063059)"
TM53A,1630333,MPM1630333,YES,NO,Reino TX-P,Birdwood Avenue,144.97822478720246,-37.83248484232367,"(-37.832484842324, 144.978224787202)"
60TA,1630335,MPM1630335,YES,NO,Reino TX-P,Toorak Road,144.98347066781034,-37.83806710122504,"(-37.838067101225, 144.98347066781)"
135TA,1630337,MPM1630337,YES,NO,Reino TX-P,Domain Road,144.97602180080435,-37.83336857647707,"(-37.833368576477, 144.976021800804)"
26TH,1630338,MPM1630338,YES,NO,Reino TX-P,Linlithgow Avenue,144.9712008929283,-37.823615042698705,"(-37.823615042699, 144.971200892928)"
27TE,1630339,MPM1630339,YES,NO,Reino TX-P,Birdwood Avenue,144.97779248944406,-37.8323078615083,"(-37.832307861508, 144.977792489444)"
387TA,1630344,MPM1630344,YES,NO,Reino TX-P,Birdwood Avenue,144.9757684504808,-37.83061047252008,"(-37.83061047252, 144.975768450481)"
135TB,1630346,MPM1630346,YES,NO,Reino TX-P,Domain Road,144.97826138190018,-37.83365990958417,"(-37.833659909584, 144.9782613819)"
36TA,1630347,MPM1630347,YES,NO,Reino TX-P,Commercial Road,144.97976963313548,-37.84488444762707,"(-37.844884447627, 144.979769633135)"
67TF,1630349,MPM1630349,YES,YES,Reino TTX,College Crescent,144.95901134369146,-37.7930790462688,"(-37.793079046269, 144.959011343691)"
67TH,1630350,MPM1630350,YES,YES,Reino TTX,Royal Parade,144.958637224951,-37.793666528483975,"(-37.793666528484, 144.958637224951)"
103TC,1630351,MPM1630351,YES,YES,Reino TTX,Royal Parade,144.9581891367276,-37.796534887289226,"(-37.796534887289, 144.958189136728)"
103TD,1630352,MPM1630352,YES,YES,Reino TTX,Royal Parade,144.95827606141876,-37.79587822832535,"(-37.795878228325, 144.958276061419)"
102TD,1630353,MPM1630353,YES,YES,Reino TTX,Royal Parade,144.95926350594178,-37.787717844461554,"(-37.787717844462, 144.959263505942)"
WFET1,1630354,MPM1630354,YES,YES,Reino TTX,Waterfront Way,144.9393893112888,-37.81343713117701,"(-37.813437131177, 144.939389311289)"
67TC,1630355,MPM1630355,YES,YES,Reino TTX,College Crescent,144.96061688818097,-37.79211672625997,"(-37.79211672626, 144.960616888181)"
102TA,1630357,MPM1630357,YES,YES,Reino TTX,Royal Parade,144.95880019147705,-37.79151669998591,"(-37.791516699986, 144.958800191477)"
67TE,1630358,MPM1630358,YES,YES,Reino TTX,College Crescent,144.95938752305892,-37.792420576592995,"(-37.792420576593, 144.959387523059)"
67TD,1630367,MPM1630367,YES,YES,Reino TTX,College Crescent,144.95954801092805,-37.792601249846875,"(-37.792601249847, 144.959548010928)"
67TG,1630368,MPM1630368,YES,YES,Reino TTX,College Crescent,144.95889313913844,-37.79292175173719,"(-37.792921751737, 144.958893139138)"
102TB,1630369,MPM1630369,YES,YES,Reino TTX,Royal Parade,144.95889106850447,-37.79076875599682,"(-37.790768755997, 144.958891068504)"
103TF,1630370,MPM1630370,YES,YES,Reino TTX,Royal Parade,144.9584523811998,-37.79442464841038,"(-37.79442464841, 144.9584523812)"
102TI,1630397,MPM1630397,YES,YES,Reino TTX,Royal Parade,144.9598764246502,-37.78259626524562,"(-37.782596265246, 144.95987642465)"
127TA,1630434,MPM1630434,YES,YES,Cale CWT-C,Balston Street,144.9625659426866,-37.826365489020915,"(-37.826365489021, 144.962565942687)"
171TC,1630440,MPM1630440,YES,YES,Cale CWT-C,Miles Street,144.96627785186038,-37.828474565981594,"(-37.828474565982, 144.96627785186)"
383TA,1630441,MPM1630441,YES,YES,Cale CWT-C,Coventry Street,144.96955200560163,-37.82904837045866,"(-37.829048370459, 144.969552005602)"
186TC,1630442,MPM1630442,YES,YES,Cale CWT-C,Dodds Street,144.96737654220024,-37.82816341234857,"(-37.828163412349, 144.9673765422)"
186TB,1630443,MPM1630443,YES,YES,Cale CWT-C,Dodds Street,144.96757955164904,-37.82749469485051,"(-37.827494694851, 144.967579551649)"
385TA,1630444,MPM1630444,YES,YES,Cale CWT-C,Dorcas Street,144.9701109374843,-37.830149394296456,"(-37.830149394296, 144.970110937484)"
167A,1646985,MPM1646985,YES,YES,Reino TVX,Pelham Street,144.96711258504286,-37.80299304985968,"(-37.80299304986, 144.967112585043)"
167B,1646986,MPM1646986,YES,YES,Reino TVX,Pelham Street,144.96750845535948,-37.80281340235085,"(-37.802813402351, 144.967508455359)"
323A,1646987,MPM1646987,YES,YES,Reino TVX,Pelham Street,144.9582200314545,-37.80179323291303,"(-37.801793232913, 144.958220031455)"
323B,1646988,MPM1646988,YES,YES,Reino TVX,Pelham Street,144.95811380572854,-37.802005970282906,"(-37.802005970283, 144.958113805729)"
321A,1646989,MPM1646989,YES,YES,Reino TVX,Pelham Street,144.96157859227344,-37.80216270171239,"(-37.802162701712, 144.961578592273)"
321B,1646990,MPM1646990,YES,YES,Reino TVX,Pelham Street,144.96118884951403,-37.8023438230565,"(-37.802343823056, 144.961188849514)"
322A,1646991,MPM1646991,YES,YES,Reino TVX,Pelham Street,144.95909230215779,-37.80188856721752,"(-37.801888567218, 144.959092302158)"
293A,1646992,MPM1646992,YES,YES,Reino TVX,Pelham Street,144.96861009991068,-37.80315447418459,"(-37.803154474185, 144.968610099911)"
293B,1646993,MPM1646993,YES,YES,Reino TVX,Pelham Street,144.9689968438547,-37.80297909800268,"(-37.802979098003, 144.968996843855)"
357A,1646994,MPM1646994,YES,YES,Reino TVX,Argyle Place North,144.96602905628635,-37.80213648787449,"(-37.802136487874, 144.966029056286)"
356A,1646995,MPM1646995,YES,YES,Reino TVX,Argyle Place South,144.96574146765158,-37.803356824595284,"(-37.803356824595, 144.965741467652)"
169A,1646996,MPM1646996,YES,YES,Reino TVX,Berkeley Street,144.9598657842267,-37.80474843604415,"(-37.804748436044, 144.959865784227)"
169B,1646997,MPM1646997,YES,YES,Reino TVX,Berkeley Street,144.95985156173614,-37.8051410035138,"(-37.805141003514, 144.959851561736)"
168A,1646998,MPM1646998,YES,YES,Reino TVX,Berkeley Street,144.95881036659972,-37.80046020854636,"(-37.800460208546, 144.9588103666)"
168B,1646999,MPM1646999,YES,YES,Reino TVX,Berkeley Street,144.9585545411264,-37.8008830490516,"(-37.800883049052, 144.958554541126)"
168C,1647000,MPM1647000,YES,YES,Reino TVX,Berkeley Street,144.95863679751096,-37.80143681533484,"(-37.801436815335, 144.958636797511)"
319A,1647001,MPM1647001,YES,YES,Reino TVX,Cardigan Street,144.96475390026518,-37.805458689850234,"(-37.80545868985, 144.964753900265)"
319B,1647002,MPM1647002,YES,YES,Reino TVX,Cardigan Street,144.9643493135554,-37.806159309800755,"(-37.806159309801, 144.964349313555)"
319C,1647003,MPM1647003,YES,YES,Reino TVX,Cardigan Street,144.96462495998213,-37.806188090941106,"(-37.806188090941, 144.964624959982)"
308A,1647004,MPM1647004,YES,YES,Reino TVX,Leicester Street,144.96007728099804,-37.80472410946002,"(-37.80472410946, 144.960077280998)"
308B,1647005,MPM1647005,YES,YES,Reino TVX,Leicester Street,144.95989664370546,-37.80574514928874,"(-37.805745149289, 144.959896643705)"
355A,1647006,MPM1647006,YES,YES,Reino TVX,Lincoln Square North,144.96276044269123,-37.801562566680076,"(-37.80156256668, 144.962760442691)"
355B,1647007,MPM1647007,YES,YES,Reino TVX,Lincoln Square North,144.96318088192086,-37.80182444010504,"(-37.801824440105, 144.963180881921)"
320A,1647008,MPM1647008,YES,YES,Reino TVX,Lincoln Square South,144.96263583333135,-37.803018416735924,"(-37.803018416736, 144.962635833331)"
320B,1647009,MPM1647009,YES,YES,Reino TVX,Lincoln Square South,144.96299951633782,-37.80327730827034,"(-37.80327730827, 144.962999516338)"
172A,1647010,MPM1647010,YES,YES,Reino TVX,Berkeley Street,144.9589253225373,-37.80313653361915,"(-37.803136533619, 144.958925322537)"
172B,1647011,MPM1647011,YES,YES,Reino TVX,Berkeley Street,144.9592727297594,-37.80346676192879,"(-37.803466761929, 144.959272729759)"
201A,1647012,MPM1647012,YES,YES,Reino TVX,Elizabeth Street,144.95752771138652,-37.802643238667905,"(-37.802643238668, 144.957527711387)"
201B,1647013,MPM1647013,YES,YES,Reino TVX,Elizabeth Street,144.95825932741351,-37.802937300239705,"(-37.80293730024, 144.958259327414)"
201C,1647014,MPM1647014,YES,YES,Reino TVX,Elizabeth Street,144.95783196052457,-37.80330213868008,"(-37.80330213868, 144.957831960525)"
306A,1647015,MPM1647015,YES,YES,Reino TVX,Leicester Street,144.96041783882552,-37.802802391192635,"(-37.802802391193, 144.960417838826)"
306B,1647016,MPM1647016,YES,YES,Reino TVX,Leicester Street,144.96058770081427,-37.80340615675059,"(-37.803406156751, 144.960587700814)"
210A,1647017,MPM1647017,YES,YES,Reino TVX,Lygon Street,144.96754800026068,-37.79786574182243,"(-37.797865741822, 144.967548000261)"
210B,1647018,MPM1647018,YES,YES,Reino TVX,Lygon Street,144.9673081270717,-37.797900226236116,"(-37.797900226236, 144.967308127072)"
349A,1647019,MPM1647019,YES,YES,Reino TVX,Lygon Street,144.96721958231285,-37.79970869679875,"(-37.799708696799, 144.967219582313)"
349B,1647020,MPM1647020,YES,YES,Reino TVX,Lygon Street,144.96691890176285,-37.80016007013782,"(-37.800160070138, 144.966918901763)"
223A,1647021,MPM1647021,YES,YES,Reino TVX,Lygon Street,144.9659042716441,-37.805900858302,"(-37.805900858302, 144.965904271644)"
223B,1647022,MPM1647022,YES,YES,Reino TVX,Lygon Street,144.96616591880365,-37.806004362952265,"(-37.806004362952, 144.966165918804)"
223C,1647023,MPM1647023,YES,YES,Reino TVX,Lygon Street,144.96581040002582,-37.806442935030596,"(-37.806442935031, 144.965810400026)"
161D,1647027,MPM1647027,YES,YES,Reino TVX,Nicholson Street,144.9732328309272,-37.80686516421698,"(-37.806865164217, 144.973232830927)"
304A,1647028,MPM1647028,YES,YES,Reino TVX,Pelham Street,144.964140862292,-37.80244426148665,"(-37.802444261487, 144.964140862292)"
304B,1647029,MPM1647029,YES,YES,Reino TVX,Pelham Street,144.96455129294696,-37.802712373446134,"(-37.802712373446, 144.964551292947)"
191A,1647030,MPM1647030,YES,YES,Reino TVX,Queensberry Street,144.96512717145976,-37.80466473297921,"(-37.804664732979, 144.96512717146)"
191B,1647031,MPM1647031,YES,YES,Reino TVX,Queensberry Street,144.96552445297624,-37.80493038850872,"(-37.804930388509, 144.965524452976)"
162A,1647032,MPM1647032,YES,YES,Reino TVX,Rathdowne Street,144.96962865297968,-37.80164991389584,"(-37.801649913896, 144.96962865298)"
162B,1647033,MPM1647033,YES,YES,Reino TVX,Rathdowne Street,144.96989765913727,-37.80175849355855,"(-37.801758493559, 144.969897659137)"
162C,1647034,MPM1647034,YES,YES,Reino TVX,Rathdowne Street,144.9697780468316,-37.802440975595516,"(-37.802440975596, 144.969778046832)"
162D,1647035,MPM1647035,YES,YES,Reino TVX,Rathdowne Street,144.96944981756275,-37.802738031170655,"(-37.802738031171, 144.969449817563)"
361A,1647036,MPM1647036,YES,YES,Reino TVX,Rathdowne Street,144.9691927081409,-37.805922442923354,"(-37.805922442923, 144.969192708141)"
361B,1647037,MPM1647037,YES,YES,Reino TVX,Rathdowne Street,144.96887024089165,-37.806215387393785,"(-37.806215387394, 144.968870240892)"
360A,1647038,MPM1647038,YES,YES,Reino TVX,Swanston Street,144.96283730642338,-37.806149365218324,"(-37.806149365218, 144.962837306423)"
190A,1647039,MPM1647039,YES,YES,Reino TVX,O'Connell Street,144.95707097364746,-37.80290578603923,"(-37.802905786039, 144.957070973647)"
190B,1647040,MPM1647040,YES,YES,Reino TVX,O'Connell Street,144.9571916120061,-37.803578182919466,"(-37.803578182919, 144.957191612006)"
221A,1647041,MPM1647041,YES,YES,Reino TVX,Cobden Street,144.95723748624587,-37.80479866682333,"(-37.804798666823, 144.957237486246)"
220A,1647042,MPM1647042,YES,YES,Reino TVX,Queensberry Street,144.95702576476899,-37.80376819357519,"(-37.803768193575, 144.957025764769)"
220B,1647043,MPM1647043,YES,YES,Reino TVX,Queensberry Street,144.95700227435236,-37.803984654130744,"(-37.803984654131, 144.957002274352)"
165A,1647045,MPM1647045,YES,YES,Reino TVX,Elizabeth Street,144.95774872897167,-37.8004382876132,"(-37.800438287613, 144.957748728972)"
192A,1647046,MPM1647046,YES,YES,Reino TVX,Cardigan Street,144.96558039208898,-37.79905589190326,"(-37.799055891903, 144.965580392089)"
192B,1647047,MPM1647047,YES,YES,Reino TVX,Cardigan Street,144.96544344771664,-37.799835253022586,"(-37.799835253023, 144.965443447717)"
220C,1647048,MPM1647048,YES,YES,Reino TVX,Queensberry Street,144.9577540570192,-37.80385133440472,"(-37.803851334405, 144.957754057019)"
220D,1647049,MPM1647049,YES,YES,Reino TVX,Queensberry Street,144.95792395942192,-37.804085946280075,"(-37.80408594628, 144.957923959422)"
296A,1647050,MPM1647050,YES,YES,Reino TVX,Cardigan Street,144.96550497457596,-37.80110740953905,"(-37.801107409539, 144.965504974576)"
296B,1647051,MPM1647051,YES,YES,Reino TVX,Cardigan Street,144.96516750637932,-37.801455164966654,"(-37.801455164967, 144.965167506379)"
363A,1647052,MPM1647052,YES,YES,Reino TVX,Cardigan Street,144.96504329732903,-37.80216824739613,"(-37.802168247396, 144.965043297329)"
363B,1647053,MPM1647053,YES,YES,Reino TVX,Cardigan Street,144.96523263177178,-37.80267921551444,"(-37.802679215514, 144.965232631772)"
297A,1647054,MPM1647054,YES,YES,Reino TVX,Cardigan Street,144.9647873660153,-37.80363817805762,"(-37.803638178058, 144.964787366015)"
303A,1647056,MPM1647056,YES,YES,Reino TVX,Faraday Street,144.9648222561255,-37.79830161837039,"(-37.79830161837, 144.964822256126)"
303B,1647057,MPM1647057,YES,YES,Reino TVX,Faraday Street,144.96511290887696,-37.79855475338925,"(-37.798554753389, 144.965112908877)"
310A,1647058,MPM1647058,YES,YES,Reino TVX,Queensberry Street,144.96087756148526,-37.80441830461396,"(-37.804418304614, 144.960877561485)"
311A,1647059,MPM1647059,YES,YES,Reino TVX,Queensberry Street,144.96695450091372,-37.805084396446155,"(-37.805084396446, 144.966954500914)"
311B,1647060,MPM1647060,YES,YES,Reino TVX,Queensberry Street,144.96699945594204,-37.80486697043678,"(-37.804866970437, 144.966999455942)"
313A,1647061,MPM1647061,YES,YES,Reino TVX,Queensberry Street,144.96802630745174,-37.80520283656118,"(-37.805202836561, 144.968026307452)"
313B,1647062,MPM1647062,YES,YES,Reino TVX,Queensberry Street,144.96826014955533,-37.80500799949965,"(-37.8050079995, 144.968260149555)"
318A,1647063,MPM1647063,YES,YES,Reino TVX,Queensberry Street,144.96234285648418,-37.80458301786033,"(-37.80458301786, 144.962342856484)"
342A,1647064,MPM1647064,YES,YES,Reino TVX,Queensberry Street,144.9639761825564,-37.80453746283878,"(-37.804537462839, 144.963976182556)"
342B,1647065,MPM1647065,YES,YES,Reino TVX,Queensberry Street,144.963933772773,-37.80475536417663,"(-37.804755364177, 144.963933772773)"
174A,1647068,MPM1647068,YES,YES,Reino TVX,MacArthur Place South,144.9712311266557,-37.79843467582141,"(-37.798434675821, 144.971231126656)"
174B,1647069,MPM1647069,YES,YES,Reino TVX,MacArthur Place North,144.97139737914063,-37.79824426390215,"(-37.798244263902, 144.971397379141)"
174C,1647070,MPM1647070,YES,YES,Reino TVX,MacArthur Place South,144.97207707415356,-37.79852749556829,"(-37.798527495568, 144.972077074154)"
176A,1647071,MPM1647071,YES,YES,Reino TVX,Grattan Street,144.9609124304347,-37.80021119531407,"(-37.800211195314, 144.960912430435)"
261A,1647072,MPM1647072,YES,YES,Reino TVX,Elizabeth Street,144.95916762341867,-37.804904633148105,"(-37.804904633148, 144.959167623419)"
261B,1647073,MPM1647073,YES,YES,Reino TVX,Elizabeth Street,144.9587792896076,-37.805370019685384,"(-37.805370019685, 144.958779289608)"
261C,1647074,MPM1647074,YES,YES,Reino TVX,Elizabeth Street,144.95954803653072,-37.8057320350027,"(-37.805732035003, 144.959548036531)"
366A,1647075,MPM1647075,YES,YES,Reino TVX,Grattan Street,144.96594034334765,-37.800548828324246,"(-37.800548828324, 144.965940343348)"
366B,1647076,MPM1647076,YES,YES,Reino TVX,Grattan Street,144.96611341816865,-37.800743426128676,"(-37.800743426129, 144.966113418169)"
338A,1647077,MPM1647077,YES,YES,Reino TVX,Rathdowne Street,144.969244973183,-37.80403322269946,"(-37.804033222699, 144.969244973183)"
372A,1647078,MPM1647078,YES,YES,Reino TVX,Swanston Street,144.9639106012805,-37.799992898169926,"(-37.79999289817, 144.963910601281)"
178A,1647079,MPM1647079,YES,YES,Reino TVX,Bouverie Street,144.96254044984946,-37.80085699571275,"(-37.800856995713, 144.962540449849)"
178B,1647080,MPM1647080,YES,YES,Reino TVX,Bouverie Street,144.96221473423924,-37.801123389313155,"(-37.801123389313, 144.962214734239)"
364A,1647081,MPM1647081,YES,YES,Reino TVX,Bouverie Street,144.96231973590068,-37.80213120860933,"(-37.802131208609, 144.962319735901)"
364B,1647082,MPM1647082,YES,YES,Reino TVX,Bouverie Street,144.96193295881983,-37.802747814572335,"(-37.802747814572, 144.96193295882)"
365A,1647083,MPM1647083,YES,YES,Reino TVX,Bouverie Street,144.9620907635624,-37.80344151417781,"(-37.803441514178, 144.962090763562)"
365B,1647084,MPM1647084,YES,YES,Reino TVX,Bouverie Street,144.96172006314154,-37.803967126232486,"(-37.803967126232, 144.961720063142)"
367A,1647085,MPM1647085,YES,YES,Reino TVX,Lygon Street,144.96692506990607,-37.80144027316487,"(-37.801440273165, 144.966925069906)"
367B,1647086,MPM1647086,YES,YES,Reino TVX,Lygon Street,144.96661854613873,-37.80187949588891,"(-37.801879495889, 144.966618546139)"
368A,1647087,MPM1647087,YES,YES,Reino TVX,Lygon Street,144.96658600876862,-37.803358578000925,"(-37.803358578001, 144.966586008769)"
368B,1647088,MPM1647088,YES,YES,Reino TVX,Lygon Street,144.96625588167552,-37.804038438961804,"(-37.804038438962, 144.966255881676)"
368C,1647089,MPM1647089,YES,YES,Reino TVX,Lygon Street,144.96645147389862,-37.804159844001205,"(-37.804159844001, 144.966451473899)"
228A,1647090,MPM1647090,YES,YES,Reino TVX,Bouverie Street,144.96155673300512,-37.804897053199056,"(-37.804897053199, 144.961556733005)"
228B,1647091,MPM1647091,YES,YES,Reino TVX,Bouverie Street,144.96175326091435,-37.80538285500368,"(-37.805382855004, 144.961753260914)"
228C,1647092,MPM1647092,YES,YES,Reino TVX,Bouverie Street,144.96137168028832,-37.80599015825713,"(-37.805990158257, 144.961371680288)"
262A,1647093,MPM1647093,YES,YES,Reino TVX,Swanston Street,144.96353813986732,-37.803766329849985,"(-37.80376632985, 144.963538139867)"
371A,1647095,MPM1647095,YES,YES,Reino TVX,Swanston Street,144.9640269472863,-37.80094327317363,"(-37.800943273174, 144.964026947286)"
371B,1647096,MPM1647096,YES,YES,Reino TVX,Swanston Street,144.9636800547266,-37.801358125231566,"(-37.801358125232, 144.963680054727)"
307A,1647097,MPM1647097,YES,YES,Reino TVX,Barry Street,144.959708905903,-37.80258516477784,"(-37.802585164778, 144.959708905903)"
307B,1647098,MPM1647098,YES,YES,Reino TVX,Barry Street,144.95993632101082,-37.80308705002161,"(-37.803087050022, 144.959936321011)"
307C,1647099,MPM1647099,YES,YES,Reino TVX,Barry Street,144.95979088398502,-37.80340734994322,"(-37.803407349943, 144.959790883985)"
246B,1647100,MPM1647100,YES,YES,Reino TVX,Bourke Street,144.94572236697977,-37.81938925780236,"(-37.819389257802, 144.94572236698)"
246A,1647101,MPM1647101,YES,YES,Reino TVX,Bourke Street,144.94487464312965,-37.81963379465546,"(-37.819633794655, 144.94487464313)"
253C,1647102,MPM1647102,YES,YES,Reino TVX,Bourke Street,144.94415799350446,-37.819626375282176,"(-37.819626375282, 144.944157993504)"
253B,1647103,MPM1647103,YES,YES,Reino TVX,Bourke Street,144.9432481694029,-37.819885541436776,"(-37.819885541437, 144.943248169403)"
253A,1647104,MPM1647104,YES,YES,Reino TVX,Bourke Street,144.94325089349795,-37.82010333927572,"(-37.820103339276, 144.943250893498)"
658B,1647352,MPM1647352,YES,YES,Cale CWT-C Touch,Little Lonsdale Street,144.9697627974753,-37.80893075261064,"(-37.808930752611, 144.969762797475)"
658A,1647353,MPM1647353,YES,YES,Cale CWT-C Touch,Little Lonsdale Street,144.9704727486509,-37.80880670592816,"(-37.808806705928, 144.970472748651)"
607B,1647354,MPM1647354,YES,YES,Cale CWT-C Touch,Flinders Street,144.95670440347072,-37.82072797983732,"(-37.820727979837, 144.956704403471)"
607A,1647355,MPM1647355,YES,YES,Cale CWT-C Touch,Flinders Street,144.95617641516642,-37.82060401529147,"(-37.820604015291, 144.956176415166)"
506C,1647356,MPM1647356,YES,YES,Cale CWT-C Touch,Spring Street,144.9717608707821,-37.808905292932046,"(-37.808905292932, 144.971760870782)"
506A,1647357,MPM1647357,YES,YES,Cale CWT-C Touch,Spring Street,144.971966225285,-37.808718438029814,"(-37.80871843803, 144.971966225285)"
506D,1647358,MPM1647358,YES,YES,Cale CWT-C Touch,Spring Street,144.97147198308457,-37.80827411527726,"(-37.808274115277, 144.971471983085)"
506B,1647359,MPM1647359,YES,YES,Cale CWT-C Touch,Spring Street,144.97177369645655,-37.80829502897573,"(-37.808295028976, 144.971773696457)"
573B,1647360,MPM1647360,YES,YES,Cale CWT-C Touch,King Street,144.9540722850661,-37.81311091290742,"(-37.813110912907, 144.954072285066)"
694A,1647361,MPM1647361,YES,YES,Cale CWT-C Touch,Victoria Street,144.96483242506534,-37.806755444102045,"(-37.806755444102, 144.964832425065)"
578A,1647362,MPM1647362,YES,YES,Cale CWT-C Touch,Spencer Street,144.95457582001166,-37.82030159652593,"(-37.820301596526, 144.954575820012)"
555A,1647363,MPM1647363,YES,YES,Cale CWT-C Touch,William Street,144.95927999267948,-37.81833108761624,"(-37.818331087616, 144.959279992679)"
563A,1647364,MPM1647364,YES,YES,Cale CWT-C Touch,William Street,144.9562362655898,-37.81105743324792,"(-37.811057433248, 144.95623626559)"
563B,1647365,MPM1647365,YES,YES,Cale CWT-C Touch,William Street,144.9555556020873,-37.81022068139873,"(-37.810220681399, 144.955555602087)"
563C,1647366,MPM1647366,YES,YES,Cale CWT-C Touch,William Street,144.95587599867832,-37.81090649597248,"(-37.810906495972, 144.955875998678)"
674B,1647367,MPM1647367,YES,YES,Cale CWT-C Touch,La Trobe Street,144.95292080109922,-37.81286682273511,"(-37.812866822735, 144.952920801099)"
674A,1647368,MPM1647368,YES,YES,Cale CWT-C Touch,La Trobe Street,144.9526925204478,-37.81270089473115,"(-37.812700894731, 144.952692520448)"
560A,1647369,MPM1647369,YES,YES,Cale CWT-C Touch,William Street,144.95692982864975,-37.81320437132058,"(-37.813204371321, 144.95692982865)"
676B,1647370,MPM1647370,YES,YES,Cale CWT-C Touch,MacKenzie Street,144.96662718349268,-37.80749348580447,"(-37.807493485804, 144.966627183493)"
676A,1647371,MPM1647371,YES,YES,Cale CWT-C Touch,MacKenzie Street,144.96651624328948,-37.80767781634709,"(-37.807677816347, 144.966516243289)"
558A,1647373,MPM1647373,YES,YES,Cale CWT-C Touch,William Street,144.95798300598162,-37.814871502522614,"(-37.814871502523, 144.957983005982)"
558B,1647374,MPM1647374,YES,YES,Cale CWT-C Touch,William Street,144.95788026254021,-37.81528110703531,"(-37.815281107035, 144.95788026254)"
559A,1647375,MPM1647375,YES,YES,Cale CWT-C Touch,William Street,144.9576005637454,-37.81403851896724,"(-37.814038518967, 144.957600563745)"
559B,1647376,MPM1647376,YES,YES,Cale CWT-C Touch,William Street,144.9574720338595,-37.814392884438114,"(-37.814392884438, 144.95747203386)"
561A,1647377,MPM1647377,YES,YES,Cale CWT-C Touch,William Street,144.95677477508187,-37.812222923558934,"(-37.812222923559, 144.956774775082)"
561B,1647378,MPM1647378,YES,YES,Cale CWT-C Touch,William Street,144.95664492005787,-37.81257342621195,"(-37.812573426212, 144.956644920058)"
554A,1647379,MPM1647379,YES,YES,Cale CWT-C Touch,William Street,144.95981877031426,-37.81886362848849,"(-37.818863628488, 144.959818770314)"
554B,1647380,MPM1647380,YES,YES,Cale CWT-C Touch,William Street,144.95958462257866,-37.81898915098821,"(-37.818989150988, 144.959584622579)"
614A,1647381,MPM1647381,YES,YES,Cale CWT-C Touch,Flinders Lane,144.96009718343623,-37.81854845418151,"(-37.818548454182, 144.960097183436)"
582A,1647382,MPM1647382,YES,YES,Cale CWT-C Touch,Spencer Street,144.9530294743157,-37.816294129806906,"(-37.816294129807, 144.953029474316)"
725B,1647383,MPM1647383,YES,YES,Cale CWT-C Touch,Queens Bridge Street,144.96030238852885,-37.82441559091794,"(-37.824415590918, 144.960302388529)"
725A,1647384,MPM1647384,YES,YES,Cale CWT-C Touch,Queens Bridge Street,144.96057096082876,-37.82442847112151,"(-37.824428471122, 144.960570960829)"
665C,1647385,MPM1647385,YES,YES,Cale CWT-C Touch,Little Lonsdale Street,144.95363006371045,-37.81369975182564,"(-37.813699751826, 144.95363006371)"
521A,1647386,MPM1647386,YES,YES,Cale CWT-C Touch,Russell Street,144.96733331301064,-37.81146395301146,"(-37.811463953011, 144.967333313011)"
521B,1647387,MPM1647387,YES,YES,Cale CWT-C Touch,Russell Street,144.9675411066376,-37.81127125452467,"(-37.811271254525, 144.967541106638)"
656A,1647388,MPM1647388,YES,YES,Cale CWT-C Touch,Lonsdale Street,144.95656197154167,-37.81404839080275,"(-37.814048390803, 144.956561971542)"
656B,1647389,MPM1647389,YES,YES,Cale CWT-C Touch,Lonsdale Street,144.9562305294599,-37.81391069735051,"(-37.813910697351, 144.95623052946)"
656D,1647390,MPM1647390,YES,YES,Cale CWT-C Touch,Lonsdale Street,144.95543418922804,-37.81413839629622,"(-37.814138396296, 144.955434189228)"
656C,1647391,MPM1647391,YES,YES,Cale CWT-C Touch,Lonsdale Street,144.95563375856096,-37.814313156744845,"(-37.814313156745, 144.955633758561)"
655A,1647392,MPM1647392,YES,YES,Cale CWT-C Touch,Lonsdale Street,144.95924831311612,-37.81304371378519,"(-37.813043713785, 144.959248313116)"
655B,1647393,MPM1647393,YES,YES,Cale CWT-C Touch,Lonsdale Street,144.9590541098207,-37.81332891318642,"(-37.813328913186, 144.959054109821)"
655D,1647394,MPM1647394,YES,YES,Cale CWT-C Touch,Lonsdale Street,144.95796025639126,-37.81364867297822,"(-37.813648672978, 144.957960256391)"
655C,1647395,MPM1647395,YES,YES,Cale CWT-C Touch,Lonsdale Street,144.95838922828736,-37.81329254146127,"(-37.813292541461, 144.958389228287)"
664C,1647396,MPM1647396,YES,YES,Cale CWT-C Touch,Little Lonsdale Street,144.9559577843206,-37.81295584521244,"(-37.812955845212, 144.955957784321)"
525A,1647397,MPM1647397,YES,YES,Cale CWT-C Touch,Russell Street,144.9659280778505,-37.80748042040373,"(-37.807480420404, 144.965928077851)"
634A,1647398,MPM1647398,YES,YES,Cale CWT-C Touch,Bourke Street,144.97120329533294,-37.81179518117874,"(-37.811795181179, 144.971203295333)"
634B,1647399,MPM1647399,YES,YES,Cale CWT-C Touch,Bourke Street,144.97136339580595,-37.811946462563434,"(-37.811946462563, 144.971363395806)"
664A,1647400,MPM1647400,YES,YES,Cale CWT-C Touch,Little Lonsdale Street,144.9547722694539,-37.81330509261235,"(-37.813305092612, 144.954772269454)"
664B,1647401,MPM1647401,YES,YES,Cale CWT-C Touch,Little Lonsdale Street,144.95483504669795,-37.81335963167956,"(-37.81335963168, 144.954835046698)"
664D,1647402,MPM1647402,YES,YES,Cale CWT-C Touch,Little Lonsdale Street,144.95584626091156,-37.813069854358226,"(-37.813069854358, 144.955846260912)"
571A,1647403,MPM1647403,YES,YES,Cale CWT-C Touch,King Street,144.955210460301,-37.81494175649927,"(-37.814941756499, 144.955210460301)"
571B,1647404,MPM1647404,YES,YES,Cale CWT-C Touch,King Street,144.9550211553776,-37.81516519539071,"(-37.815165195391, 144.955021155378)"
500A,1647405,MPM1647405,YES,YES,Cale CWT-C Touch,Spring Street,144.97473448624564,-37.81471459451856,"(-37.814714594519, 144.974734486246)"
501A,1647406,MPM1647406,YES,YES,Cale CWT-C Touch,Spring Street,144.9741475680445,-37.814005824270296,"(-37.81400582427, 144.974147568045)"
653A,1647407,MPM1647407,YES,YES,Cale CWT-C Touch,Lonsdale Street,144.9626542254979,-37.81205320215376,"(-37.812053202154, 144.962654225498)"
640A,1647408,MPM1647408,YES,YES,Cale CWT-C Touch,Bourke Street,144.95620267514897,-37.816156283793944,"(-37.816156283794, 144.956202675149)"
640B,1647409,MPM1647409,YES,YES,Cale CWT-C Touch,Bourke Street,144.95666081916448,-37.81622200955851,"(-37.816222009559, 144.956660819164)"
640C,1647410,MPM1647410,YES,YES,Cale CWT-C Touch,Bourke Street,144.95699141058876,-37.8159298988769,"(-37.815929898877, 144.956991410589)"
639B,1647414,MPM1647414,YES,YES,Cale CWT-C Touch,Bourke Street,144.9591114976829,-37.81532442499312,"(-37.815324424993, 144.959111497683)"
639A,1647415,MPM1647415,YES,YES,Cale CWT-C Touch,Bourke Street,144.95875273763497,-37.815624650670195,"(-37.81562465067, 144.958752737635)"
568A,1647416,MPM1647416,YES,YES,Cale CWT-C Touch,King Street,144.9561843825788,-37.81770539162482,"(-37.817705391625, 144.956184382579)"
569A,1647417,MPM1647417,YES,YES,Cale CWT-C Touch,King Street,144.95607373723598,-37.816832278617724,"(-37.816832278618, 144.956073737236)"
569B,1647418,MPM1647418,YES,YES,Cale CWT-C Touch,King Street,144.95583918416602,-37.81695974221157,"(-37.816959742212, 144.955839184166)"
641A,1647420,MPM1647420,YES,YES,Cale CWT-C Touch,Bourke Street,144.95467952555813,-37.81657524992568,"(-37.816575249926, 144.954679525558)"
641B,1647421,MPM1647421,YES,YES,Cale CWT-C Touch,Bourke Street,144.95486360375415,-37.81675127457525,"(-37.816751274575, 144.954863603754)"
568B,1647424,MPM1647424,YES,YES,Cale CWT-C Touch,King Street,144.95636087887982,-37.818093112415454,"(-37.818093112415, 144.95636087888)"
513A,1647425,MPM1647425,YES,YES,Cale CWT-C Touch,Exhibition Street,144.96921860738695,-37.80946002950039,"(-37.8094600295, 144.969218607387)"
513B,1647426,MPM1647426,YES,YES,Cale CWT-C Touch,Exhibition Street,144.9694729577087,-37.80936447520568,"(-37.809364475206, 144.969472957709)"
545A,1647427,MPM1647427,YES,YES,Cale CWT-C Touch,Queen Street,144.95941557611164,-37.81252193016593,"(-37.812521930166, 144.959415576112)"
545B,1647428,MPM1647428,YES,YES,Cale CWT-C Touch,Queen Street,144.9595635047422,-37.81219689831284,"(-37.812196898313, 144.959563504742)"
651A,1647429,MPM1647429,YES,YES,Cale CWT-C Touch,Lonsdale Street,144.9690499147426,-37.81018104478405,"(-37.810181044784, 144.969049914743)"
651B,1647430,MPM1647430,YES,YES,Cale CWT-C Touch,Lonsdale Street,144.96871231046364,-37.81050916162072,"(-37.810509161621, 144.968712310464)"
651C,1647431,MPM1647431,YES,YES,Cale CWT-C Touch,Lonsdale Street,144.96818594375628,-37.810433564447955,"(-37.810433564448, 144.968185943756)"
651D,1647432,MPM1647432,YES,YES,Cale CWT-C Touch,Lonsdale Street,144.96786416592445,-37.81075971694714,"(-37.810759716947, 144.967864165924)"
683A,1647433,MPM1647433,YES,YES,Cale CWT-C Touch,Franklin Street,144.95959495539816,-37.80852770204329,"(-37.808527702043, 144.959594955398)"
683B,1647434,MPM1647434,YES,YES,Cale CWT-C Touch,Franklin Street,144.9591248171998,-37.80843057254658,"(-37.808430572547, 144.9591248172)"
512A,1647436,MPM1647436,YES,YES,Cale CWT-C Touch,Exhibition Street,144.9699614861083,-37.81043982023678,"(-37.810439820237, 144.969961486108)"
512B,1647437,MPM1647437,YES,YES,Cale CWT-C Touch,Exhibition Street,144.96974284183966,-37.81060515653293,"(-37.810605156533, 144.96974284184)"
570A,1647438,MPM1647438,YES,YES,Cale CWT-C Touch,King Street,144.95533675372903,-37.815847160875364,"(-37.815847160875, 144.955336753729)"
570B,1647439,MPM1647439,YES,YES,Cale CWT-C Touch,King Street,144.9556237466109,-37.81583476051757,"(-37.815834760518, 144.955623746611)"
523A,1647442,MPM1647442,YES,YES,Cale CWT-C Touch,Russell Street,144.96659082289946,-37.80919115321208,"(-37.809191153212, 144.966590822899)"
576A,1647443,MPM1647443,YES,YES,Cale CWT-C Touch,King Street,144.95257680921998,-37.8099256527214,"(-37.809925652721, 144.95257680922)"
567A,1647444,MPM1647444,YES,YES,Cale CWT-C Touch,King Street,144.9569983701029,-37.81883763226561,"(-37.818837632266, 144.956998370103)"
567B,1647445,MPM1647445,YES,YES,Cale CWT-C Touch,King Street,144.9567811233564,-37.81899975970919,"(-37.818999759709, 144.956781123356)"
604A,1647446,MPM1647446,YES,YES,Cale CWT-C Touch,Flinders Street,144.96328657592005,-37.81855168743375,"(-37.818551687434, 144.96328657592)"
604B,1647447,MPM1647447,YES,YES,Cale CWT-C Touch,Flinders Street,144.9637196521926,-37.818657730480766,"(-37.818657730481, 144.963719652193)"
678A,1647448,MPM1647448,YES,YES,Cale CWT-C Touch,A'Beckett Street,144.95897595949018,-37.809716854314466,"(-37.809716854314, 144.95897595949)"
720A,1647449,MPM1647449,YES,YES,Cale CWT-C Touch,Southgate Avenue,144.96760150911427,-37.820474117479,"(-37.820474117479, 144.967601509114)"
695A,1647451,MPM1647451,YES,YES,Cale CWT-C Touch,Victoria Street,144.96354788450074,-37.806614227007174,"(-37.806614227007, 144.963547884501)"
695B,1647452,MPM1647452,YES,YES,Cale CWT-C Touch,Victoria Street,144.96370205489723,-37.806852235457434,"(-37.806852235457, 144.963702054897)"
616A,1647453,MPM1647453,YES,YES,Cale CWT-C Touch,Flinders Lane,144.95594929589936,-37.81965615587295,"(-37.819656155873, 144.955949295899)"
617A,1647455,MPM1647455,YES,YES,Cale CWT-C Touch,Collins Street,144.9720407249763,-37.813977379625285,"(-37.813977379625, 144.972040724976)"
617B,1647456,MPM1647456,YES,YES,Cale CWT-C Touch,Collins Street,144.9722421705482,-37.813721336924374,"(-37.813721336924, 144.972242170548)"
537B,1647458,MPM1647458,YES,YES,Cale CWT-C Touch,Elizabeth Street,144.9601002043641,-37.807850552547116,"(-37.807850552547, 144.960100204364)"
518A,1647459,MPM1647459,YES,YES,Cale CWT-C Touch,Russell Street,144.96868294311207,-37.81439174491992,"(-37.81439174492, 144.968682943112)"
518B,1647460,MPM1647460,YES,YES,Cale CWT-C Touch,Russell Street,144.96884842292434,-37.81411426153769,"(-37.814114261538, 144.968848422924)"
616B,1647461,MPM1647461,YES,YES,Cale CWT-C Touch,Flinders Lane,144.95604630737017,-37.81976589076929,"(-37.819765890769, 144.95604630737)"
524A,1647462,MPM1647462,YES,YES,Cale CWT-C Touch,Russell Street,144.96607293319101,-37.80805990115205,"(-37.808059901152, 144.966072933191)"
572A,1647463,MPM1647463,YES,YES,Cale CWT-C Touch,King Street,144.9546680495062,-37.81376353028066,"(-37.813763530281, 144.954668049506)"
572B,1647464,MPM1647464,YES,YES,Cale CWT-C Touch,King Street,144.95450396128652,-37.81404098125036,"(-37.81404098125, 144.954503961287)"
573A,1647465,MPM1647465,YES,YES,Cale CWT-C Touch,King Street,144.9542715691794,-37.812912268917536,"(-37.812912268918, 144.954271569179)"
635B,1647466,MPM1647466,YES,YES,Cale CWT-C Touch,Bourke Street,144.9700080045267,-37.812340736239165,"(-37.812340736239, 144.970008004527)"
673A,1647467,MPM1647467,YES,YES,Cale CWT-C Touch,La Trobe Street,144.95477177574935,-37.81211202765379,"(-37.812112027654, 144.954771775749)"
515A,1647468,MPM1647468,YES,YES,Cale CWT-C Touch,Exhibition Street,144.9685698787053,-37.80762017059581,"(-37.807620170596, 144.968569878705)"
635A,1647469,MPM1647469,YES,YES,Cale CWT-C Touch,Bourke Street,144.96986381298916,-37.812186401984476,"(-37.812186401984, 144.969863812989)"
694B,1647470,MPM1647470,YES,YES,Cale CWT-C Touch,Victoria Street,144.96536533710747,-37.80681454235956,"(-37.80681454236, 144.965365337107)"
694C,1647471,MPM1647471,YES,YES,Cale CWT-C Touch,Victoria Street,144.96532080995956,-37.80702773947353,"(-37.807027739474, 144.96532080996)"
624A,1647472,MPM1647472,YES,YES,Cale CWT-C Touch,Collins Street,144.95572386201871,-37.81852181819872,"(-37.818521818199, 144.955723862019)"
624B,1647473,MPM1647473,YES,YES,Cale CWT-C Touch,Collins Street,144.95603610905175,-37.818628783388796,"(-37.818628783389, 144.956036109052)"
535A,1647474,MPM1647474,YES,YES,Cale CWT-C Touch,Elizabeth Street,144.96097128397358,-37.80975080993935,"(-37.809750809939, 144.960971283974)"
638A,1647475,MPM1647475,YES,YES,Cale CWT-C Touch,Bourke Street,144.9611490801301,-37.81473794955358,"(-37.814737949554, 144.96114908013)"
638C,1647477,MPM1647477,YES,YES,Cale CWT-C Touch,Bourke Street,144.96261066238642,-37.81431131787863,"(-37.814311317879, 144.962610662386)"
566A,1647478,MPM1647478,YES,YES,Cale CWT-C Touch,King Street,144.95742152749304,-37.81976225220943,"(-37.819762252209, 144.957421527493)"
566B,1647479,MPM1647479,YES,YES,Cale CWT-C Touch,King Street,144.95720069619028,-37.81991793788681,"(-37.819917937887, 144.95720069619)"
671A,1647480,MPM1647480,YES,YES,Cale CWT-C Touch,La Trobe Street,144.9596496615534,-37.81070706260653,"(-37.810707062607, 144.959649661553)"
671B,1647481,MPM1647481,YES,YES,Cale CWT-C Touch,La Trobe Street,144.96012236577414,-37.810801477001654,"(-37.810801477002, 144.960122365774)"
643A,1647482,MPM1647482,YES,YES,Cale CWT-C Touch,Little Bourke Street,144.96807203568642,-37.81173374551472,"(-37.811733745515, 144.968072035686)"
693A,1647483,MPM1647483,YES,YES,Cale CWT-C Touch,Victoria Street,144.966591048368,-37.80694873100002,"(-37.806948731, 144.966591048368)"
693B,1647484,MPM1647484,YES,YES,Cale CWT-C Touch,Victoria Street,144.966560954994,-37.8071638089923,"(-37.807163808992, 144.966560954994)"
691A,1647485,MPM1647485,YES,YES,Cale CWT-C Touch,Victoria Street,144.96965001133847,-37.807495376939734,"(-37.80749537694, 144.969650011338)"
541A,1647486,MPM1647486,YES,YES,Cale CWT-C Touch,Queen Street,144.96115136953188,-37.816312009143246,"(-37.816312009143, 144.961151369532)"
667A,1647487,MPM1647487,YES,YES,Cale CWT-C Touch,La Trobe Street,144.97006045519095,-37.807887093803075,"(-37.807887093803, 144.970060455191)"
541B,1647488,MPM1647488,YES,YES,Cale CWT-C Touch,Queen Street,144.96140924663996,-37.81621832718229,"(-37.816218327182, 144.96140924664)"
646A,1647489,MPM1647489,YES,YES,Cale CWT-C Touch,Little Bourke Street,144.960826419679,-37.813848471137966,"(-37.813848471138, 144.960826419679)"
648A,1647490,MPM1647490,YES,YES,Cale CWT-C Touch,Little Bourke Street,144.95706421389113,-37.814856970690656,"(-37.814856970691, 144.957064213891)"
648B,1647491,MPM1647491,YES,YES,Cale CWT-C Touch,Little Bourke Street,144.95713557169657,-37.81491765023948,"(-37.814917650239, 144.957135571697)"
601A,1647492,MPM1647492,YES,YES,Cale CWT-C Touch,Flinders Street,144.9716947318939,-37.81632294214091,"(-37.816322942141, 144.971694731894)"
647A,1647493,MPM1647493,YES,YES,Cale CWT-C Touch,Little Bourke Street,144.9585536007147,-37.81451219419652,"(-37.814512194197, 144.958553600715)"
647B,1647494,MPM1647494,YES,YES,Cale CWT-C Touch,Little Bourke Street,144.95972624853263,-37.81417612233206,"(-37.814176122332, 144.959726248533)"
530A,1647495,MPM1647495,YES,YES,Cale CWT-C Touch,Elizabeth Street,144.96328028349805,-37.8147993540744,"(-37.814799354074, 144.963280283498)"
623A,1647496,MPM1647496,YES,YES,Cale CWT-C Touch,Collins Street,144.95735561211734,-37.818051842215304,"(-37.818051842215, 144.957355612117)"
623B,1647497,MPM1647497,YES,YES,Cale CWT-C Touch,Collins Street,144.95844705937398,-37.81773943694847,"(-37.817739436948, 144.958447059374)"
622A,1647499,MPM1647499,YES,YES,Cale CWT-C Touch,Collins Street,144.96098675638197,-37.817209441659195,"(-37.817209441659, 144.960986756382)"
621A,1647500,MPM1647500,YES,YES,Cale CWT-C Touch,Collins Street,144.96241413011782,-37.816595578318825,"(-37.816595578319, 144.962414130118)"
621B,1647501,MPM1647501,YES,YES,Cale CWT-C Touch,Collins Street,144.96269650621088,-37.816711507341424,"(-37.816711507341, 144.962696506211)"
652A,1647502,MPM1647502,YES,YES,Cale CWT-C Touch,Lonsdale Street,144.9663414524251,-37.81119568700174,"(-37.811195687002, 144.966341452425)"
652B,1647503,MPM1647503,YES,YES,Cale CWT-C Touch,Lonsdale Street,144.9666555069984,-37.810883067262566,"(-37.810883067263, 144.966655506998)"
556A,1647506,MPM1647506,YES,YES,Cale CWT-C Touch,William Street,144.9589297070216,-37.81694985028824,"(-37.816949850288, 144.958929707022)"
556B,1647507,MPM1647507,YES,YES,Cale CWT-C Touch,William Street,144.95874802830258,-37.81715233087748,"(-37.817152330877, 144.958748028303)"
528A,1647508,MPM1647508,YES,YES,Cale CWT-C Touch,Elizabeth Street,144.9644439420967,-37.81678445435344,"(-37.816784454353, 144.964443942097)"
528B,1647509,MPM1647509,YES,YES,Cale CWT-C Touch,Elizabeth Street,144.96426233744302,-37.81694138148539,"(-37.816941381485, 144.964262337443)"
619A,1647510,MPM1647510,YES,YES,Cale CWT-C Touch,Collins Street,144.96761805498994,-37.815078584876254,"(-37.815078584876, 144.96761805499)"
619B,1647511,MPM1647511,YES,YES,Cale CWT-C Touch,Collins Street,144.96821733332737,-37.815101291366744,"(-37.815101291367, 144.968217333327)"
619C,1647512,MPM1647512,YES,YES,Cale CWT-C Touch,Collins Street,144.96839095740978,-37.81485254355795,"(-37.814852543558, 144.96839095741)"
536A,1647513,MPM1647513,YES,YES,Cale CWT-C Touch,Elizabeth Street,144.96073464229175,-37.80869448965889,"(-37.808694489659, 144.960734642292)"
536B,1647514,MPM1647514,YES,YES,Cale CWT-C Touch,Elizabeth Street,144.96048652584602,-37.80869486058817,"(-37.808694860588, 144.960486525846)"
532A,1647515,MPM1647515,YES,YES,Cale CWT-C Touch,Elizabeth Street,144.96250412640606,-37.8130890120383,"(-37.813089012038, 144.962504126406)"
612A,1647516,MPM1647516,YES,YES,Cale CWT-C Touch,Flinders Lane,144.96305356190547,-37.81765065369361,"(-37.817650653694, 144.963053561905)"
612B,1647517,MPM1647517,YES,YES,Cale CWT-C Touch,Flinders Lane,144.9639415363371,-37.81739813765742,"(-37.817398137657, 144.963941536337)"
608A,1647518,MPM1647518,YES,YES,Cale CWT-C Touch,Flinders Lane,144.9730876080353,-37.81463122178595,"(-37.814631221786, 144.973087608035)"
608B,1647519,MPM1647519,YES,YES,Cale CWT-C Touch,Flinders Lane,144.97401123127105,-37.81444836275279,"(-37.814448362753, 144.974011231271)"
613A,1647520,MPM1647520,YES,YES,Cale CWT-C Touch,Flinders Lane,144.96122854415256,-37.818184933050674,"(-37.818184933051, 144.961228544153)"
613B,1647521,MPM1647521,YES,YES,Cale CWT-C Touch,Flinders Lane,144.9615163323172,-37.818022117048244,"(-37.818022117048, 144.961516332317)"
633A,1647522,MPM1647522,YES,YES,Cale CWT-C Touch,Little Collins Street,144.95440747458665,-37.81781859608447,"(-37.817818596084, 144.954407474587)"
633B,1647523,MPM1647523,YES,YES,Cale CWT-C Touch,Little Collins Street,144.9544349145026,-37.81793155735575,"(-37.817931557356, 144.954434914503)"
618A,1647524,MPM1647524,YES,YES,Cale CWT-C Touch,Collins Street,144.96967696283937,-37.81447568416929,"(-37.814475684169, 144.969676962839)"
633C,1647525,MPM1647525,YES,YES,Cale CWT-C Touch,Little Collins Street,144.9556206659354,-37.817585571816736,"(-37.817585571817, 144.955620665935)"
692A,1647526,MPM1647526,YES,YES,Cale CWT-C Touch,Victoria Street,144.96785890326373,-37.807300872039804,"(-37.80730087204, 144.967858903264)"
692B,1647527,MPM1647527,YES,YES,Cale CWT-C Touch,Victoria Street,144.96811626373884,-37.807109379105974,"(-37.807109379106, 144.968116263739)"
632A,1647528,MPM1647528,YES,YES,Cale CWT-C Touch,Little Collins Street,144.95740786381106,-37.81703495309502,"(-37.817034953095, 144.957407863811)"
632B,1647529,MPM1647529,YES,YES,Cale CWT-C Touch,Little Collins Street,144.9580812186287,-37.81673782672948,"(-37.816737826729, 144.958081218629)"
630A,1647530,MPM1647530,YES,YES,Cale CWT-C Touch,Little Collins Street,144.963114693141,-37.815306519085766,"(-37.815306519086, 144.963114693141)"
626A,1647531,MPM1647531,YES,YES,Cale CWT-C Touch,Little Collins Street,144.97192504233092,-37.81282668369106,"(-37.812826683691, 144.971925042331)"
626B,1647532,MPM1647532,YES,YES,Cale CWT-C Touch,Little Collins Street,144.97312379265105,-37.812474236926874,"(-37.812474236927, 144.973123792651)"
549A,1647533,MPM1647533,YES,YES,Cale CWT-C Touch,Queen Street,144.9580793835934,-37.80816882483544,"(-37.808168824835, 144.958079383593)"
549B,1647534,MPM1647534,YES,YES,Cale CWT-C Touch,Queen Street,144.95786306275613,-37.80836827966006,"(-37.80836827966, 144.957863062756)"
549C,1647535,MPM1647535,YES,YES,Cale CWT-C Touch,Queen Street,144.95769121214528,-37.808403572163414,"(-37.808403572163, 144.957691212145)"
548B,1647536,MPM1647536,YES,YES,Cale CWT-C Touch,Queen Street,144.95817081345353,-37.809775079987006,"(-37.809775079987, 144.958170813454)"
548A,1647537,MPM1647537,YES,YES,Cale CWT-C Touch,Queen Street,144.95837475830803,-37.80958835098258,"(-37.809588350983, 144.958374758308)"
663A,1647538,MPM1647538,YES,YES,Cale CWT-C Touch,Little Lonsdale Street,144.9574148401734,-37.812558009931415,"(-37.812558009931, 144.957414840173)"
663B,1647539,MPM1647539,YES,YES,Cale CWT-C Touch,Little Lonsdale Street,144.95878671743017,-37.812224645886275,"(-37.812224645886, 144.95878671743)"
551A,1647540,MPM1647540,YES,YES,Cale CWT-C Touch,Market Street,144.96093416998164,-37.81855317425847,"(-37.818553174258, 144.960934169982)"
627A,1647541,MPM1647541,YES,YES,Cale CWT-C Touch,Little Collins Street,144.96921898764143,-37.81362856562552,"(-37.813628565626, 144.969218987641)"
565A,1647542,MPM1647542,YES,YES,Cale CWT-C Touch,Church Street,144.95729275868314,-37.816645370027196,"(-37.816645370027, 144.957292758683)"
688A,1647543,MPM1647543,YES,YES,Cale CWT-C Touch,Dudley Street,144.95357554024835,-37.80899431994445,"(-37.808994319944, 144.953575540248)"
688B,1647544,MPM1647544,YES,YES,Cale CWT-C Touch,Dudley Street,144.9535013535431,-37.808825772516784,"(-37.808825772517, 144.953501353543)"
688C,1647545,MPM1647545,YES,YES,Cale CWT-C Touch,Dudley Street,144.95408032258658,-37.80884850385933,"(-37.808848503859, 144.954080322587)"
688D,1647546,MPM1647546,YES,YES,Cale CWT-C Touch,Dudley Street,144.95437958332386,-37.80857211277705,"(-37.808572112777, 144.954379583324)"
511A,1647547,MPM1647547,YES,YES,Cale CWT-C Touch,Exhibition Street,144.97048675195788,-37.81158941359467,"(-37.811589413595, 144.970486751958)"
511B,1647548,MPM1647548,YES,YES,Cale CWT-C Touch,Exhibition Street,144.97021328609299,-37.81163821181836,"(-37.811638211818, 144.970213286093)"
544A,1647549,MPM1647549,YES,YES,Cale CWT-C Touch,Queen Street,144.95994693484306,-37.81368361469137,"(-37.813683614691, 144.959946934843)"
544B,1647550,MPM1647550,YES,YES,Cale CWT-C Touch,Queen Street,144.96008898707314,-37.81334262874427,"(-37.813342628744, 144.960088987073)"
543B,1647551,MPM1647551,YES,YES,Cale CWT-C Touch,Queen Street,144.96023253272458,-37.81430925608802,"(-37.814309256088, 144.960232532725)"
543A,1647552,MPM1647552,YES,YES,Cale CWT-C Touch,Queen Street,144.96058818385958,-37.81443401126032,"(-37.81443401126, 144.96058818386)"
519A,1647553,MPM1647553,YES,YES,Cale CWT-C Touch,Russell Street,144.96848810432817,-37.81332846462886,"(-37.813328464629, 144.968488104328)"
519B,1647554,MPM1647554,YES,YES,Cale CWT-C Touch,Russell Street,144.96822947089143,-37.8134052612691,"(-37.813405261269, 144.968229470891)"
540A,1647555,MPM1647555,YES,YES,Cale CWT-C Touch,Queen Street,144.96193525430976,-37.81736634741757,"(-37.817366347418, 144.96193525431)"
540B,1647556,MPM1647556,YES,YES,Cale CWT-C Touch,Queen Street,144.9616000912876,-37.8172804220473,"(-37.817280422047, 144.961600091288)"
586A,1647557,MPM1647557,YES,YES,Cale CWT-C Touch,Spencer Street,144.95117374594014,-37.81227980859246,"(-37.812279808592, 144.95117374594)"
586B,1647558,MPM1647558,YES,YES,Cale CWT-C Touch,Spencer Street,144.95095568294175,-37.81244994978058,"(-37.812449949781, 144.950955682942)"
699A,1647559,MPM1647559,YES,YES,Cale CWT-C Touch,Siddeley Street,144.95363412591894,-37.82225395521304,"(-37.822253955213, 144.953634125919)"
683D,1647562,MPM1647562,YES,YES,Cale CWT-C Touch,Franklin Street,144.95825795280143,-37.808677192508334,"(-37.808677192508, 144.958257952801)"
574A,1647563,MPM1647563,YES,YES,Cale CWT-C Touch,King Street,144.95344391284655,-37.81175469237563,"(-37.811754692376, 144.953443912847)"
574B,1647564,MPM1647564,YES,YES,Cale CWT-C Touch,King Street,144.95373504861936,-37.811750479018684,"(-37.811750479019, 144.953735048619)"
329C,1647632,MPM1647632,YES,YES,Reino TTX-S,Wreckyn Street,144.95403283525025,-37.80028596754706,"(-37.800285967547, 144.95403283525)"
325B,1647633,MPM1647633,YES,YES,Reino TTX-S,Walker Street,144.95857515563586,-37.7845479678137,"(-37.784547967814, 144.958575155636)"
325A,1647634,MPM1647634,YES,YES,Reino TTX-S,Walker Street,144.9577236538205,-37.78470336650419,"(-37.784703366504, 144.957723653821)"
333A,1647635,MPM1647635,YES,YES,Reino TTX-S,Flemington Road,144.95623514432933,-37.80089820480143,"(-37.800898204801, 144.956235144329)"
329B,1647636,MPM1647636,YES,YES,Reino TTX-S,Wreckyn Street,144.95400029203842,-37.80062279357344,"(-37.800622793573, 144.954000292038)"
329A,1647637,MPM1647637,YES,YES,Reino TTX-S,Wreckyn Street,144.95328259508577,-37.80087754785099,"(-37.800877547851, 144.953282595086)"
214B,1647639,MPM1647639,YES,YES,Reino TTX-S,Victoria Street,144.94854312134206,-37.80509315373893,"(-37.805093153739, 144.948543121342)"
214A,1647640,MPM1647640,YES,YES,Reino TTX-S,Victoria Street,144.9485732240904,-37.80494525463489,"(-37.804945254635, 144.94857322409)"
175B,1647641,MPM1647641,YES,YES,Reino TTX-S,Victoria Street,144.95024742339365,-37.80557850253933,"(-37.805578502539, 144.950247423394)"
175A,1647642,MPM1647642,YES,YES,Reino TTX-S,Victoria Street,144.9502374042667,-37.80538877494974,"(-37.80538877495, 144.950237404267)"
301A,1647643,MPM1647643,YES,YES,Reino TTX-S,Howard Street,144.95409699137767,-37.80411856782452,"(-37.804118567825, 144.954096991378)"
301C,1647644,MPM1647644,YES,YES,Reino TTX-S,Howard Street,144.95393332670315,-37.80502298300012,"(-37.805022983, 144.953933326703)"
215A,1647647,MPM1647647,YES,YES,Reino TTX-S,Errol Street,144.9493914060805,-37.803688956315,"(-37.803688956315, 144.949391406081)"
215B,1647648,MPM1647648,YES,YES,Reino TTX-S,Errol Street,144.94955122540438,-37.8041347930813,"(-37.804134793081, 144.949551225404)"
215C,1647649,MPM1647649,YES,YES,Reino TTX-S,Errol Street,144.94926394154473,-37.80441224576471,"(-37.804412245765, 144.949263941545)"
377A,1647650,MPM1647650,YES,YES,Reino TTX-S,Adderley Street,144.9486498770087,-37.81215310263393,"(-37.812153102634, 144.948649877009)"
377B,1647651,MPM1647651,YES,YES,Reino TTX-S,Adderley Street,144.9492232156207,-37.812657671939775,"(-37.81265767194, 144.949223215621)"
377C,1647652,MPM1647652,YES,YES,Reino TTX-S,Adderley Street,144.94991517303876,-37.8132666321235,"(-37.813266632123, 144.949915173039)"
229A,1647653,MPM1647653,YES,YES,Reino TTX-S,Adderley Street,144.94987298259954,-37.81296038150037,"(-37.8129603815, 144.9498729826)"
196A,1647654,MPM1647654,YES,YES,Reino TTX-S,Adderley Street,144.94913251323382,-37.81230873462841,"(-37.812308734628, 144.949132513234)"
238A,1647655,MPM1647655,YES,YES,Reino TTX-S,Jeffcott Street,144.95138705837996,-37.81190425172936,"(-37.811904251729, 144.95138705838)"
238C,1647656,MPM1647656,YES,YES,Reino TTX-S,Jeffcott Street,144.952414557435,-37.81161394900721,"(-37.811613949007, 144.952414557435)"
238B,1647657,MPM1647657,YES,YES,Reino TTX-S,Jeffcott Street,144.9521707096145,-37.8118302979481,"(-37.811830297948, 144.952170709615)"
219A,1647658,MPM1647658,YES,YES,Reino TTX-S,William Street,144.9540994074423,-37.8063829941381,"(-37.806382994138, 144.954099407442)"
219B,1647659,MPM1647659,YES,YES,Reino TTX-S,William Street,144.95389026563626,-37.806572365067396,"(-37.806572365067, 144.953890265636)"
219C,1647660,MPM1647660,YES,YES,Reino TTX-S,William Street,144.95449809876038,-37.807252940209324,"(-37.807252940209, 144.95449809876)"
330A,1647662,MPM1647662,YES,YES,Reino TTX-S,Blackwood Street,144.95456537960084,-37.801546529114944,"(-37.801546529115, 144.954565379601)"
330B,1647663,MPM1647663,YES,YES,Reino TTX-S,Blackwood Street,144.95518388179514,-37.80137128572686,"(-37.801371285727, 144.955183881795)"
689A,1647565,MPM1647565,YES,YES,Cale CWT-C Touch,Dudley Street,144.9513034733805,-37.809726911356314,"(-37.809726911356, 144.951303473381)"
301B,1647638,MPM1647638,YES,YES,Reino TTX-S,Howard Street,144.95371775339768,-37.80467561882714,"(-37.804675618827, 144.953717753398)"
330C,1647664,MPM1647664,YES,YES,Reino TTX-S,Blackwood Street,144.9551877105387,-37.80105374157953,"(-37.80105374158, 144.955187710539)"
331A,1647665,MPM1647665,YES,YES,Reino TTX-S,Villiers Street,144.95251602981193,-37.79980444808272,"(-37.799804448083, 144.952516029812)"
331B,1647666,MPM1647666,YES,YES,Reino TTX-S,Villiers Street,144.95326965544623,-37.79951751096952,"(-37.79951751097, 144.953269655446)"
331C,1647667,MPM1647667,YES,YES,Reino TTX-S,Villiers Street,144.9533439708122,-37.799147842283446,"(-37.799147842283, 144.953343970812)"
277A,1647668,MPM1647668,YES,YES,Reino TTX-S,Curzon Street,144.94837606230593,-37.80314924725578,"(-37.803149247256, 144.948376062306)"
277B,1647669,MPM1647669,YES,YES,Reino TTX-S,Curzon Street,144.94822034908384,-37.803279286393796,"(-37.803279286394, 144.948220349084)"
208A,1647670,MPM1647670,YES,YES,Reino TTX-S,Leveson Street,144.9508843421888,-37.80366736236252,"(-37.803667362363, 144.950884342189)"
208B,1647671,MPM1647671,YES,YES,Reino TTX-S,Leveson Street,144.95109427560138,-37.80403944282424,"(-37.804039442824, 144.951094275601)"
208C,1647672,MPM1647672,YES,YES,Reino TTX-S,Leveson Street,144.95071914522487,-37.80460282755853,"(-37.804602827559, 144.950719145225)"
208D,1647673,MPM1647673,YES,YES,Reino TTX-S,Leveson Street,144.95095621550996,-37.804832697390616,"(-37.804832697391, 144.95095621551)"
117B,1647674,MPM1647674,YES,YES,Reino TTX-S,Rosslyn Street,144.9467357611826,-37.81069311023799,"(-37.810693110238, 144.946735761183)"
117A,1647675,MPM1647675,YES,YES,Reino TTX-S,Rosslyn Street,144.94601865759716,-37.810785923838665,"(-37.810785923839, 144.946018657597)"
328A,1647676,MPM1647676,YES,YES,Reino TTX-S,Chetwynd Street,144.95233497379184,-37.803980755858255,"(-37.803980755858, 144.952334973792)"
328B,1647677,MPM1647677,YES,YES,Reino TTX-S,Chetwynd Street,144.9525230973769,-37.80448605388844,"(-37.804486053888, 144.952523097377)"
328C,1647678,MPM1647678,YES,YES,Reino TTX-S,Chetwynd Street,144.95219468036822,-37.804772288006994,"(-37.804772288007, 144.952194680368)"
378B,1647679,MPM1647679,YES,YES,Reino TTX-S,Jeffcott Street,144.95055529945765,-37.812136366163024,"(-37.812136366163, 144.950555299458)"
378A,1647680,MPM1647680,YES,YES,Reino TTX-S,Jeffcott Street,144.95031636229868,-37.81237574052756,"(-37.812375740528, 144.950316362299)"
347A,1647681,MPM1647681,YES,YES,Reino TTX-S,Capel Street,144.95493944361672,-37.806280793660626,"(-37.806280793661, 144.954939443617)"
347B,1647682,MPM1647682,YES,YES,Reino TTX-S,Capel Street,144.9551662133996,-37.80658950938644,"(-37.806589509386, 144.9551662134)"
347C,1647683,MPM1647683,YES,YES,Reino TTX-S,Capel Street,144.95478567620356,-37.80717286435285,"(-37.807172864353, 144.954785676204)"
345A,1647684,MPM1647684,YES,YES,Reino TTX-S,Flemington Road,144.95297183209206,-37.79830449659872,"(-37.798304496599, 144.952971832092)"
230A,1647685,MPM1647685,YES,YES,Reino TTX-S,Dudley Street,144.94893897483655,-37.810409626441476,"(-37.810409626441, 144.948938974837)"
230B,1647686,MPM1647686,YES,YES,Reino TTX-S,Dudley Street,144.94916524725502,-37.810565063997274,"(-37.810565063997, 144.949165247255)"
302A,1647687,MPM1647687,YES,YES,Reino TTX-S,Queensberry Street,144.95451076096012,-37.80370894392444,"(-37.803708943924, 144.95451076096)"
302B,1647688,MPM1647688,YES,YES,Reino TTX-S,Queensberry Street,144.9550493143075,-37.803547587691746,"(-37.803547587692, 144.955049314308)"
351A,1647689,MPM1647689,YES,YES,Reino TTX-S,Victoria Street,144.95447075318734,-37.80560261082068,"(-37.805602610821, 144.954470753187)"
351B,1647690,MPM1647690,YES,YES,Reino TTX-S,Victoria Street,144.95465462828537,-37.80584184070354,"(-37.805841840704, 144.954654628285)"
326A,1647691,MPM1647691,YES,YES,Reino TTX-S,Ievers Street,144.95897760386683,-37.781566505532446,"(-37.781566505532, 144.958977603867)"
326B,1647692,MPM1647692,YES,YES,Reino TTX-S,Ievers Street,144.95897355682862,-37.78178915292931,"(-37.781789152929, 144.958973556829)"
346A,1647693,MPM1647693,YES,YES,Reino TTX-S,Chetwynd Street,144.95227649306523,-37.80584706479493,"(-37.805847064795, 144.952276493065)"
346B,1647694,MPM1647694,YES,YES,Reino TTX-S,Chetwynd Street,144.9519551981536,-37.80608163140899,"(-37.806081631409, 144.951955198154)"
334A,1647695,MPM1647695,YES,YES,Reino TTX-S,Flemington Road,144.95556549420812,-37.800372441762946,"(-37.800372441763, 144.955565494208)"
375A,1647696,MPM1647696,YES,YES,Reino TTX-S,Flemington Road,144.95206028324657,-37.796989926607495,"(-37.796989926607, 144.952060283247)"
376A,1647697,MPM1647697,YES,YES,Reino TTX-S,Flemington Road,144.9501427808677,-37.79545741357098,"(-37.795457413571, 144.950142780868)"
376B,1647698,MPM1647698,YES,YES,Reino TTX-S,Flemington Road,144.9507578809202,-37.79595200519893,"(-37.795952005199, 144.95075788092)"
149A,1647699,MPM1647699,YES,YES,Reino TTX-S,Flemington Road,144.94309348682881,-37.78982878579414,"(-37.789828785794, 144.943093486829)"
149B,1647700,MPM1647700,YES,YES,Reino TTX-S,Flemington Road,144.94462261113088,-37.79104785572508,"(-37.791047855725, 144.944622611131)"
149C,1647701,MPM1647701,YES,YES,Reino TTX-S,Flemington Road,144.945383223498,-37.791651839819735,"(-37.79165183982, 144.945383223498)"
149D,1647702,MPM1647702,YES,YES,Reino TTX-S,Flemington Road,144.94615379788647,-37.792268059571086,"(-37.792268059571, 144.946153797886)"
149E,1647703,MPM1647703,YES,YES,Reino TTX-S,Flemington Road,144.94644257999707,-37.79249865086916,"(-37.792498650869, 144.946442579997)"
336A,1647704,MPM1647704,YES,YES,Reino TTX-S,Stanley Street,144.94720370500596,-37.80923792439901,"(-37.809237924399, 144.947203705006)"
336B,1647705,MPM1647705,YES,YES,Reino TTX-S,Stanley Street,144.94776176123318,-37.809180739574465,"(-37.809180739574, 144.947761761233)"
336C,1647706,MPM1647706,YES,YES,Reino TTX-S,Stanley Street,144.94801426509565,-37.80874950332811,"(-37.808749503328, 144.948014265096)"
274A,1647707,MPM1647707,YES,YES,Reino TTX-S,Capel Street,144.95582129462022,-37.802930104602254,"(-37.802930104602, 144.95582129462)"
335A,1647708,MPM1647708,YES,YES,Reino TTX-S,Stanley Street,144.9491947052038,-37.80830499881647,"(-37.808304998816, 144.949194705204)"
335B,1647709,MPM1647709,YES,YES,Reino TTX-S,Stanley Street,144.94986086479773,-37.8076190354737,"(-37.807619035474, 144.949860864798)"
335C,1647710,MPM1647710,YES,YES,Reino TTX-S,Stanley Street,144.9504804619498,-37.80752186949557,"(-37.807521869496, 144.95048046195)"
362A,1647711,MPM1647711,YES,YES,Reino TTX-S,Rosslyn Street,144.95366287589383,-37.80707997501718,"(-37.807079975017, 144.953662875894)"
379A,1647712,MPM1647712,YES,YES,Reino TTX-S,King Street,144.95044034708812,-37.80670058836943,"(-37.806700588369, 144.950440347088)"
379B,1647713,MPM1647713,YES,YES,Reino TTX-S,King Street,144.9511820403181,-37.8074543694861,"(-37.807454369486, 144.951182040318)"
343A,1647714,MPM1647714,YES,YES,Reino TTX-S,Rosslyn Street,144.9521510679355,-37.807801497381426,"(-37.807801497381, 144.952151067936)"
343B,1647715,MPM1647715,YES,YES,Reino TTX-S,Rosslyn Street,144.95306701012922,-37.807614919782615,"(-37.807614919783, 144.953067010129)"
327C,1647716,MPM1647716,YES,YES,Reino TTX-S,Capel Street,144.95512878671778,-37.80519044185831,"(-37.805190441858, 144.955128786718)"
327B,1647717,MPM1647717,YES,YES,Reino TTX-S,Capel Street,144.95547802353713,-37.804792247368205,"(-37.804792247368, 144.955478023537)"
327A,1647718,MPM1647718,YES,YES,Reino TTX-S,Capel Street,144.9552740227177,-37.8044105087573,"(-37.804410508757, 144.955274022718)"
344A,1647719,MPM1647719,YES,YES,Reino TTX-S,Leveson Street,144.9515521935421,-37.80146246789267,"(-37.801462467893, 144.951552193542)"
344B,1647720,MPM1647720,YES,YES,Reino TTX-S,Leveson Street,144.9512278253612,-37.80171681428663,"(-37.801716814287, 144.951227825361)"
344C,1647721,MPM1647721,YES,YES,Reino TTX-S,Leveson Street,144.9513672164119,-37.80249652145309,"(-37.802496521453, 144.951367216412)"
344D,1647722,MPM1647722,YES,YES,Reino TTX-S,Leveson Street,144.9510612828807,-37.802639676512996,"(-37.802639676513, 144.951061282881)"
300A,1647723,MPM1647723,YES,YES,Reino TTX-S,Gatehouse Street,144.95180672894543,-37.7960229522614,"(-37.796022952261, 144.951806728945)"
300B,1647724,MPM1647724,YES,YES,Reino TTX-S,Gatehouse Street,144.9522922560074,-37.79563650890849,"(-37.795636508908, 144.952292256007)"
324A,1647725,MPM1647725,YES,YES,Reino TTX-S,Leonard Street,144.95764580948293,-37.78770819597216,"(-37.787708195972, 144.957645809483)"
324B,1647726,MPM1647726,YES,YES,Reino TTX-S,Leonard Street,144.95827366974396,-37.78775777870976,"(-37.78775777871, 144.958273669744)"
348A,1647727,MPM1647727,YES,YES,Reino TTX-S,William Street,144.95490425261096,-37.80813967726594,"(-37.808139677266, 144.954904252611)"
348B,1647728,MPM1647728,YES,YES,Reino TTX-S,William Street,144.95466154365576,-37.8082532904439,"(-37.808253290444, 144.954661543656)"
340A,1647729,MPM1647729,YES,YES,Reino TTX-S,Queensberry Street,144.95043488782264,-37.80325293015346,"(-37.803252930153, 144.950434887823)"
332A,1647730,MPM1647730,YES,YES,Reino TTX-S,Harcourt Street,144.95116509503097,-37.79919544005404,"(-37.799195440054, 144.951165095031)"
332B,1647731,MPM1647731,YES,YES,Reino TTX-S,Harcourt Street,144.95186273482486,-37.7986451513721,"(-37.798645151372, 144.951862734825)"
332C,1647732,MPM1647732,YES,YES,Reino TTX-S,Harcourt Street,144.952469195616,-37.79847222683514,"(-37.798472226835, 144.952469195616)"
339A,1647733,MPM1647733,YES,YES,Reino TTX-S,Rosslyn Street,144.95008414450476,-37.80880449797718,"(-37.808804497977, 144.950084144505)"
339B,1647734,MPM1647734,YES,YES,Reino TTX-S,Rosslyn Street,144.95104086363037,-37.80860336232525,"(-37.808603362325, 144.95104086363)"
206B,1647736,MPM1647736,YES,YES,Reino TTX-S,The Avenue,144.9570531927015,-37.78820548860597,"(-37.788205488606, 144.957053192702)"
206C,1647737,MPM1647737,YES,YES,Reino TTX-S,The Avenue,144.95698320537892,-37.78766552303444,"(-37.787665523034, 144.956983205379)"
159D,1647741,MPM1647741,YES,YES,Reino TTX-S,The Avenue,144.95745891948837,-37.79061098489524,"(-37.790610984895, 144.957458919488)"
159C,1647742,MPM1647742,YES,YES,Reino TTX-S,The Avenue,144.95761090272217,-37.790657291761725,"(-37.790657291762, 144.957610902722)"
159B,1647743,MPM1647743,YES,YES,Reino TTX-S,The Avenue,144.9578648020044,-37.79154630910681,"(-37.791546309107, 144.957864802004)"
141A,1647745,MPM1647745,YES,YES,Reino TTX-S,The Avenue,144.95739030368213,-37.781490784647424,"(-37.781490784647, 144.957390303682)"
141B,1647746,MPM1647746,YES,YES,Reino TTX-S,The Avenue,144.95764767743736,-37.780762651983636,"(-37.780762651984, 144.957647677437)"
141C,1647747,MPM1647747,YES,YES,Reino TTX-S,The Avenue,144.9579976275938,-37.780000707286284,"(-37.780000707286, 144.957997627594)"
141E,1647749,MPM1647749,YES,YES,Reino TTX-S,The Avenue,144.9592447564337,-37.77858660722758,"(-37.778586607228, 144.959244756434)"
205A,1647751,MPM1647751,YES,YES,Reino TTX-S,The Avenue,144.95699815432303,-37.78391908653175,"(-37.783919086532, 144.956998154323)"
205B,1647752,MPM1647752,YES,YES,Reino TTX-S,The Avenue,144.95709631159173,-37.783203018010816,"(-37.783203018011, 144.957096311592)"
144A,1647754,MPM1647754,YES,YES,Reino TTX-S,Railway Place,144.94307766070455,-37.80798651985953,"(-37.80798651986, 144.943077660705)"
144B,1647755,MPM1647755,YES,YES,Reino TTX-S,Railway Place,144.94350232096357,-37.80854285109379,"(-37.808542851094, 144.943502320964)"
144C,1647756,MPM1647756,YES,YES,Reino TTX-S,Railway Place,144.9438977705411,-37.80904808788538,"(-37.809048087885, 144.943897770541)"
144D,1647757,MPM1647757,YES,YES,Reino TTX-S,Railway Place,144.94436745746606,-37.809640456186955,"(-37.809640456187, 144.944367457466)"
144E,1647758,MPM1647758,YES,YES,Reino TTX-S,Railway Place,144.9449185034285,-37.81031476249408,"(-37.810314762494, 144.944918503429)"
144F,1647759,MPM1647759,YES,YES,Reino TTX-S,Railway Place,144.94525144985082,-37.810790174529146,"(-37.810790174529, 144.945251449851)"
ALE3,1647760,MPM1647760,YES,YES,Reino TTX-S,Aurora Lane,144.95061045609683,-37.81965595473362,"(-37.819655954734, 144.950610456097)"
LVS1,1647761,MPM1647761,YES,YES,Reino TTX-S,Leven Avenue,144.93746297020294,-37.81558623222297,"(-37.815586232223, 144.937462970203)"
CS47,1647762,MPM1647762,YES,YES,Reino TTX-S,Collins Street,144.95146451388996,-37.81995084784796,"(-37.819950847848, 144.95146451389)"
CN51,1647763,MPM1647763,YES,YES,Reino TTX-S,Collins Street,144.9468702066775,-37.82105892971398,"(-37.821058929714, 144.946870206678)"
CS51,1647764,MPM1647764,YES,YES,Reino TTX-S,Collins Street,144.94703140092844,-37.82122332073622,"(-37.821223320736, 144.947031400928)"
CS53,1647765,MPM1647765,YES,YES,Reino TTX-S,Collins Street,144.94290659374863,-37.82112712982757,"(-37.821127129828, 144.942906593749)"
LRN1,1647766,MPM1647766,YES,YES,Reino TTX-S,Lorimer Street,144.94303695778828,-37.82445109984311,"(-37.824451099843, 144.943036957788)"
GPE2,1647767,MPM1647767,YES,YES,Reino TTX-S,Geographe Street,144.9454642430654,-37.820250690693456,"(-37.820250690693, 144.945464243065)"
BWS1,1647768,MPM1647768,YES,YES,Reino TTX-S,Brentani Way,144.95037974105725,-37.821411055831526,"(-37.821411055832, 144.950379741057)"
VGW1,1647769,MPM1647769,YES,YES,Reino TTX-S,Village Street,144.9510992718258,-37.82138973119681,"(-37.821389731197, 144.951099271826)"
NVW1,1647770,MPM1647770,YES,YES,Reino TTX-S,Navigation Drive,144.94591623766368,-37.81977618827808,"(-37.819776188278, 144.945916237664)"
NVW3,1647771,MPM1647771,YES,YES,Reino TTX-S,Navigation Drive,144.94620431100003,-37.820998301278586,"(-37.820998301279, 144.946204311)"
VGW4,1647772,MPM1647772,YES,YES,Reino TTX-S,Village Street,144.94932767459852,-37.81913965981003,"(-37.81913965981, 144.949327674599)"
RLS1,1647773,MPM1647773,YES,YES,Reino TTX-S,Fishplate Lane,144.94928030954796,-37.819576120141676,"(-37.819576120142, 144.949280309548)"
HRW21,1647774,MPM1647774,YES,YES,Reino TTX-S,Harbour Esplanade,144.94709705218492,-37.82024839627797,"(-37.820248396278, 144.947097052185)"
NVW2,1647775,MPM1647775,YES,YES,Reino TTX-S,Navigation Drive,144.9460306220507,-37.820258184343224,"(-37.820258184343, 144.946030622051)"
LRN2,1647776,MPM1647776,YES,YES,Reino TTX-S,Lorimer Street,144.94287002749638,-37.82443893727492,"(-37.824438937275, 144.942870027496)"
VGW2,1647778,MPM1647778,YES,YES,Reino TTX-S,Village Street,144.95060295984317,-37.82076027517728,"(-37.820760275177, 144.950602959843)"
VGW3,1647779,MPM1647779,YES,YES,Reino TTX-S,Village Street,144.94979544702386,-37.819734776096865,"(-37.819734776097, 144.949795447024)"
HRE19,1647780,MPM1647780,YES,YES,Reino TTX-S,Harbour Esplanade,144.94723535848055,-37.81995708842141,"(-37.819957088421, 144.947235358481)"
GPW2,1647781,MPM1647781,YES,YES,Reino TTX-S,Geographe Street,144.94540541090555,-37.82031284528343,"(-37.820312845283, 144.945405410906)"
GPE1,1647782,MPM1647782,YES,YES,Reino TTX-S,Geographe Street,144.94540795403367,-37.819954448281145,"(-37.819954448281, 144.945407954034)"
ZAS5,1620117,MPM1620117,YES,NO,Reino VX1,Batman Street,144.94931379387654,-37.811476611558525,"(-37.811476611559, 144.949313793877)"
VS1,1620106,MPM1620106,YES,NO,Reino VX1,Albert Street,144.97378384265096,-37.809446131465286,"(-37.809446131465, 144.973783842651)"
IAW6,1620127,MPM1620127,YES,NO,Reino VX1,Clarendon Street,144.98329802333518,-37.81106623428869,"(-37.811066234289, 144.983298023335)"
HRE44,1620170,MPM1620170,YES,NO,Reino VX1,Harbour Esplanade,144.9454059589766,-37.81576282423627,"(-37.815762824236, 144.945405958977)"
MHE2,1620128,MPM1620128,YES,NO,Reino VX1,Merchant Street,144.94366800079274,-37.81943897199173,"(-37.819438971992, 144.943668000793)"
VS4,1620135,MPM1620135,YES,NO,Reino VX1,Albert Street,144.97482924850988,-37.809564092120375,"(-37.80956409212, 144.97482924851)"
IAW1,1620171,MPM1620171,YES,NO,Reino VX1,Clarendon Street,144.98260779151187,-37.81517492428921,"(-37.815174924289, 144.982607791512)"
IAW3,1620176,MPM1620176,YES,NO,Reino VX1,Clarendon Street,144.98288692560118,-37.81352292566584,"(-37.813522925666, 144.982886925601)"
HRE42,1620169,MPM1620169,YES,NO,Reino VX1,Harbour Esplanade,144.94569902221437,-37.816419026240496,"(-37.81641902624, 144.945699022214)"
IAW2,1620175,MPM1620175,YES,NO,Reino VX1,Clarendon Street,144.98275578647062,-37.814295188048966,"(-37.814295188049, 144.982755786471)"
IAW4,1620177,MPM1620177,YES,NO,Reino VX1,Clarendon Street,144.98297566538028,-37.813005384872454,"(-37.813005384872, 144.98297566538)"
IAW5,1620178,MPM1620178,YES,NO,Reino VX1,Clarendon Street,144.98311151375623,-37.812178429053084,"(-37.812178429053, 144.983111513756)"
RE80,1620183,MPM1620183,YES,NO,Reino VX1,Lansdowne Street,144.97831936078265,-37.81066794490018,"(-37.8106679449, 144.978319360783)"
RW62,1620186,MPM1620186,YES,NO,Reino VX1,Lansdowne Street,144.97807690943813,-37.810467883860184,"(-37.81046788386, 144.978076909438)"
VS9,1620190,MPM1620190,YES,NO,Reino VX1,Albert Street,144.9777707180589,-37.809889629592824,"(-37.809889629593, 144.977770718059)"
VS7,1620188,MPM1620188,YES,NO,Reino VX1,Albert Street,144.97671392321715,-37.809767840507696,"(-37.809767840508, 144.976713923217)"
VS11,1620192,MPM1620192,YES,NO,Reino VX1,Albert Street,144.97941322284638,-37.81006022087882,"(-37.810060220879, 144.979413222846)"
ZAS1C,1621354,MPM1621354,NO,NO,Duncan Eagle,Batman Street,144.95146036644837,-37.81086671616111,"(-37.810866716161, 144.951460366448)"
KE81,1621572,MPM1621572,NO,NO,Duncan Eagle,Queen Street,144.95825165502194,-37.80715784478113,"(-37.807157844781, 144.958251655022)"
KE82,1621586,MPM1621586,NO,NO,Duncan Eagle,Queen Street,144.95826145800243,-37.80710709830476,"(-37.807107098305, 144.958261458002)"
KW133,1621670,MPM1621670,NO,NO,Duncan Eagle,Queen Street,144.95802749291065,-37.80648798868997,"(-37.80648798869, 144.958027492911)"
DS17,1621737,MPM1621737,NO,NO,Duncan Eagle,Bourke Street,144.94742294704255,-37.81890500419593,"(-37.818905004196, 144.947422947043)"
CAS28,1621749,MPM1621749,NO,NO,Duncan Eagle,A'Beckett Street,144.9567732277577,-37.81051640409029,"(-37.81051640409, 144.956773227758)"
CAN20,1621755,MPM1621755,NO,NO,Duncan Eagle,A'Beckett Street,144.95758487173214,-37.81011429505163,"(-37.810114295052, 144.957584871732)"
CAS27,1621758,MPM1621758,NO,NO,Duncan Eagle,A'Beckett Street,144.9568353296413,-37.8104969348679,"(-37.810496934868, 144.956835329641)"
CAS33,1621759,MPM1621759,NO,NO,Duncan Eagle,A'Beckett Street,144.9563487066461,-37.81064141968045,"(-37.81064141968, 144.956348706646)"
CAS35,1621748,MPM1621748,NO,NO,Duncan Eagle,A'Beckett Street,144.95622472270966,-37.810676486333136,"(-37.810676486333, 144.95622472271)"
CAS26,1621762,MPM1621762,NO,NO,Duncan Eagle,A'Beckett Street,144.95689600023894,-37.81047581866224,"(-37.810475818662, 144.956896000239)"
CAS30,1621794,MPM1621794,NO,NO,Duncan Eagle,A'Beckett Street,144.95664429020874,-37.810553998643975,"(-37.810553998644, 144.956644290209)"
ZCE1A,1621901,MPM1621901,NO,NO,Duncan Eagle,Birdwood Avenue,144.97757932697897,-37.831892849349146,"(-37.831892849349, 144.977579326979)"
DDN3,1621954,MPM1621954,NO,NO,Duncan Eagle,Docklands Drive,144.93996802577558,-37.81383911430181,"(-37.813839114302, 144.939968025776)"
ZAS1A,1622068,MPM1622068,NO,NO,Duncan Eagle,Batman Street,144.9516678328389,-37.81080892829196,"(-37.810808928292, 144.951667832839)"
DDN2,1622339,MPM1622339,NO,NO,Duncan Eagle,Docklands Drive,144.94010408611203,-37.81378688358974,"(-37.81378688359, 144.940104086112)"
OCS2,1622342,MPM1622342,NO,NO,Duncan Eagle,Francis Street,144.9557982124981,-37.818054931012654,"(-37.818054931013, 144.955798212498)"
OCN9,1622348,MPM1622348,NO,NO,Duncan Eagle,Francis Street,144.95415543756926,-37.81844535435201,"(-37.818445354352, 144.954155437569)"
KCS1,1622385,MPM1622385,NO,NO,Duncan Eagle,Commercial Road,144.98003808641806,-37.84513777849197,"(-37.845137778492, 144.980038086418)"
BN3,1622392,MPM1622392,NO,NO,Duncan Eagle,Flinders Street,144.97291986663188,-37.81573774621756,"(-37.815737746218, 144.972919866632)"
DDN1,1622395,MPM1622395,NO,NO,Duncan Eagle,Docklands Drive,144.94010408611203,-37.81378688358974,"(-37.81378688359, 144.940104086112)"
OCS3,1622397,MPM1622397,NO,NO,Duncan Eagle,Francis Street,144.9557982124981,-37.818054931012654,"(-37.818054931013, 144.955798212498)"
CAS34,1622431,MPM1622431,NO,NO,Duncan Eagle,A'Beckett Street,144.95628888980718,-37.810657927388355,"(-37.810657927388, 144.956288889807)"
OCS1,1622528,MPM1622528,NO,NO,Duncan Eagle,Francis Street,144.95609042690802,-37.81797297751872,"(-37.817972977519, 144.956090426908)"
KW118,1622615,MPM1622615,NO,NO,Duncan Eagle,Queen Street,144.95792686436934,-37.807052632848794,"(-37.807052632849, 144.957926864369)"
PE1A,1623744,MPM1623744,NO,NO,Duncan Eagle,Parliament Place,144.97550112828594,-37.81148875635608,"(-37.811488756356, 144.975501128286)"
ZAS1D,1623972,MPM1623972,NO,NO,Duncan Eagle,Batman Street,144.95146036644837,-37.81086671616111,"(-37.810866716161, 144.951460366448)"
PN23,1624063,MPM1624063,NO,NO,Duncan Eagle,St Andrews Place,144.97513096609225,-37.81175208707021,"(-37.81175208707, 144.975130966092)"
KW135,1624066,MPM1624066,NO,NO,Duncan Eagle,Queen Street,144.95803720412738,-37.80644057498852,"(-37.806440574989, 144.958037204127)"
ZAS1B,1624244,MPM1624244,NO,NO,Duncan Eagle,Batman Street,144.9516678328389,-37.81080892829196,"(-37.810808928292, 144.951667832839)"
KBN7F,1623995,MPM1623995,NO,NO,Duncan Eagle,Flinders Lane,144.9582741353303,-37.81898826013331,"(-37.818988260133, 144.95827413533)"
KW129,1624680,MPM1624680,NO,NO,Duncan Eagle,Queen Street,144.95799772579494,-37.80664085267997,"(-37.80664085268, 144.957997725795)"
KE83,1624694,MPM1624694,NO,NO,Duncan Eagle,Queen Street,144.95826145800243,-37.80710709830476,"(-37.807107098305, 144.958261458002)"
PAS5,1625285,MPM1625285,NO,NO,Duncan Eagle,Therry Street,144.9587466349811,-37.80752600446487,"(-37.807526004465, 144.958746634981)"
L3,1625281,MPM1625281,NO,NO,Duncan Eagle,Market Street,144.96053545779733,-37.81807173705019,"(-37.81807173705, 144.960535457797)"
L14,1625290,MPM1625290,NO,NO,Duncan Eagle,Market Street,144.96042642168578,-37.817828739004085,"(-37.817828739004, 144.960426421686)"
KW120,1625385,MPM1625385,NO,NO,Duncan Eagle,Queen Street,144.95793412028098,-37.807003644582956,"(-37.807003644583, 144.957934120281)"
KW116,1625388,MPM1625388,NO,NO,Duncan Eagle,Queen Street,144.95791048138284,-37.807144728295775,"(-37.807144728296, 144.957910481383)"
KW117,1625389,MPM1625389,NO,NO,Duncan Eagle,Queen Street,144.95792686436934,-37.807052632848794,"(-37.807052632849, 144.957926864369)"
KW119,1625392,MPM1625392,NO,NO,Duncan Eagle,Queen Street,144.95793412028098,-37.807003644582956,"(-37.807003644583, 144.957934120281)"
KW130,1625394,MPM1625394,NO,NO,Duncan Eagle,Queen Street,144.95800411494835,-37.806594462786094,"(-37.806594462786, 144.958004114948)"
KW115,1625398,MPM1625398,NO,NO,Duncan Eagle,Queen Street,144.95790290730457,-37.807187123444336,"(-37.807187123444, 144.957902907305)"
KW114,1625401,MPM1625401,NO,NO,Duncan Eagle,Queen Street,144.95790290730457,-37.807187123444336,"(-37.807187123444, 144.957902907305)"
DS17A,1625459,MPM1625459,NO,NO,Duncan Eagle,Bourke Street,144.94742294704255,-37.81890500419593,"(-37.818905004196, 144.947422947043)"
L19,1625572,MPM1625572,NO,NO,Duncan Eagle,Market Street,144.96033369475148,-37.81762510733798,"(-37.817625107338, 144.960333694751)"
OCS4,1625470,MPM1625470,NO,NO,Duncan Eagle,Francis Street,144.9556233866947,-37.818105794880786,"(-37.818105794881, 144.955623386695)"
L9,1625580,MPM1625580,NO,NO,Duncan Eagle,Market Street,144.96048069580647,-37.81794898568716,"(-37.817948985687, 144.960480695806)"
KW134,1625656,MPM1625656,NO,NO,Duncan Eagle,Queen Street,144.95803720412738,-37.80644057498852,"(-37.806440574989, 144.958037204127)"
KW128,1625663,MPM1625663,NO,NO,Duncan Eagle,Queen Street,144.95799772579494,-37.80664085267997,"(-37.80664085268, 144.957997725795)"
KE84,1625665,MPM1625665,NO,NO,Duncan Eagle,Queen Street,144.9582656415563,-37.80707644974946,"(-37.807076449749, 144.958265641556)"
KW127,1625667,MPM1625667,NO,NO,Duncan Eagle,Queen Street,144.9579902075327,-37.80667875193757,"(-37.806678751938, 144.957990207533)"
PN24,1625695,MPM1625695,NO,NO,Duncan Eagle,St Andrews Place,144.97513096609225,-37.81175208707021,"(-37.81175208707, 144.975130966092)"
KW132,1625782,MPM1625782,NO,NO,Duncan Eagle,Queen Street,144.95802749291065,-37.80648798868997,"(-37.80648798869, 144.958027492911)"
MCN1,1625951,MPM1625951,NO,NO,Duncan Eagle,McCrae Street,144.95115930147134,-37.821698634590895,"(-37.821698634591, 144.951159301471)"
CAS29,1627637,MPM1627637,NO,NO,Duncan Eagle,A'Beckett Street,144.9567030996518,-37.81053447235805,"(-37.810534472358, 144.956703099652)"
KW131,1628427,MPM1628427,NO,NO,Duncan Eagle,Queen Street,144.95800411494835,-37.806594462786094,"(-37.806594462786, 144.958004114948)"
ENE1,1628551,MPM1628551,NO,NO,Duncan Eagle,Enterprize Way,144.94434805359774,-37.81908619656968,"(-37.81908619657, 144.944348053598)"
CAS31,1628554,MPM1628554,NO,NO,Duncan Eagle,A'Beckett Street,144.95649087978617,-37.810597566689154,"(-37.810597566689, 144.956490879786)"
UBS60A,1628739,MPM1628739,NO,NO,Duncan Eagle,Victoria Street,144.96083427311905,-37.806525046796835,"(-37.806525046797, 144.960834273119)"
HRW13,1628980,MPM1628980,NO,NO,Duncan Eagle,Harbour Esplanade,144.94744833912335,-37.821582678094686,"(-37.821582678095, 144.947448339123)"
HRW14,1628981,MPM1628981,NO,NO,Duncan Eagle,Harbour Esplanade,144.94744833912335,-37.821582678094686,"(-37.821582678095, 144.947448339123)"
LDN1,1628996,MPM1628996,NO,NO,Duncan Eagle,Little Docklands Drive,144.9393388876276,-37.81299551224987,"(-37.81299551225, 144.939338887628)"
LDN2,1628997,MPM1628997,NO,NO,Duncan Eagle,Little Docklands Drive,144.9393388876276,-37.81299551224987,"(-37.81299551225, 144.939338887628)"
KCN1,1629078,MPM1629078,NO,NO,Duncan Eagle,Commercial Road,144.9792581738879,-37.844815407465376,"(-37.844815407465, 144.979258173888)"
ALE3B,1629084,MPM1629084,NO,NO,Duncan Eagle,Aurora Lane,144.95006474364973,-37.818984984671864,"(-37.818984984672, 144.95006474365)"
ALE3D,1629085,MPM1629085,NO,NO,Duncan Eagle,Aurora Lane,144.9499632803944,-37.818849691261114,"(-37.818849691261, 144.949963280394)"
ALE3C,1629086,MPM1629086,NO,NO,Duncan Eagle,Aurora Lane,144.9499632803944,-37.818849691261114,"(-37.818849691261, 144.949963280394)"
CAN21,1629119,MPM1629119,NO,NO,Duncan Eagle,A'Beckett Street,144.95749594550503,-37.810139364301044,"(-37.810139364301, 144.957495945505)"
KW136,1629166,MPM1629166,NO,NO,Duncan Eagle,Queen Street,144.9580417594108,-37.806394784113536,"(-37.806394784114, 144.958041759411)"
MAW15,1629168,MPM1629168,NO,NO,Duncan Eagle,Barry Street,144.95936627581602,-37.80225228094249,"(-37.802252280942, 144.959366275816)"
CAS32,1629203,MPM1629203,NO,NO,Duncan Eagle,A'Beckett Street,144.95642226900287,-37.810618274528444,"(-37.810618274528, 144.956422269003)"
PLW3,1629236,MPM1629236,NO,NO,Duncan Eagle,Peel Street,144.95555329465518,-37.80734635111092,"(-37.807346351111, 144.955553294655)"
ALE3A,1629350,MPM1629350,NO,NO,Duncan Eagle,Aurora Lane,144.95006474364973,-37.818984984671864,"(-37.818984984672, 144.95006474365)"
L4,1629256,MPM1629256,NO,NO,Duncan Eagle,Market Street,144.96053173617292,-37.81805135109197,"(-37.818051351092, 144.960531736173)"
CME1,1629467,MPM1629467,NO,NO,Duncan Eagle,Cumberland Street,144.94277709868268,-37.8198836558753,"(-37.819883655875, 144.942777098683)"
CME2,1629468,MPM1629468,NO,NO,Duncan Eagle,Cumberland Street,144.94277709868268,-37.8198836558753,"(-37.819883655875, 144.942777098683)"
US10,1629490,MPM1629490,NO,NO,Duncan Eagle,Little Collins Street,144.960773575389,-37.81609989968114,"(-37.816099899681, 144.960773575389)"
IW29,1629492,MPM1629492,NO,NO,Duncan Eagle,Swanston Street,144.96341811444347,-37.80291281277818,"(-37.802912812778, 144.963418114443)"
PAS6,1629480,MPM1629480,NO,NO,Duncan Eagle,Therry Street,144.95868767027358,-37.807547151240534,"(-37.807547151241, 144.958687670274)"
IW28,1629493,MPM1629493,NO,NO,Duncan Eagle,Swanston Street,144.96340160568806,-37.80296677814628,"(-37.802966778146, 144.963401605688)"
PRW1,1629494,MPM1629494,NO,NO,Duncan Eagle,Pearl River Road,144.93800292713715,-37.81586466221791,"(-37.815864662218, 144.938002927137)"
PRW2,1629495,MPM1629495,NO,NO,Duncan Eagle,Pearl River Road,144.93795424364873,-37.815777973003215,"(-37.815777973003, 144.937954243649)"
PRW4,1629497,MPM1629497,NO,NO,Duncan Eagle,Pearl River Road,144.93778736510365,-37.81551038514813,"(-37.815510385148, 144.937787365104)"
HRE3,1629524,MPM1629524,NO,NO,Duncan Eagle,Harbour Esplanade,144.9478874037978,-37.82208136245257,"(-37.822081362453, 144.947887403798)"
EAT208,1629542,MPM1629542,YES,YES,Cale CWT-C,Franklin Street,144.95561351307782,-37.80919679812064,"(-37.809196798121, 144.955613513078)"
HRE1,1629522,MPM1629522,NO,NO,Duncan Eagle,Harbour Esplanade,144.94791200922967,-37.82217001610725,"(-37.822170016107, 144.94791200923)"
HRE2,1629523,MPM1629523,NO,NO,Duncan Eagle,Harbour Esplanade,144.94791200922967,-37.82217001610725,"(-37.822170016107, 144.94791200923)"
EAT111,1629558,MPM1629558,YES,YES,Cale CWT-C,Franklin Street,144.9567599592149,-37.80930959897199,"(-37.809309598972, 144.956759959215)"
EAT86,1629561,MPM1629561,YES,YES,Cale CWT-C,Franklin Street,144.95705427538448,-37.809346246714426,"(-37.809346246714, 144.957054275384)"
WFWT3,1629574,MPM1629574,YES,YES,Cale CWT-C,Waterfront Way,144.93843545567955,-37.812151790932525,"(-37.812151790933, 144.93843545568)"
UFET2,1629577,MPM1629577,YES,YES,Cale CWT-C,Jolimont Terrace,144.98190821198656,-37.81820216840445,"(-37.818202168404, 144.981908211987)"
RBWT1,1629613,MPM1629613,YES,YES,Reino TTX,Royal Parade,144.95739971184798,-37.79902898468312,"(-37.799028984683, 144.957399711848)"
SFET33,1629636,MPM1629636,YES,YES,Cale CWT-P,Dodds Street,144.96851581178547,-37.82442440127139,"(-37.824424401271, 144.968515811785)"
SIWT3,1629638,MPM1629638,YES,YES,Cale CWT-P,Sturt Street,144.966323327603,-37.82646817457295,"(-37.826468174573, 144.966323327603)"
EAST37,1629592,MPM1629592,YES,YES,Cale CWT-P,Franklin Street,144.9567633402182,-37.809463019699706,"(-37.8094630197, 144.956763340218)"
MCT3,1629627,MPM1629627,YES,YES,Cale CWT-P,St Kilda Road,144.97076562396842,-37.824041331491095,"(-37.824041331491, 144.970765623968)"
SFWT16A,1629637,MPM1629637,YES,YES,Cale CWT-P,Dodds Street,144.96770608757942,-37.826520221993256,"(-37.826520221993, 144.967706087579)"
SFWT16,1629639,MPM1629639,YES,YES,Cale CWT-P,Dodds Street,144.9673000285473,-37.82783485683872,"(-37.827834856839, 144.967300028547)"
SFWT17,1629640,MPM1629640,YES,YES,Cale CWT-P,Dodds Street,144.96818845458802,-37.82491318221933,"(-37.824913182219, 144.968188454588)"
SFET32,1629642,MPM1629642,YES,YES,Cale CWT-P,Dodds Street,144.9683622624977,-37.82491090965478,"(-37.824910909655, 144.968362262498)"
SIET26,1629644,MPM1629644,YES,YES,Cale CWT-P,Sturt Street,144.9669396615702,-37.825248553264046,"(-37.825248553264, 144.96693966157)"
SIET24,1630085,MPM1630085,YES,YES,Cale CWT-P,Sturt Street,144.96621978435945,-37.82762706275549,"(-37.827627062755, 144.966219784359)"
SLNT1,1630089,MPM1630089,YES,YES,Cale CWT-P,Grant Street,144.96870556412412,-37.825495829084105,"(-37.825495829084, 144.968705564124)"
SOST9,1630092,MPM1630092,YES,YES,Cale CWT-P,Kavanagh Street,144.96317955518643,-37.825191269205064,"(-37.825191269205, 144.963179555186)"
MCIT3D,1630093,MPM1630093,YES,YES,Cale CWT-P,St Kilda Road,144.97154730325224,-37.827480061025256,"(-37.827480061025, 144.971547303252)"
SXST37,1630097,MPM1630097,YES,YES,Cale CWT-P,Haig Street,144.95627266743418,-37.827891475744295,"(-37.827891475744, 144.956272667434)"
SGWT1,1630099,MPM1630099,YES,YES,Cale CWT-P,Wells Street,144.96906147813772,-37.829875650006315,"(-37.829875650006, 144.969061478138)"
MCWT1,1630101,MPM1630101,YES,YES,Cale CWT-P,St Kilda Road,144.97028466379297,-37.824328419372364,"(-37.824328419372, 144.970284663793)"
SLST2,1630086,MPM1630086,YES,YES,Cale CWT-P,Grant Street,144.96729033864813,-37.82607400144261,"(-37.826074001443, 144.967290338648)"
SIET25,1630087,MPM1630087,YES,YES,Cale CWT-P,Sturt Street,144.96649041418308,-37.82673652861469,"(-37.826736528615, 144.966490414183)"
SLST1,1630088,MPM1630088,YES,YES,Cale CWT-P,Grant Street,144.96877707308158,-37.82563747489055,"(-37.825637474891, 144.968777073082)"
SOST8,1630090,MPM1630090,YES,YES,Cale CWT-P,Kavanagh Street,144.9643940235074,-37.82414667010537,"(-37.824146670105, 144.964394023507)"
MCT15,1630114,MPM1630114,YES,YES,Cale CWT-P,St Kilda Road,144.97716421230825,-37.839875687254114,"(-37.839875687254, 144.977164212308)"
SOST10,1630094,MPM1630094,YES,YES,Cale CWT-P,Kavanagh Street,144.96276516046473,-37.82554807480085,"(-37.825548074801, 144.962765160465)"
SXNT12,1630098,MPM1630098,YES,YES,Cale CWT-P,Haig Street,144.95617183313334,-37.82779473267444,"(-37.827794732674, 144.956171833133)"
MCWT2,1630100,MPM1630100,YES,YES,Cale CWT-P,St Kilda Road,144.9707857309276,-37.82545237814077,"(-37.825452378141, 144.970785730928)"
MCT13,1630112,MPM1630112,YES,YES,Cale CWT-P,St Kilda Road,144.9762716044163,-37.83739906757305,"(-37.837399067573, 144.976271604416)"
MCT14,1630113,MPM1630113,YES,YES,Cale CWT-P,St Kilda Road,144.97668502093723,-37.83855112488433,"(-37.838551124884, 144.976685020937)"
MCT16,1630115,MPM1630115,YES,YES,Cale CWT-P,St Kilda Road,144.97743259118135,-37.84060830321582,"(-37.840608303216, 144.977432591181)"
MCT17,1630116,MPM1630116,YES,YES,Cale CWT-P,St Kilda Road,144.97795432431712,-37.84203046038514,"(-37.842030460385, 144.977954324317)"
MCT18,1630117,MPM1630117,YES,YES,Cale CWT-P,St Kilda Road,144.9783433487545,-37.84307463668307,"(-37.843074636683, 144.978343348755)"
MCT19,1630118,MPM1630118,YES,YES,Cale CWT-P,St Kilda Road,144.979309657328,-37.84575154753208,"(-37.845751547532, 144.979309657328)"
SLNT2,1630133,MPM1630133,YES,YES,Cale CWT-P,Grant Street,144.96729973068398,-37.825916394918025,"(-37.825916394918, 144.967299730684)"
MCT6,1630141,MPM1630141,YES,YES,Cale CWT-P,St Kilda Road,144.9716605585966,-37.82813380523581,"(-37.828133805236, 144.971660558597)"
AGNT1,1630135,MPM1630135,YES,YES,Cale CWT-P,Government House Drive,144.97193980938658,-37.826335598393094,"(-37.826335598393, 144.971939809387)"
SGET10,1630143,MPM1630143,YES,YES,Cale CWT-P,Wells Street,144.96886391108782,-37.8273269999254,"(-37.827326999925, 144.968863911088)"
SGET8,1630145,MPM1630145,YES,YES,Cale CWT-P,Wells Street,144.96872896982993,-37.82876505552469,"(-37.828765055525, 144.96872896983)"
SGET11,1630138,MPM1630138,YES,YES,Cale CWT-P,Wells Street,144.9690673135978,-37.82666283731033,"(-37.82666283731, 144.969067313598)"
MCT4,1630146,MPM1630146,YES,YES,Cale CWT-P,St Kilda Road,144.97127085359827,-37.8251470842047,"(-37.825147084205, 144.971270853598)"
MCIT3B,1630147,MPM1630147,YES,YES,Cale CWT-P,St Kilda Road,144.9709516786182,-37.82552142950014,"(-37.8255214295, 144.970951678618)"
SGET9,1630144,MPM1630144,YES,YES,Cale CWT-P,Wells Street,144.96865355770274,-37.827986788608136,"(-37.827986788608, 144.968653557703)"
MCWT4,1630149,MPM1630149,YES,YES,Cale CWT-P,St Kilda Road,144.97113364959418,-37.82725744443323,"(-37.827257444433, 144.971133649594)"
MCWT5,1630150,MPM1630150,YES,YES,Cale CWT-P,St Kilda Road,144.97109779608527,-37.82789692227793,"(-37.827896922278, 144.971097796085)"
SIWT1,1630152,MPM1630152,YES,YES,Cale CWT-P,Sturt Street,144.96535108649667,-37.829718890500835,"(-37.829718890501, 144.965351086497)"
SIWT2,1630153,MPM1630153,YES,YES,Cale CWT-P,Sturt Street,144.96590848947503,-37.827882755151045,"(-37.827882755151, 144.965908489475)"
SIET23,1630154,MPM1630154,YES,YES,Cale CWT-P,Sturt Street,144.96590675371695,-37.828672865804464,"(-37.828672865804, 144.965906753717)"
SIWT1B,1630156,MPM1630156,YES,YES,Cale CWT-P,Sturt Street,144.96565865958482,-37.828709690747075,"(-37.828709690747, 144.965658659585)"
SKNT6,1630159,MPM1630159,YES,YES,Cale CWT-P,Miles Street,144.96772479453836,-37.82859130914575,"(-37.828591309146, 144.967724794538)"
SFWT10,1630160,MPM1630160,YES,YES,Cale CWT-P,Dodds Street,144.96700829112294,-37.828824418809084,"(-37.828824418809, 144.967008291123)"
SKST1,1630161,MPM1630161,YES,YES,Cale CWT-P,Miles Street,144.967855070366,-37.828698049045876,"(-37.828698049046, 144.967855070366)"
SAST16,1630163,MPM1630163,YES,YES,Cale CWT-P,Wadey Street,144.96963108426257,-37.826143625288324,"(-37.826143625288, 144.969631084263)"
SDST42A,1630165,MPM1630165,YES,YES,Cale CWT-P,Coventry Street,144.9679479772652,-37.82969808188308,"(-37.829698081883, 144.967947977265)"
SCNT21,1630175,MPM1630175,YES,YES,Cale CWT-P,Dorcas Street,144.96686455984428,-37.831097753206905,"(-37.831097753207, 144.966864559844)"
SDNT4,1630180,MPM1630180,YES,YES,Cale CWT-P,Coventry Street,144.96840591293548,-37.829380102223595,"(-37.829380102224, 144.968405912935)"
SDST63,1630184,MPM1630184,YES,YES,Cale CWT-P,Coventry Street,144.96631044188064,-37.830174662461665,"(-37.830174662462, 144.966310441881)"
SDST64,1630181,MPM1630181,YES,YES,Cale CWT-P,Coventry Street,144.96596547888004,-37.83027450091311,"(-37.830274500913, 144.96596547888)"
ADNT1,1630206,MPM1630206,YES,NO,Reino TX-P,Linlithgow Avenue,144.97168273310675,-37.822565201853465,"(-37.822565201853, 144.971682733107)"
ADST2,1630210,MPM1630210,YES,NO,Reino TX-P,Linlithgow Avenue,144.9722909058388,-37.822398037547195,"(-37.822398037547, 144.972290905839)"
ADST3,1630211,MPM1630211,YES,NO,Reino TX-P,Linlithgow Avenue,144.97280457065537,-37.822263505618416,"(-37.822263505618, 144.972804570655)"
ADNT2,1630207,MPM1630207,YES,NO,Reino TX-P,Linlithgow Avenue,144.97231004702266,-37.82225904538108,"(-37.822259045381, 144.972310047023)"
ADNT3,1630208,MPM1630208,YES,NO,Reino TX-P,Linlithgow Avenue,144.9728958908185,-37.82211351809312,"(-37.822113518093, 144.972895890819)"
ADST1,1630209,MPM1630209,YES,NO,Reino TX-P,Linlithgow Avenue,144.9717239625008,-37.82274898599421,"(-37.822748985994, 144.971723962501)"
AHNT1,1630212,MPM1630212,YES,NO,Reino TX-P,High Street,144.9814898077153,-37.85024084930922,"(-37.850240849309, 144.981489807715)"
AHNT2,1630213,MPM1630213,YES,NO,Reino TX-P,High Street,144.98267186518814,-37.85039167528377,"(-37.850391675284, 144.982671865188)"
AHNT3,1630214,MPM1630214,YES,NO,Reino TX-P,High Street,144.983352938515,-37.85047970195114,"(-37.850479701951, 144.983352938515)"
26TB,1630217,MPM1630217,YES,NO,Reino TX-P,Linlithgow Avenue,144.9723905532726,-37.82597761974752,"(-37.825977619748, 144.972390553273)"
26TD,1630218,MPM1630218,YES,NO,Reino TX-P,Linlithgow Avenue,144.97234575690968,-37.82511549562638,"(-37.825115495626, 144.97234575691)"
51TG,1630221,MPM1630221,YES,NO,Reino TX-P,Moubray Street,144.98089820639998,-37.847936026659525,"(-37.84793602666, 144.9808982064)"
KCST1,1630249,MPM1630249,YES,NO,Reino TX-P,Commercial Road,144.97961975418187,-37.84508500897301,"(-37.845085008973, 144.979619754182)"
KCST2,1630250,MPM1630250,YES,NO,Reino TX-P,Commercial Road,144.98063341002427,-37.84521873462534,"(-37.845218734625, 144.980633410024)"
KCT3,1630253,MPM1630253,YES,NO,Reino TX-P,Commercial Road,144.9834755501687,-37.8453482370105,"(-37.84534823701, 144.983475550169)"
KCT1,1630251,MPM1630251,YES,NO,Reino TX-P,Commercial Road,144.98062090945317,-37.844987945774626,"(-37.844987945775, 144.980620909453)"
KCT2,1630252,MPM1630252,YES,NO,Reino TX-P,Commercial Road,144.98148396231932,-37.84508058231237,"(-37.845080582312, 144.981483962319)"
LCT1,1630255,MPM1630255,YES,NO,Reino TX-P,Moubray Street,144.98377979392566,-37.84814195214645,"(-37.848141952146, 144.983779793926)"
LCT3,1630257,MPM1630257,YES,NO,Reino TX-P,Moubray Street,144.98155321166797,-37.847869272317375,"(-37.847869272317, 144.981553211668)"
MCIT12,1630262,MPM1630262,YES,NO,Reino TX-P,St Kilda Road,144.97779109465623,-37.842070002685325,"(-37.842070002685, 144.977791094656)"
MCIT14,1630264,MPM1630264,YES,NO,Reino TX-P,St Kilda Road,144.97829634109513,-37.843434398128025,"(-37.843434398128, 144.978296341095)"
MCIT16,1630266,MPM1630266,YES,NO,Reino TX-P,St Kilda Road,144.97920227971713,-37.845927902370335,"(-37.84592790237, 144.979202279717)"
LCT2,1630256,MPM1630256,YES,NO,Reino TX-P,Moubray Street,144.98253722822196,-37.84799077650432,"(-37.847990776504, 144.982537228222)"
MFNT1,1630270,MPM1630270,YES,NO,Reino TX-P,Moray Street,144.96104321377518,-37.827638945088694,"(-37.827638945089, 144.961043213775)"
NFNT1,1630272,MPM1630272,YES,NO,Reino TX-P,Grey Street,144.9866194787609,-37.811844890603176,"(-37.811844890603, 144.986619478761)"
PFET1,1630277,MPM1630277,YES,NO,Reino TX-P,Powlett Street,144.98619074066264,-37.811293012358654,"(-37.811293012359, 144.986190740663)"
PPCT2,1630279,MPM1630279,YES,NO,Reino TX-P,Point Park Crescent,144.94196706126485,-37.8235868967054,"(-37.823586896705, 144.941967061265)"
LCT4,1630258,MPM1630258,YES,NO,Reino TX-P,Moubray Street,144.9806961317858,-37.84776437431515,"(-37.847764374315, 144.980696131786)"
LCT6,1630259,MPM1630259,YES,NO,Reino TX-P,Moubray Street,144.98314418261978,-37.84821180876725,"(-37.848211808767, 144.98314418262)"
MCIT10,1630260,MPM1630260,YES,NO,Reino TX-P,St Kilda Road,144.9768820596611,-37.839527563316054,"(-37.839527563316, 144.976882059661)"
MCIT11,1630261,MPM1630261,YES,NO,Reino TX-P,St Kilda Road,144.97710911778,-37.84018736692313,"(-37.840187366923, 144.97710911778)"
MCIT13,1630263,MPM1630263,YES,NO,Reino TX-P,St Kilda Road,144.97805181427728,-37.84275067708462,"(-37.842750677085, 144.978051814277)"
MCIT15,1630265,MPM1630265,YES,NO,Reino TX-P,St Kilda Road,144.97899232912943,-37.84535035843127,"(-37.845350358431, 144.978992329129)"
MCIT17,1630267,MPM1630267,YES,NO,Reino TX-P,St Kilda Road,144.9795373223861,-37.846851408878706,"(-37.846851408879, 144.979537322386)"
SNT1,1630294,MPM1630294,YES,NO,Reino TX-P,Wellington Parade,144.97585976845502,-37.815235142882514,"(-37.815235142883, 144.975859768455)"
SNT2,1630295,MPM1630295,YES,NO,Reino TX-P,Wellington Parade,144.98051729203615,-37.81575039400952,"(-37.81575039401, 144.980517292036)"
SNT3,1630296,MPM1630296,YES,NO,Reino TX-P,Wellington Parade,144.98119061135824,-37.815820255428996,"(-37.815820255429, 144.981190611358)"
SOST10A,1630297,MPM1630297,YES,NO,Reino TX-P,Kavanagh Street,144.96252555973848,-37.825769627730516,"(-37.825769627731, 144.962525559738)"
TFNT1,1630302,MPM1630302,YES,NO,Reino TX-P,Boathouse Drive,144.97321601948056,-37.819967506817726,"(-37.819967506818, 144.973216019481)"
TFNT2,1630303,MPM1630303,YES,NO,Reino TX-P,Boathouse Drive,144.97405093920037,-37.82052876392185,"(-37.820528763922, 144.9740509392)"
TM60,1630315,MPM1630315,YES,NO,Reino TX-P,Dallas Brooks Drive,144.97662155589578,-37.83155243792833,"(-37.831552437928, 144.976621555896)"
TM84,1630318,MPM1630318,YES,NO,Reino TX-P,Domain Road,144.97899663926304,-37.833601106623114,"(-37.833601106623, 144.978996639263)"
TM85,1630319,MPM1630319,YES,NO,Reino TX-P,Domain Road,144.97955213578155,-37.83367202939634,"(-37.833672029396, 144.979552135782)"
SST1,1630298,MPM1630298,YES,NO,Reino TX-P,Wellington Parade,144.9802468199005,-37.81594158080609,"(-37.815941580806, 144.980246819901)"
SST2,1630299,MPM1630299,YES,NO,Reino TX-P,Wellington Parade,144.9811803986097,-37.816045014385075,"(-37.816045014385, 144.98118039861)"
TFNT3,1630304,MPM1630304,YES,NO,Reino TX-P,Boathouse Drive,144.9746070808201,-37.82120066969075,"(-37.821200669691, 144.97460708082)"
TFST1,1630305,MPM1630305,YES,NO,Reino TX-P,Boathouse Drive,144.97281771234418,-37.81996672372754,"(-37.819966723728, 144.972817712344)"
TFST2,1630306,MPM1630306,YES,NO,Reino TX-P,Boathouse Drive,144.97405976879472,-37.82076589823163,"(-37.820765898232, 144.974059768795)"
TFST3,1630307,MPM1630307,YES,NO,Reino TX-P,Boathouse Drive,144.9744597712279,-37.821264975826296,"(-37.821264975826, 144.974459771228)"
VST105,1630332,MPM1630332,YES,NO,Reino TX-P,Albert Street,144.98822546548254,-37.811038198765104,"(-37.811038198765, 144.988225465483)"
TM47,1630308,MPM1630308,YES,NO,Reino TX-P,Birdwood Avenue,144.9726697496563,-37.82751339861105,"(-37.827513398611, 144.972669749656)"
TM48,1630309,MPM1630309,YES,NO,Reino TX-P,Birdwood Avenue,144.97349087785346,-37.82812605083966,"(-37.82812605084, 144.973490877853)"
YCNT1,1630340,MPM1630340,YES,NO,Reino TX-P,Bromby Street,144.97553332814437,-37.83474397680424,"(-37.834743976804, 144.975533328144)"
YCNT2,1630341,MPM1630341,YES,NO,Reino TX-P,Bromby Street,144.9761905104983,-37.83482957791423,"(-37.834829577914, 144.976190510498)"
YCNT3,1630342,MPM1630342,YES,NO,Reino TX-P,Bromby Street,144.9774359550099,-37.83497494700207,"(-37.834974947002, 144.97743595501)"
YCNT4,1630343,MPM1630343,YES,NO,Reino TX-P,Bromby Street,144.97797963221578,-37.83503835668969,"(-37.83503835669, 144.977979632216)"
UBNT54,1630364,MPM1630364,YES,YES,Reino TTX,Victoria Street,144.96062678446683,-37.8062887337265,"(-37.806288733726, 144.960626784467)"
CANT20,1630348,MPM1630348,YES,YES,Reino TTX,A'Beckett Street,144.95775719383727,-37.810069458474764,"(-37.810069458475, 144.957757193837)"
67TA,1630365,MPM1630365,YES,YES,Reino TTX,College Crescent,144.96278878830012,-37.79194082678521,"(-37.791940826785, 144.9627887883)"
UBST61,1630366,MPM1630366,YES,YES,Reino TTX,Victoria Street,144.9606798670372,-37.806509828482675,"(-37.806509828483, 144.960679867037)"
ZANT3,1630408,MPM1630408,YES,YES,Reino TTX,Batman Street,144.9495907414899,-37.81116404084426,"(-37.811164040844, 144.94959074149)"
ZANT4,1630409,MPM1630409,YES,YES,Reino TTX,Batman Street,144.94875095453722,-37.81140232001091,"(-37.811402320011, 144.948750954537)"
CNT53,1630423,MPM1630423,YES,YES,Cale CWT-C,Collins Street,144.94367878611024,-37.82111414224205,"(-37.821114142242, 144.94367878611)"
CNT52,1630425,MPM1630425,YES,YES,Cale CWT-C,Collins Street,144.94464648851616,-37.82134453588366,"(-37.821344535884, 144.944646488516)"
DST16,1630426,MPM1630426,YES,YES,Cale CWT-C,Bourke Street,144.94788586869942,-37.81876900276853,"(-37.818769002769, 144.947885868699)"
BHET2,1630428,MPM1630428,YES,YES,Cale CWT-C,Batmans Hill Drive,144.9486539020552,-37.819311555070506,"(-37.819311555071, 144.948653902055)"
BHET1,1630429,MPM1630429,YES,YES,Cale CWT-C,Batmans Hill Drive,144.94868610240644,-37.82020790912868,"(-37.820207909129, 144.948686102406)"
UFET1,1630422,MPM1630422,YES,YES,Cale CWT-C,Jolimont Terrace,144.98207415546113,-37.817253783063826,"(-37.817253783064, 144.982074155461)"
EAT116,1630424,MPM1630424,YES,YES,Cale CWT-C,Franklin Street,144.95644412657367,-37.809251651791136,"(-37.809251651791, 144.956444126574)"
BHWT2,1630427,MPM1630427,YES,YES,Cale CWT-C,Batmans Hill Drive,144.94839292973344,-37.819205896396674,"(-37.819205896397, 144.948392929733)"
CNT50,1630430,MPM1630430,YES,YES,Cale CWT-C,Collins Street,144.94936969105962,-37.820346584823575,"(-37.820346584824, 144.94936969106)"
NAET1,1630432,MPM1630432,YES,YES,Cale CWT-C,Nicholson Street,144.97296874456248,-37.81045558863849,"(-37.810455588638, 144.972968744562)"
NAET2,1630433,MPM1630433,YES,YES,Cale CWT-C,Nicholson Street,144.97298170667185,-37.810064700635124,"(-37.810064700635, 144.972981706672)"
NAWT1A,1630431,MPM1630431,YES,YES,Cale CWT-C,Nicholson Street,144.97271652344344,-37.80995920351309,"(-37.809959203513, 144.972716523443)"
EAT162,1630438,MPM1630438,YES,YES,Cale CWT-C,Franklin Street,144.95582251194932,-37.809502013886686,"(-37.809502013887, 144.955822511949)"
EAT121,1630439,MPM1630439,YES,YES,Cale CWT-C,Franklin Street,144.95625026087598,-37.809374659005606,"(-37.809374659006, 144.956250260876)"
UAWT1,1630437,MPM1630437,YES,YES,Cale CWT-C,Eades Street,144.9809683486845,-37.80949036046164,"(-37.809490360462, 144.980968348685)"
ZAST2,1631144,MPM1631144,YES,YES,Reino TTX,Batman Street,144.95228000010493,-37.810639106380236,"(-37.81063910638, 144.952280000105)"
ZANT2,1631150,MPM1631150,YES,YES,Reino TTX,Batman Street,144.95166534828604,-37.810581122180615,"(-37.810581122181, 144.951665348286)"
